{
"type": "FeatureCollection",
"name": "cantt_lahore",
"crs": { "type": "name", "properties": { "name": "urn:ogc:def:crs:OGC:1.3:CRS84" } },
"features": [
{ "type": "Feature", "properties": { "bbox_west": 74.335561, "bbox_south": 31.3283229, "bbox_east": 74.6546712, "bbox_north": 31.5788208, "place_id": 225069426, "osm_type": "relation", "osm_id": 16108409, "lat": 31.4533087, "lon": 74.5373649, "class": "boundary", "type": "administrative", "place_rank": 14, "importance": 0.2133833348592355, "addresstype": "subdistrict", "name": "Lahore Cantonment Tehsil", "display_name": "Lahore Cantonment Tehsil, Lahore District, Lahore Division, Punjab, Pakistan" }, "geometry": { "type": "Polygon", "coordinates": [ [ [ 74.335561, 31.5054407 ], [ 74.3474914, 31.4944998 ], [ 74.3524911, 31.4894132 ], [ 74.3603875, 31.4871077 ], [ 74.3642069, 31.4848936 ], [ 74.3678977, 31.4808678 ], [ 74.368992, 31.4761098 ], [ 74.3696357, 31.4749752 ], [ 74.370258, 31.4749752 ], [ 74.3713094, 31.4727059 ], [ 74.3745066, 31.4656963 ], [ 74.3873598, 31.4699973 ], [ 74.3894841, 31.4699607 ], [ 74.3926169, 31.469192 ], [ 74.3932177, 31.4683135 ], [ 74.3944802, 31.4687828 ], [ 74.3956731, 31.4692263 ], [ 74.3964793, 31.469526 ], [ 74.4000198, 31.4699836 ], [ 74.4019724, 31.4698737 ], [ 74.4056632, 31.4691463 ], [ 74.4102766, 31.4685057 ], [ 74.4105506, 31.4684419 ], [ 74.4121085, 31.4680795 ], [ 74.4128729, 31.4679017 ], [ 74.4144426, 31.4676895 ], [ 74.4146325, 31.4676638 ], [ 74.4148955, 31.4685612 ], [ 74.4150831, 31.4692012 ], [ 74.4229491, 31.4674004 ], [ 74.4233139, 31.4676932 ], [ 74.4243653, 31.4695417 ], [ 74.4261249, 31.4694136 ], [ 74.42782, 31.4693221 ], [ 74.4292791, 31.4699809 ], [ 74.4300516, 31.4687913 ], [ 74.428571, 31.4671259 ], [ 74.4276269, 31.4665219 ], [ 74.4262536, 31.466229 ], [ 74.425052, 31.4658081 ], [ 74.4237645, 31.463685 ], [ 74.4224556, 31.4627332 ], [ 74.4222625, 31.4614703 ], [ 74.4221337, 31.4586882 ], [ 74.4231852, 31.4576815 ], [ 74.4224556, 31.4549908 ], [ 74.4221552, 31.4535996 ], [ 74.4227345, 31.452959 ], [ 74.4236787, 31.4522084 ], [ 74.424258, 31.4505244 ], [ 74.4239576, 31.448767 ], [ 74.4249232, 31.4471012 ], [ 74.4249462, 31.4440188 ], [ 74.4244527, 31.4416206 ], [ 74.4255685, 31.4391125 ], [ 74.4259118, 31.4381971 ], [ 74.4264268, 31.4371536 ], [ 74.4269418, 31.435872 ], [ 74.426341, 31.4332905 ], [ 74.4267916, 31.4287315 ], [ 74.4284867, 31.4279625 ], [ 74.4315981, 31.4275963 ], [ 74.4326065, 31.4268491 ], [ 74.4329069, 31.4225461 ], [ 74.4330785, 31.4214658 ], [ 74.4340227, 31.4189205 ], [ 74.4339154, 31.4163752 ], [ 74.4328639, 31.4151849 ], [ 74.4293234, 31.414251 ], [ 74.4278858, 31.414251 ], [ 74.4247744, 31.4141594 ], [ 74.4235513, 31.4135734 ], [ 74.4230363, 31.4123648 ], [ 74.4228432, 31.4110829 ], [ 74.4223926, 31.4096361 ], [ 74.4216416, 31.408171 ], [ 74.4184015, 31.4050394 ], [ 74.417393, 31.4042701 ], [ 74.4144103, 31.4024753 ], [ 74.4130371, 31.4023654 ], [ 74.4106982, 31.4025303 ], [ 74.4076941, 31.4023288 ], [ 74.406235, 31.4019991 ], [ 74.4009778, 31.401175 ], [ 74.4015992, 31.3968462 ], [ 74.4015133, 31.3937691 ], [ 74.4011271, 31.3892449 ], [ 74.3998396, 31.3858927 ], [ 74.3998396, 31.3815329 ], [ 74.4012988, 31.37884 ], [ 74.4038308, 31.3739853 ], [ 74.4048178, 31.3723914 ], [ 74.4067276, 31.3672065 ], [ 74.4096029, 31.3585583 ], [ 74.4093025, 31.3559381 ], [ 74.4100106, 31.3501659 ], [ 74.4105685, 31.3477653 ], [ 74.409796, 31.3426157 ], [ 74.411577, 31.3353399 ], [ 74.4136327, 31.3300552 ], [ 74.4164007, 31.3315215 ], [ 74.4192331, 31.3328228 ], [ 74.4225162, 31.3347106 ], [ 74.4257134, 31.3364701 ], [ 74.430949, 31.340612 ], [ 74.4341462, 31.3414734 ], [ 74.4361203, 31.3418032 ], [ 74.438073, 31.338651 ], [ 74.4402187, 31.3353154 ], [ 74.4427293, 31.3325296 ], [ 74.4462269, 31.3312099 ], [ 74.4493168, 31.3293953 ], [ 74.4514075, 31.3283229 ], [ 74.4518, 31.330089 ], [ 74.455335, 31.346755 ], [ 74.4565081, 31.3506652 ], [ 74.45685, 31.351805 ], [ 74.4581795, 31.3519316 ], [ 74.467456, 31.352815 ], [ 74.4682856, 31.3550968 ], [ 74.4685878, 31.3559278 ], [ 74.4709716, 31.3624837 ], [ 74.471496, 31.363926 ], [ 74.481597, 31.363926 ], [ 74.488667, 31.363421 ], [ 74.4936594, 31.3584296 ], [ 74.493718, 31.358371 ], [ 74.497253, 31.34524 ], [ 74.504828, 31.348775 ], [ 74.515434, 31.352815 ], [ 74.5158092, 31.3529856 ], [ 74.5209334, 31.3553145 ], [ 74.526545, 31.357865 ], [ 74.5332718, 31.3568099 ], [ 74.5340147, 31.3566933 ], [ 74.5518394, 31.3538974 ], [ 74.5518644, 31.3538923 ], [ 74.5522507, 31.3543884 ], [ 74.5522925, 31.3547312 ], [ 74.55281, 31.3555062 ], [ 74.5529734, 31.3560635 ], [ 74.5531498, 31.3563749 ], [ 74.553049, 31.3564995 ], [ 74.55262, 31.3567391 ], [ 74.551337, 31.3569773 ], [ 74.5506657, 31.3570378 ], [ 74.5503495, 31.3579216 ], [ 74.5501614, 31.3585348 ], [ 74.5502354, 31.3594105 ], [ 74.5501156, 31.3601415 ], [ 74.5504383, 31.3611526 ], [ 74.5508215, 31.361138 ], [ 74.550968, 31.3618175 ], [ 74.5511604, 31.3619757 ], [ 74.55162, 31.3627736 ], [ 74.5516261, 31.3633545 ], [ 74.5517374, 31.3643995 ], [ 74.5522282, 31.3649501 ], [ 74.5526333, 31.3653376 ], [ 74.5530206, 31.3658392 ], [ 74.553872, 31.3664865 ], [ 74.5547141, 31.3666067 ], [ 74.5551919, 31.3666456 ], [ 74.5557236, 31.3668099 ], [ 74.5564516, 31.3671011 ], [ 74.557321, 31.3672384 ], [ 74.5585679, 31.3678491 ], [ 74.5592108, 31.3682483 ], [ 74.5594061, 31.3683383 ], [ 74.5605027, 31.3687302 ], [ 74.5611003, 31.3690523 ], [ 74.5613433, 31.3691745 ], [ 74.5621295, 31.3693799 ], [ 74.562684, 31.3695929 ], [ 74.563101, 31.3697716 ], [ 74.5636201, 31.3700787 ], [ 74.5647359, 31.3707433 ], [ 74.565437, 31.3713837 ], [ 74.5658842, 31.3715857 ], [ 74.567059, 31.3718581 ], [ 74.5674937, 31.3719203 ], [ 74.5692574, 31.3723197 ], [ 74.5698995, 31.3722891 ], [ 74.570366, 31.3720144 ], [ 74.5709874, 31.3714713 ], [ 74.5716701, 31.3714555 ], [ 74.5719773, 31.3731151 ], [ 74.5722189, 31.3733651 ], [ 74.5723666, 31.3734714 ], [ 74.572736, 31.3736691 ], [ 74.5733465, 31.3741106 ], [ 74.5740514, 31.3741263 ], [ 74.5750667, 31.3743219 ], [ 74.5756021, 31.3744716 ], [ 74.5761217, 31.3745283 ], [ 74.5774765, 31.3745772 ], [ 74.5784813, 31.3749031 ], [ 74.5778618, 31.375932 ], [ 74.5785443, 31.3763754 ], [ 74.5790093, 31.3765304 ], [ 74.5793972, 31.3767742 ], [ 74.5805024, 31.3772568 ], [ 74.5805046, 31.3776269 ], [ 74.5834885, 31.3790117 ], [ 74.5834089, 31.3796987 ], [ 74.5844571, 31.3801278 ], [ 74.5848221, 31.3808055 ], [ 74.585438, 31.3829016 ], [ 74.5860731, 31.3848847 ], [ 74.5862338, 31.385863 ], [ 74.5863227, 31.3866834 ], [ 74.5861, 31.3883123 ], [ 74.5864558, 31.3902782 ], [ 74.58646, 31.3909681 ], [ 74.5865114, 31.3913956 ], [ 74.5865879, 31.3919149 ], [ 74.5867353, 31.3934706 ], [ 74.5866862, 31.3944568 ], [ 74.5865867, 31.3949188 ], [ 74.5867646, 31.3957582 ], [ 74.5868417, 31.3966818 ], [ 74.5870802, 31.3976458 ], [ 74.5872659, 31.3980367 ], [ 74.5875009, 31.3982283 ], [ 74.5878493, 31.3985228 ], [ 74.5885967, 31.3993739 ], [ 74.5888182, 31.3995538 ], [ 74.5901849, 31.4008845 ], [ 74.5905487, 31.4008634 ], [ 74.5907492, 31.4013565 ], [ 74.5910162, 31.4018459 ], [ 74.5912873, 31.4028962 ], [ 74.5916707, 31.403675 ], [ 74.5922075, 31.4053062 ], [ 74.5923371, 31.4055734 ], [ 74.5928325, 31.4062538 ], [ 74.5933624, 31.4068997 ], [ 74.594104, 31.4077556 ], [ 74.5942098, 31.4087243 ], [ 74.5942354, 31.409462 ], [ 74.5941173, 31.410223 ], [ 74.5942961, 31.4108104 ], [ 74.5944429, 31.4110811 ], [ 74.5947874, 31.4114601 ], [ 74.5955245, 31.4124972 ], [ 74.5958234, 31.4125584 ], [ 74.5960997, 31.4131471 ], [ 74.5962651, 31.4134903 ], [ 74.5964197, 31.4143546 ], [ 74.5965316, 31.4153937 ], [ 74.5966023, 31.4162083 ], [ 74.5974837, 31.4160356 ], [ 74.5994115, 31.4158288 ], [ 74.5996099, 31.4157739 ], [ 74.6003168, 31.4155127 ], [ 74.6016453, 31.41556 ], [ 74.6023143, 31.4155916 ], [ 74.6026732, 31.4156248 ], [ 74.6027459, 31.416346 ], [ 74.6027555, 31.4168265 ], [ 74.602865, 31.4169935 ], [ 74.6028545, 31.4174116 ], [ 74.6026887, 31.4178486 ], [ 74.6024989, 31.4182263 ], [ 74.6012549, 31.4199341 ], [ 74.6023788, 31.4199612 ], [ 74.6024707, 31.4204446 ], [ 74.6026701, 31.4204967 ], [ 74.6029158, 31.4205128 ], [ 74.6036278, 31.4200982 ], [ 74.6042166, 31.4198544 ], [ 74.6046777, 31.419765 ], [ 74.6053298, 31.4196912 ], [ 74.6054513, 31.4200471 ], [ 74.606676, 31.4202942 ], [ 74.6071542, 31.4204801 ], [ 74.6076615, 31.4213259 ], [ 74.6087732, 31.4220362 ], [ 74.6087798, 31.4228414 ], [ 74.6089786, 31.4236021 ], [ 74.6098985, 31.4232561 ], [ 74.6108742, 31.4227625 ], [ 74.6108404, 31.4224625 ], [ 74.6125129, 31.4221996 ], [ 74.6138584, 31.4218206 ], [ 74.6145383, 31.4216033 ], [ 74.6156807, 31.4210931 ], [ 74.6157811, 31.4209381 ], [ 74.6166849, 31.4205904 ], [ 74.6177114, 31.420251 ], [ 74.6193186, 31.4198396 ], [ 74.6194233, 31.4204605 ], [ 74.6195652, 31.4212808 ], [ 74.6203389, 31.4227945 ], [ 74.6206107, 31.423401 ], [ 74.620951, 31.4241349 ], [ 74.6211008, 31.424606 ], [ 74.621233, 31.4253579 ], [ 74.6214796, 31.4264211 ], [ 74.6217483, 31.4275165 ], [ 74.6219042, 31.4284439 ], [ 74.6223777, 31.4301357 ], [ 74.6232833, 31.429995 ], [ 74.6242398, 31.4298183 ], [ 74.6251587, 31.4295977 ], [ 74.6263206, 31.4293928 ], [ 74.6274957, 31.4294138 ], [ 74.6278608, 31.4286482 ], [ 74.6281911, 31.4278106 ], [ 74.6285713, 31.4269439 ], [ 74.62888, 31.4261583 ], [ 74.6296894, 31.425558 ], [ 74.6313558, 31.4255697 ], [ 74.6315688, 31.4247345 ], [ 74.6320964, 31.4246005 ], [ 74.6322441, 31.4237095 ], [ 74.6323424, 31.4227986 ], [ 74.6323991, 31.4222209 ], [ 74.6324217, 31.4218465 ], [ 74.632452, 31.4217964 ], [ 74.6326109, 31.421727 ], [ 74.6327497, 31.4212683 ], [ 74.6327913, 31.4209455 ], [ 74.6329917, 31.420492 ], [ 74.6333938, 31.4191919 ], [ 74.6336639, 31.4186905 ], [ 74.6343126, 31.4187308 ], [ 74.6354178, 31.4187841 ], [ 74.6358641, 31.418797 ], [ 74.6366848, 31.4183903 ], [ 74.6375366, 31.41832 ], [ 74.6376104, 31.4179537 ], [ 74.6386869, 31.4176919 ], [ 74.6392133, 31.4170283 ], [ 74.6397227, 31.4167428 ], [ 74.6401378, 31.4171448 ], [ 74.6406472, 31.4167446 ], [ 74.6419625, 31.4162367 ], [ 74.6421842, 31.4161058 ], [ 74.6425355, 31.4159469 ], [ 74.6426265, 31.4161415 ], [ 74.6434998, 31.4160901 ], [ 74.6437474, 31.4166242 ], [ 74.64388, 31.417303 ], [ 74.6442579, 31.4178118 ], [ 74.644666, 31.4177893 ], [ 74.6450384, 31.4179183 ], [ 74.645339, 31.4182587 ], [ 74.6456671, 31.4189122 ], [ 74.645519, 31.4203745 ], [ 74.646322, 31.4208957 ], [ 74.6467522, 31.4218186 ], [ 74.6476867, 31.4231444 ], [ 74.6483019, 31.4237675 ], [ 74.6497355, 31.424471 ], [ 74.6503272, 31.4251212 ], [ 74.6507127, 31.4254356 ], [ 74.6511545, 31.4257304 ], [ 74.6519512, 31.4264365 ], [ 74.6536298, 31.4253783 ], [ 74.6546712, 31.4259095 ], [ 74.6546357, 31.4262388 ], [ 74.6544758, 31.4269507 ], [ 74.6541002, 31.4271992 ], [ 74.6539864, 31.4275165 ], [ 74.6541163, 31.4277203 ], [ 74.6540372, 31.4277802 ], [ 74.6533466, 31.4281396 ], [ 74.6528678, 31.4284184 ], [ 74.6520748, 31.4292178 ], [ 74.6513286, 31.4298222 ], [ 74.6502798, 31.4306836 ], [ 74.650019, 31.4308759 ], [ 74.6495038, 31.4312659 ], [ 74.6491928, 31.4315057 ], [ 74.6485401, 31.4318794 ], [ 74.648227, 31.4322234 ], [ 74.6477225, 31.432356 ], [ 74.6475373, 31.4333369 ], [ 74.6471706, 31.433308 ], [ 74.6469092, 31.4338674 ], [ 74.6460739, 31.4338474 ], [ 74.6459347, 31.4349167 ], [ 74.6457255, 31.4348887 ], [ 74.6453064, 31.4352305 ], [ 74.6443117, 31.4357164 ], [ 74.6439087, 31.4360218 ], [ 74.6429365, 31.4366135 ], [ 74.6430404, 31.4375246 ], [ 74.6421385, 31.43773 ], [ 74.6421789, 31.4384449 ], [ 74.6421893, 31.4391919 ], [ 74.6412004, 31.4394272 ], [ 74.6409818, 31.4401255 ], [ 74.6399907, 31.440342 ], [ 74.6395843, 31.4405561 ], [ 74.6395039, 31.4406287 ], [ 74.639468, 31.4407409 ], [ 74.6393963, 31.4414956 ], [ 74.6394051, 31.4419165 ], [ 74.638629, 31.4441692 ], [ 74.6387959, 31.4449827 ], [ 74.6390911, 31.4459277 ], [ 74.6392957, 31.4463985 ], [ 74.6395313, 31.4468406 ], [ 74.6398285, 31.4474799 ], [ 74.6402434, 31.4480188 ], [ 74.6406573, 31.4483731 ], [ 74.6414483, 31.4489859 ], [ 74.6428676, 31.4499319 ], [ 74.6437965, 31.4504507 ], [ 74.644236, 31.4506707 ], [ 74.6447363, 31.4508469 ], [ 74.6450439, 31.4509254 ], [ 74.6457427, 31.4510381 ], [ 74.6468238, 31.4514793 ], [ 74.6474038, 31.4516295 ], [ 74.647739, 31.4516917 ], [ 74.6486675, 31.4517873 ], [ 74.6492501, 31.4518336 ], [ 74.6502313, 31.4519977 ], [ 74.6513093, 31.4518975 ], [ 74.6520977, 31.4530179 ], [ 74.6526962, 31.4538321 ], [ 74.6529341, 31.4544402 ], [ 74.6532163, 31.4544026 ], [ 74.6532183, 31.4549284 ], [ 74.6532569, 31.4552225 ], [ 74.6527917, 31.456106 ], [ 74.652518, 31.4564817 ], [ 74.6522362, 31.4572079 ], [ 74.6515712, 31.4583793 ], [ 74.6510915, 31.4590664 ], [ 74.6503901, 31.459966 ], [ 74.6502306, 31.4603643 ], [ 74.6498496, 31.4610027 ], [ 74.6497375, 31.4614086 ], [ 74.6494886, 31.4620226 ], [ 74.6494329, 31.4622615 ], [ 74.6491731, 31.4627176 ], [ 74.648525, 31.4636533 ], [ 74.6482697, 31.4643165 ], [ 74.648027, 31.464988 ], [ 74.6477739, 31.4654882 ], [ 74.6473001, 31.466011 ], [ 74.6468488, 31.4662 ], [ 74.6462345, 31.4668219 ], [ 74.6458591, 31.4670184 ], [ 74.6454626, 31.4676311 ], [ 74.6450431, 31.4681427 ], [ 74.6441935, 31.4688301 ], [ 74.6441494, 31.4689801 ], [ 74.643505, 31.46909 ], [ 74.6434916, 31.4692484 ], [ 74.6428227, 31.469697 ], [ 74.6421087, 31.4700679 ], [ 74.6415915, 31.4704576 ], [ 74.6409328, 31.4710159 ], [ 74.6401918, 31.4715739 ], [ 74.6399649, 31.4717365 ], [ 74.639646, 31.4719548 ], [ 74.6394188, 31.4721281 ], [ 74.6386469, 31.4725342 ], [ 74.6384735, 31.4728229 ], [ 74.6384146, 31.4730321 ], [ 74.6381715, 31.4737573 ], [ 74.6379834, 31.4742386 ], [ 74.6374652, 31.4749819 ], [ 74.6372132, 31.4754335 ], [ 74.6368584, 31.4759034 ], [ 74.6369549, 31.4760462 ], [ 74.6364646, 31.4763169 ], [ 74.6366686, 31.476661 ], [ 74.6360671, 31.4770333 ], [ 74.6362652, 31.4773282 ], [ 74.6363261, 31.4776715 ], [ 74.6354564, 31.4777582 ], [ 74.6346956, 31.4778927 ], [ 74.6345742, 31.4776159 ], [ 74.6340543, 31.4777138 ], [ 74.6328416, 31.4780606 ], [ 74.6326547, 31.4778638 ], [ 74.6325255, 31.4778741 ], [ 74.6324159, 31.4777416 ], [ 74.6322839, 31.4775884 ], [ 74.6323555, 31.4770675 ], [ 74.6320735, 31.476847 ], [ 74.6316396, 31.4768085 ], [ 74.6311416, 31.476566 ], [ 74.6307863, 31.4769234 ], [ 74.6304992, 31.4766885 ], [ 74.6303892, 31.4766887 ], [ 74.6295455, 31.4772191 ], [ 74.6290167, 31.4766985 ], [ 74.6287331, 31.4763839 ], [ 74.6282673, 31.4765758 ], [ 74.6277733, 31.4768641 ], [ 74.6280336, 31.4774044 ], [ 74.6283364, 31.4777966 ], [ 74.6286893, 31.478147 ], [ 74.6291197, 31.4787181 ], [ 74.6282314, 31.4792791 ], [ 74.6279512, 31.480027 ], [ 74.6289112, 31.4811088 ], [ 74.6296091, 31.482155 ], [ 74.6288756, 31.4826166 ], [ 74.6292628, 31.4834728 ], [ 74.6296215, 31.4841344 ], [ 74.6298487, 31.4840771 ], [ 74.6298117, 31.4838229 ], [ 74.6301179, 31.4836617 ], [ 74.6306427, 31.4835139 ], [ 74.6310614, 31.4830039 ], [ 74.6308875, 31.4823029 ], [ 74.6309322, 31.481847 ], [ 74.6311187, 31.481747 ], [ 74.6315564, 31.4812929 ], [ 74.6320228, 31.481764 ], [ 74.6323482, 31.4820034 ], [ 74.6326877, 31.4821963 ], [ 74.6331268, 31.4822283 ], [ 74.6334088, 31.4823867 ], [ 74.633892, 31.4825189 ], [ 74.6342038, 31.4837114 ], [ 74.6346435, 31.4841624 ], [ 74.6347783, 31.4843659 ], [ 74.635103, 31.4846167 ], [ 74.6354878, 31.4843693 ], [ 74.6359115, 31.4842327 ], [ 74.6361595, 31.4843259 ], [ 74.6362803, 31.4844656 ], [ 74.6364833, 31.4844909 ], [ 74.6366854, 31.484739 ], [ 74.6361247, 31.4849785 ], [ 74.6358367, 31.4851663 ], [ 74.6355348, 31.4853379 ], [ 74.63474, 31.4855367 ], [ 74.634395, 31.4854271 ], [ 74.6340071, 31.485423 ], [ 74.6335827, 31.4854361 ], [ 74.6332641, 31.4855904 ], [ 74.6329951, 31.4857439 ], [ 74.6325414, 31.4859323 ], [ 74.6323185, 31.4864722 ], [ 74.632052, 31.4864934 ], [ 74.631074, 31.4856949 ], [ 74.6307308, 31.4859687 ], [ 74.6304624, 31.486063 ], [ 74.6298162, 31.4864133 ], [ 74.6290915, 31.4859492 ], [ 74.6284371, 31.4854321 ], [ 74.627719, 31.4859297 ], [ 74.6273299, 31.4856732 ], [ 74.6270559, 31.4855597 ], [ 74.6263023, 31.4858025 ], [ 74.6256469, 31.4858476 ], [ 74.6250875, 31.4858546 ], [ 74.6251866, 31.4848977 ], [ 74.6252286, 31.4842495 ], [ 74.6251562, 31.483809 ], [ 74.6261757, 31.4836569 ], [ 74.6259456, 31.4826564 ], [ 74.6245543, 31.483225 ], [ 74.6236479, 31.4833205 ], [ 74.623362, 31.4828783 ], [ 74.6230975, 31.4822249 ], [ 74.622992, 31.4816102 ], [ 74.6222814, 31.4819771 ], [ 74.6225659, 31.4824635 ], [ 74.6224764, 31.4826406 ], [ 74.6220127, 31.4827383 ], [ 74.6218405, 31.4828057 ], [ 74.6218109, 31.4831011 ], [ 74.6222816, 31.4843933 ], [ 74.6223644, 31.4851795 ], [ 74.622264, 31.4852107 ], [ 74.6208172, 31.485084 ], [ 74.6196232, 31.4850385 ], [ 74.6187451, 31.4850508 ], [ 74.618735, 31.485477 ], [ 74.6179518, 31.4856486 ], [ 74.6172866, 31.4859551 ], [ 74.6165316, 31.4866574 ], [ 74.6154594, 31.4878759 ], [ 74.6150979, 31.4883245 ], [ 74.6145366, 31.4891117 ], [ 74.6143305, 31.4895301 ], [ 74.6141861, 31.4899909 ], [ 74.6139461, 31.4907613 ], [ 74.6137754, 31.4913581 ], [ 74.6136262, 31.4919045 ], [ 74.6137256, 31.4927083 ], [ 74.6137404, 31.4934264 ], [ 74.6137678, 31.4940104 ], [ 74.6136761, 31.4944308 ], [ 74.6132397, 31.4956482 ], [ 74.613057, 31.4960585 ], [ 74.6128192, 31.4964875 ], [ 74.6118061, 31.4979327 ], [ 74.6108794, 31.4990013 ], [ 74.6098328, 31.4997889 ], [ 74.6095413, 31.4997557 ], [ 74.6092604, 31.4998115 ], [ 74.6090807, 31.4996687 ], [ 74.6087453, 31.4997102 ], [ 74.6085689, 31.4996191 ], [ 74.6080414, 31.4995166 ], [ 74.6077772, 31.4995212 ], [ 74.6068451, 31.4997275 ], [ 74.6064975, 31.4983433 ], [ 74.6061248, 31.4983793 ], [ 74.6055253, 31.4984048 ], [ 74.6041671, 31.498655 ], [ 74.6041027, 31.4990025 ], [ 74.6038064, 31.4998193 ], [ 74.6034868, 31.4998988 ], [ 74.6033252, 31.500005 ], [ 74.6032462, 31.500123 ], [ 74.6031286, 31.5004568 ], [ 74.6028597, 31.5004305 ], [ 74.6021282, 31.5001166 ], [ 74.6010073, 31.4998167 ], [ 74.6005353, 31.4997393 ], [ 74.6000093, 31.4996902 ], [ 74.5996261, 31.4996793 ], [ 74.5988085, 31.4999546 ], [ 74.5986891, 31.5000685 ], [ 74.5982106, 31.5005698 ], [ 74.598103, 31.5009891 ], [ 74.5974279, 31.5010278 ], [ 74.5962947, 31.5011656 ], [ 74.5957006, 31.5012841 ], [ 74.5948141, 31.5015212 ], [ 74.5944571, 31.5006544 ], [ 74.5943638, 31.4996668 ], [ 74.5943, 31.498952 ], [ 74.594436, 31.4988676 ], [ 74.5942248, 31.4982179 ], [ 74.5945826, 31.4980947 ], [ 74.5941819, 31.4968718 ], [ 74.5936164, 31.49613 ], [ 74.5930735, 31.4962263 ], [ 74.5911445, 31.4966773 ], [ 74.5903592, 31.4968847 ], [ 74.5896544, 31.4969915 ], [ 74.5883806, 31.4971645 ], [ 74.5888576, 31.4965868 ], [ 74.5879598, 31.4962387 ], [ 74.587417, 31.4960804 ], [ 74.586679, 31.4963525 ], [ 74.5857974, 31.4963636 ], [ 74.5847295, 31.4964408 ], [ 74.5839435, 31.4965576 ], [ 74.5836392, 31.4967904 ], [ 74.5832689, 31.4969488 ], [ 74.5830906, 31.4968689 ], [ 74.5820887, 31.4976257 ], [ 74.5816473, 31.4977006 ], [ 74.5812355, 31.4978612 ], [ 74.5807865, 31.4980504 ], [ 74.5802865, 31.4983772 ], [ 74.5800688, 31.4984457 ], [ 74.5798885, 31.4984551 ], [ 74.5786981, 31.4984309 ], [ 74.5781876, 31.4983321 ], [ 74.5775681, 31.4990515 ], [ 74.5773826, 31.4992367 ], [ 74.5765651, 31.4998874 ], [ 74.5759298, 31.5004198 ], [ 74.5756736, 31.5006426 ], [ 74.5753597, 31.5009072 ], [ 74.575409, 31.5011485 ], [ 74.5754143, 31.5015027 ], [ 74.5755684, 31.5015764 ], [ 74.5759323, 31.5015912 ], [ 74.5764459, 31.5015302 ], [ 74.5770116, 31.5011733 ], [ 74.5779704, 31.500867 ], [ 74.5786572, 31.5006796 ], [ 74.578432, 31.4999312 ], [ 74.5784812, 31.4998014 ], [ 74.5788271, 31.4997449 ], [ 74.5790648, 31.5005653 ], [ 74.5794156, 31.5004865 ], [ 74.579955, 31.5004533 ], [ 74.5801197, 31.4998719 ], [ 74.5804435, 31.4994029 ], [ 74.5804959, 31.4988984 ], [ 74.5812338, 31.4987703 ], [ 74.5814166, 31.4998066 ], [ 74.5815576, 31.5006403 ], [ 74.5819707, 31.50067 ], [ 74.5828795, 31.5004017 ], [ 74.5834684, 31.5007858 ], [ 74.5846402, 31.5001956 ], [ 74.5853159, 31.5008822 ], [ 74.5854752, 31.5010114 ], [ 74.5860574, 31.5018446 ], [ 74.5866603, 31.5028818 ], [ 74.5870226, 31.5036642 ], [ 74.5872873, 31.5041721 ], [ 74.5859964, 31.5049311 ], [ 74.584685, 31.5054217 ], [ 74.5840586, 31.5056688 ], [ 74.5835417, 31.5057891 ], [ 74.5830198, 31.5059888 ], [ 74.5824563, 31.5063599 ], [ 74.5820583, 31.5065215 ], [ 74.5811428, 31.506783 ], [ 74.5810212, 31.506496 ], [ 74.5804427, 31.5063131 ], [ 74.5801452, 31.5070028 ], [ 74.580121, 31.5078641 ], [ 74.5810142, 31.5079998 ], [ 74.5819998, 31.5079986 ], [ 74.5825086, 31.5077913 ], [ 74.5829262, 31.5071318 ], [ 74.58301, 31.5068547 ], [ 74.5834043, 31.5065903 ], [ 74.5841171, 31.5067493 ], [ 74.5841761, 31.5074477 ], [ 74.583926, 31.5077624 ], [ 74.5834217, 31.507778 ], [ 74.5832194, 31.5084869 ], [ 74.583304, 31.5090845 ], [ 74.5837761, 31.5091402 ], [ 74.5837827, 31.5097426 ], [ 74.5836793, 31.5103595 ], [ 74.5834717, 31.5103351 ], [ 74.5834918, 31.5104086 ], [ 74.5824907, 31.5104665 ], [ 74.5820107, 31.5105287 ], [ 74.5820249, 31.5108602 ], [ 74.5812456, 31.5110574 ], [ 74.5808739, 31.5109957 ], [ 74.5804994, 31.510964 ], [ 74.5802721, 31.5110927 ], [ 74.5806103, 31.511614 ], [ 74.580957, 31.5118338 ], [ 74.5817341, 31.5121718 ], [ 74.5821397, 31.512581 ], [ 74.5823783, 31.5128848 ], [ 74.5825062, 31.5131433 ], [ 74.582781, 31.5137787 ], [ 74.5828793, 31.514083 ], [ 74.5830421, 31.5149531 ], [ 74.5827697, 31.5153512 ], [ 74.5827203, 31.5156458 ], [ 74.5827485, 31.5164067 ], [ 74.5829918, 31.5172174 ], [ 74.5834109, 31.5182389 ], [ 74.5836836, 31.5190567 ], [ 74.5842205, 31.5207521 ], [ 74.5726916, 31.5212544 ], [ 74.5652458, 31.5225348 ], [ 74.5609972, 31.511907 ], [ 74.559066, 31.506492 ], [ 74.5561294, 31.5077019 ], [ 74.5510869, 31.507958 ], [ 74.5426325, 31.5105008 ], [ 74.5310669, 31.5117448 ], [ 74.5214324, 31.5106106 ], [ 74.5106392, 31.5097508 ], [ 74.5046525, 31.5095313 ], [ 74.50388, 31.5165924 ], [ 74.5034294, 31.5211288 ], [ 74.5013909, 31.5231226 ], [ 74.4998674, 31.5251163 ], [ 74.4978289, 31.5280428 ], [ 74.496284, 31.5301095 ], [ 74.4968633, 31.5350294 ], [ 74.499846, 31.5357426 ], [ 74.4998674, 31.5367851 ], [ 74.5027427, 31.5378458 ], [ 74.5021419, 31.5452705 ], [ 74.5027213, 31.5483975 ], [ 74.5049314, 31.5507564 ], [ 74.5055966, 31.5522193 ], [ 74.5060472, 31.5539746 ], [ 74.5095234, 31.555858 ], [ 74.5094804, 31.5571562 ], [ 74.5058541, 31.5573939 ], [ 74.5029788, 31.5577596 ], [ 74.501863, 31.5579424 ], [ 74.5014982, 31.5592955 ], [ 74.5014767, 31.5619832 ], [ 74.5009403, 31.5649451 ], [ 74.5006613, 31.5669379 ], [ 74.5008974, 31.5702104 ], [ 74.502378, 31.5735194 ], [ 74.5024852, 31.5773218 ], [ 74.502335, 31.5788208 ], [ 74.4923787, 31.5774315 ], [ 74.4841389, 31.5763164 ], [ 74.4354086, 31.5686747 ], [ 74.4345932, 31.5578693 ], [ 74.4333486, 31.5533164 ], [ 74.4317393, 31.5537187 ], [ 74.4318037, 31.5543403 ], [ 74.4302373, 31.5545963 ], [ 74.4289283, 31.5520547 ], [ 74.4296579, 31.5517621 ], [ 74.4290356, 31.5491473 ], [ 74.42807, 31.5494581 ], [ 74.4266324, 31.5445573 ], [ 74.4259886, 31.5421617 ], [ 74.4143371, 31.5420886 ], [ 74.4101958, 31.5418508 ], [ 74.4002394, 31.5423812 ], [ 74.4005184, 31.5486901 ], [ 74.4010548, 31.5530055 ], [ 74.3928151, 31.5531884 ], [ 74.3907122, 31.5545232 ], [ 74.388545, 31.5562237 ], [ 74.3885665, 31.5583447 ], [ 74.3805627, 31.5584178 ], [ 74.3806915, 31.5607033 ], [ 74.3726556, 31.5603256 ], [ 74.3704126, 31.5596357 ], [ 74.3669367, 31.5583237 ], [ 74.3661561, 31.5589525 ], [ 74.3607152, 31.5557827 ], [ 74.3576832, 31.5558912 ], [ 74.3563689, 31.5551377 ], [ 74.3539157, 31.5556827 ], [ 74.3461943, 31.5572701 ], [ 74.3430998, 31.5578378 ], [ 74.3425934, 31.556102 ], [ 74.3406407, 31.5553523 ], [ 74.3418638, 31.5522621 ], [ 74.343559, 31.5494278 ], [ 74.3456833, 31.5472152 ], [ 74.3495027, 31.5441979 ], [ 74.3449322, 31.5392603 ], [ 74.342215, 31.5363831 ], [ 74.3454122, 31.5349383 ], [ 74.3483519, 31.5341153 ], [ 74.3522358, 31.5330363 ], [ 74.349339, 31.5259764 ], [ 74.3420648, 31.5126416 ], [ 74.3392324, 31.508928 ], [ 74.3376446, 31.5076291 ], [ 74.335561, 31.5054407 ] ] ] } }
]
}
