{
"type": "FeatureCollection",
"name": "awaisia",
"crs": { "type": "name", "properties": { "name": "urn:ogc:def:crs:OGC:1.3:CRS84" } },
"features": [
{ "type": "Feature", "properties": { "OBJECTID": 1123, "SHAPE_Leng": 122.545982099, "SHAPE_Area": 885.283375718, "Town": "Allama Iqbal Town", "UC_N0": "UC_120", "Landuse": "R", "Name": null, "Plot_No": "9", "Category": null, "__source_file": "Awaisa_Housing_Scheme.shp" }, "geometry": { "type": "Polygon", "coordinates": [ [ [ 74.290256674036243, 31.435914965033849 ], [ 74.290083122997004, 31.435605962502358 ], [ 74.289865750401376, 31.435689709991092 ], [ 74.290025089762452, 31.436002501913084 ], [ 74.290256674036243, 31.435914965033849 ] ] ] } },
{ "type": "Feature", "properties": { "OBJECTID": 1124, "SHAPE_Leng": 117.421181727, "SHAPE_Area": 825.72275072000002, "Town": "Allama Iqbal Town", "UC_N0": "UC_120", "Landuse": "R", "Name": null, "Plot_No": null, "Category": null, "__source_file": "Awaisa_Housing_Scheme.shp" }, "geometry": { "type": "Polygon", "coordinates": [ [ [ 74.290173953990617, 31.436294728823501 ], [ 74.290025089762452, 31.436002501913084 ], [ 74.289802397928298, 31.436086677234016 ], [ 74.289946852009692, 31.436380650126956 ], [ 74.290173953990617, 31.436294728823501 ] ] ] } },
{ "type": "Feature", "properties": { "OBJECTID": 1125, "SHAPE_Leng": 121.27548291799999, "SHAPE_Area": 863.84431898900004, "Town": "Allama Iqbal Town", "UC_N0": "UC_120", "Landuse": "R", "Name": null, "Plot_No": null, "Category": null, "__source_file": "Awaisa_Housing_Scheme.shp" }, "geometry": { "type": "Polygon", "coordinates": [ [ [ 74.290025089762452, 31.436002501913084 ], [ 74.289865750401376, 31.435689709991092 ], [ 74.289648470293301, 31.435773421529866 ], [ 74.289802397928298, 31.436086677234016 ], [ 74.290025089762452, 31.436002501913084 ] ] ] } },
{ "type": "Feature", "properties": { "OBJECTID": 1126, "SHAPE_Leng": 117.585182295, "SHAPE_Area": 807.00230259199998, "Town": "Allama Iqbal Town", "UC_N0": "UC_120", "Landuse": "P.B", "Name": "Darr-e-Arqam School", "Plot_No": null, "Category": null, "__source_file": "Awaisa_Housing_Scheme.shp" }, "geometry": { "type": "Polygon", "coordinates": [ [ [ 74.288488317358613, 31.436220386513963 ], [ 74.28864575717553, 31.436521019555087 ], [ 74.288729785385968, 31.43649210585723 ], [ 74.288940174265917, 31.436412583521314 ], [ 74.288779496052513, 31.436108206916558 ], [ 74.288570005632053, 31.436188915739439 ], [ 74.288488317358613, 31.436220386513963 ] ] ] } },
{ "type": "Feature", "properties": { "OBJECTID": 1127, "SHAPE_Leng": 114.500926038, "SHAPE_Area": 773.62774147899995, "Town": "Allama Iqbal Town", "UC_N0": "UC_120", "Landuse": "R", "Name": null, "Plot_No": null, "Category": null, "__source_file": "Awaisa_Housing_Scheme.shp" }, "geometry": { "type": "Polygon", "coordinates": [ [ [ 74.289093710308777, 31.436703424847085 ], [ 74.288940174265903, 31.436412583521292 ], [ 74.288729785385954, 31.43649210585723 ], [ 74.288645757189215, 31.436521019610428 ], [ 74.288799563205771, 31.436814709776304 ], [ 74.288883136130067, 31.436783090675668 ], [ 74.289093710308777, 31.436703424847085 ] ] ] } },
{ "type": "Feature", "properties": { "OBJECTID": 1128, "SHAPE_Leng": 118.174068121, "SHAPE_Area": 815.52962182800002, "Town": "Allama Iqbal Town", "UC_N0": "UC_120", "Landuse": "R", "Name": null, "Plot_No": null, "Category": null, "__source_file": "Awaisa_Housing_Scheme.shp" }, "geometry": { "type": "Polygon", "coordinates": [ [ [ 74.289152525908477, 31.436332318589571 ], [ 74.288989686699054, 31.43602722747649 ], [ 74.288779495985139, 31.43610820651752 ], [ 74.288940174354011, 31.436412582876148 ], [ 74.289152525908477, 31.436332318589571 ] ] ] } },
{ "type": "Feature", "properties": { "OBJECTID": 1129, "SHAPE_Leng": 115.019573658, "SHAPE_Area": 782.87086817900001, "Town": "Allama Iqbal Town", "UC_N0": "UC_120", "Landuse": "R", "Name": null, "Plot_No": null, "Category": null, "__source_file": "Awaisa_Housing_Scheme.shp" }, "geometry": { "type": "Polygon", "coordinates": [ [ [ 74.289307440865016, 31.436622562658162 ], [ 74.289152525908477, 31.436332318589571 ], [ 74.288940174354011, 31.436412582876148 ], [ 74.289093708970412, 31.436703423812336 ], [ 74.289307440865016, 31.436622562658162 ] ] ] } },
{ "type": "Feature", "properties": { "OBJECTID": 1130, "SHAPE_Leng": 121.244276013, "SHAPE_Area": 870.18620638699997, "Town": "Allama Iqbal Town", "UC_N0": "UC_120", "Landuse": "R", "Name": null, "Plot_No": null, "Category": null, "__source_file": "Awaisa_Housing_Scheme.shp" }, "geometry": { "type": "Polygon", "coordinates": [ [ [ 74.289378691829768, 31.436246831991028 ], [ 74.28921243885118, 31.435941409143567 ], [ 74.288989686699054, 31.43602722747649 ], [ 74.289152525908477, 31.43633231858955 ], [ 74.289378691829768, 31.436246831991028 ] ] ] } },
{ "type": "Feature", "properties": { "OBJECTID": 1131, "SHAPE_Leng": 117.99801164, "SHAPE_Area": 835.53816780299996, "Town": "Allama Iqbal Town", "UC_N0": "UC_120", "Landuse": "C", "Name": "Feme Beauty Saloon", "Plot_No": null, "Category": null, "__source_file": "Awaisa_Housing_Scheme.shp" }, "geometry": { "type": "Polygon", "coordinates": [ [ [ 74.289536122711993, 31.436536044965209 ], [ 74.289378691829768, 31.436246831991028 ], [ 74.289152525908477, 31.43633231858955 ], [ 74.289307440865016, 31.436622562658162 ], [ 74.289536122711993, 31.436536044965209 ] ] ] } },
{ "type": "Feature", "properties": { "OBJECTID": 1132, "SHAPE_Leng": 118.541487578, "SHAPE_Area": 817.36630847599997, "Town": "Allama Iqbal Town", "UC_N0": "UC_120", "Landuse": "P.B", "Name": "Danial Technical Training Centre", "Plot_No": null, "Category": null, "__source_file": "Awaisa_Housing_Scheme.shp" }, "geometry": { "type": "Polygon", "coordinates": [ [ [ 74.289587128569053, 31.436168046786211 ], [ 74.289423856254956, 31.435859957501378 ], [ 74.28921243885118, 31.435941409143567 ], [ 74.289378691829768, 31.436246831991028 ], [ 74.289587128569053, 31.436168046786211 ] ] ] } },
{ "type": "Feature", "properties": { "OBJECTID": 1133, "SHAPE_Leng": 113.673603112, "SHAPE_Area": 759.18649597599995, "Town": "Allama Iqbal Town", "UC_N0": "UC_120", "Landuse": "R", "Name": null, "Plot_No": null, "Category": null, "__source_file": "Awaisa_Housing_Scheme.shp" }, "geometry": { "type": "Polygon", "coordinates": [ [ [ 74.289741060134219, 31.436458509550061 ], [ 74.289587128569053, 31.436168046786211 ], [ 74.289378691829768, 31.436246831991028 ], [ 74.289536122711993, 31.436536044965209 ], [ 74.289741060134219, 31.436458509550061 ] ] ] } },
{ "type": "Feature", "properties": { "OBJECTID": 1134, "SHAPE_Leng": 85.784523027000006, "SHAPE_Area": 422.56186852000002, "Town": "Allama Iqbal Town", "UC_N0": "UC_120", "Landuse": "R", "Name": null, "Plot_No": null, "Category": null, "__source_file": "Awaisa_Housing_Scheme.shp" }, "geometry": { "type": "Polygon", "coordinates": [ [ [ 74.289069667920728, 31.439098180930781 ], [ 74.289003637092293, 31.438972671728756 ], [ 74.28873520515215, 31.439066307331686 ], [ 74.288801973388573, 31.439193344625778 ], [ 74.289069667920728, 31.439098180930781 ] ] ] } },
{ "type": "Feature", "properties": { "OBJECTID": 1135, "SHAPE_Leng": 96.189266428300002, "SHAPE_Area": 565.76351048000004, "Town": "Allama Iqbal Town", "UC_N0": "UC_120", "Landuse": "R", "Name": null, "Plot_No": "99", "Category": null, "__source_file": "Awaisa_Housing_Scheme.shp" }, "geometry": { "type": "Polygon", "coordinates": [ [ [ 74.288215997700533, 31.438078416173195 ], [ 74.288126495885692, 31.437908120289141 ], [ 74.28786221361176, 31.438008666576327 ], [ 74.287948171876764, 31.438176606171197 ], [ 74.288215997700533, 31.438078416173195 ] ] ] } },
{ "type": "Feature", "properties": { "OBJECTID": 1136, "SHAPE_Leng": 96.729658527699996, "SHAPE_Area": 573.88708496300001, "Town": "Allama Iqbal Town", "UC_N0": "UC_120", "Landuse": "R", "Name": null, "Plot_No": "80", "Category": null, "__source_file": "Awaisa_Housing_Scheme.shp" }, "geometry": { "type": "Polygon", "coordinates": [ [ [ 74.288481889811067, 31.437980934848063 ], [ 74.288390701617288, 31.437807602798248 ], [ 74.288126495885692, 31.437908120289141 ], [ 74.288215997700533, 31.438078416173195 ], [ 74.288481889811067, 31.437980934848063 ] ] ] } },
{ "type": "Feature", "properties": { "OBJECTID": 1137, "SHAPE_Leng": 85.3458650651, "SHAPE_Area": 414.01400587799998, "Town": "Allama Iqbal Town", "UC_N0": "UC_120", "Landuse": "R", "Name": null, "Plot_No": null, "Category": null, "__source_file": "Awaisa_Housing_Scheme.shp" }, "geometry": { "type": "Polygon", "coordinates": [ [ [ 74.288280399323725, 31.438200953812025 ], [ 74.288215997700533, 31.438078416173195 ], [ 74.287948171876764, 31.438176606171197 ], [ 74.28801134896095, 31.438300035755006 ], [ 74.288280399323725, 31.438200953812025 ] ] ] } },
{ "type": "Feature", "properties": { "OBJECTID": 1138, "SHAPE_Leng": 84.717555663499994, "SHAPE_Area": 408.74941606200002, "Town": "Allama Iqbal Town", "UC_N0": "UC_120", "Landuse": "R", "Name": null, "Plot_No": null, "Category": null, "__source_file": "Awaisa_Housing_Scheme.shp" }, "geometry": { "type": "Polygon", "coordinates": [ [ [ 74.288546152574838, 31.438103086334742 ], [ 74.288481889811067, 31.437980934848063 ], [ 74.288215997700533, 31.438078416173195 ], [ 74.288280399323725, 31.438200953812025 ], [ 74.288546152574838, 31.438103086334742 ] ] ] } },
{ "type": "Feature", "properties": { "OBJECTID": 1139, "SHAPE_Leng": 87.830097491399997, "SHAPE_Area": 446.544344825, "Town": "Allama Iqbal Town", "UC_N0": "UC_120", "Landuse": "R", "Name": null, "Plot_No": null, "Category": null, "__source_file": "Awaisa_Housing_Scheme.shp" }, "geometry": { "type": "Polygon", "coordinates": [ [ [ 74.288350735986029, 31.438334784203473 ], [ 74.288280399323725, 31.438200953812025 ], [ 74.28801134896095, 31.438300035755006 ], [ 74.288077894336141, 31.438430045935348 ], [ 74.288350735986029, 31.438334784203473 ] ] ] } },
{ "type": "Feature", "properties": { "OBJECTID": 1140, "SHAPE_Leng": 88.054860207399997, "SHAPE_Area": 454.35372902900002, "Town": "Allama Iqbal Town", "UC_N0": "UC_120", "Landuse": "R", "Name": null, "Plot_No": null, "Category": null, "__source_file": "Awaisa_Housing_Scheme.shp" }, "geometry": { "type": "Polygon", "coordinates": [ [ [ 74.288618806021248, 31.438241187068261 ], [ 74.288546152574838, 31.438103086334742 ], [ 74.288280399323725, 31.438200953812025 ], [ 74.288350735986029, 31.438334784203473 ], [ 74.288618806021248, 31.438241187068261 ] ] ] } },
{ "type": "Feature", "properties": { "OBJECTID": 1141, "SHAPE_Leng": 85.649495013500001, "SHAPE_Area": 414.115081567, "Town": "Allama Iqbal Town", "UC_N0": "UC_120", "Landuse": "R", "Name": null, "Plot_No": null, "Category": null, "__source_file": "Awaisa_Housing_Scheme.shp" }, "geometry": { "type": "Polygon", "coordinates": [ [ [ 74.288413645147415, 31.438454482288915 ], [ 74.288350735986029, 31.438334784203473 ], [ 74.288077894336141, 31.438430045935348 ], [ 74.28814119929369, 31.438553726081508 ], [ 74.288413645147415, 31.438454482288915 ] ] ] } },
{ "type": "Feature", "properties": { "OBJECTID": 1142, "SHAPE_Leng": 83.696835758199995, "SHAPE_Area": 394.35874143199999, "Town": "Allama Iqbal Town", "UC_N0": "UC_120", "Landuse": "R", "Name": null, "Plot_No": null, "Category": null, "__source_file": "Awaisa_Housing_Scheme.shp" }, "geometry": { "type": "Polygon", "coordinates": [ [ [ 74.288679978701381, 31.438357464057191 ], [ 74.288618806021248, 31.438241187068261 ], [ 74.288350735986029, 31.438334784203473 ], [ 74.288413645147415, 31.438454482288915 ], [ 74.288679978701381, 31.438357464057191 ] ] ] } },
{ "type": "Feature", "properties": { "OBJECTID": 1143, "SHAPE_Leng": 84.018509035799994, "SHAPE_Area": 389.41583990800001, "Town": "Allama Iqbal Town", "UC_N0": "UC_120", "Landuse": "R", "Name": null, "Plot_No": null, "Category": null, "__source_file": "Awaisa_Housing_Scheme.shp" }, "geometry": { "type": "Polygon", "coordinates": [ [ [ 74.288472967171344, 31.438567354907313 ], [ 74.288413645147415, 31.438454482288915 ], [ 74.28814119929369, 31.438553726081508 ], [ 74.28819998418129, 31.438668573523412 ], [ 74.288472967171344, 31.438567354907313 ] ] ] } },
{ "type": "Feature", "properties": { "OBJECTID": 1144, "SHAPE_Leng": 82.269250703200001, "SHAPE_Area": 374.87548506000002, "Town": "Allama Iqbal Town", "UC_N0": "UC_120", "Landuse": "R", "Name": null, "Plot_No": null, "Category": null, "__source_file": "Awaisa_Housing_Scheme.shp" }, "geometry": { "type": "Polygon", "coordinates": [ [ [ 74.288738586009686, 31.438468865564055 ], [ 74.288679978701381, 31.438357464057191 ], [ 74.288413645147415, 31.438454482288915 ], [ 74.288472967171344, 31.438567354907313 ], [ 74.288738586009686, 31.438468865564055 ] ] ] } },
{ "type": "Feature", "properties": { "OBJECTID": 1145, "SHAPE_Leng": 88.271585543900002, "SHAPE_Area": 447.52724107, "Town": "Allama Iqbal Town", "UC_N0": "UC_120", "Landuse": "R", "Name": null, "Plot_No": null, "Category": null, "__source_file": "Awaisa_Housing_Scheme.shp" }, "geometry": { "type": "Polygon", "coordinates": [ [ [ 74.288541963034135, 31.438698631654606 ], [ 74.288472967171344, 31.438567354907313 ], [ 74.28819998418129, 31.438668573523412 ], [ 74.288266050981335, 31.438797647137644 ], [ 74.288541963034135, 31.438698631654606 ] ] ] } },
{ "type": "Feature", "properties": { "OBJECTID": 1146, "SHAPE_Leng": 87.259507006899995, "SHAPE_Area": 443.369119028, "Town": "Allama Iqbal Town", "UC_N0": "UC_120", "Landuse": "R", "Name": null, "Plot_No": null, "Category": null, "__source_file": "Awaisa_Housing_Scheme.shp" }, "geometry": { "type": "Polygon", "coordinates": [ [ [ 74.288809040692286, 31.438602786584426 ], [ 74.288738586009686, 31.438468865564055 ], [ 74.288472967171344, 31.438567354907313 ], [ 74.288541963034135, 31.438698631654606 ], [ 74.288809040692286, 31.438602786584426 ] ] ] } },
{ "type": "Feature", "properties": { "OBJECTID": 1147, "SHAPE_Leng": 84.145532348299994, "SHAPE_Area": 400.51723558600003, "Town": "Allama Iqbal Town", "UC_N0": "UC_120", "Landuse": "R", "Name": null, "Plot_No": null, "Category": null, "__source_file": "Awaisa_Housing_Scheme.shp" }, "geometry": { "type": "Polygon", "coordinates": [ [ [ 74.288870711794004, 31.438720009978582 ], [ 74.288809040692286, 31.438602786584426 ], [ 74.288541963034135, 31.438698631654606 ], [ 74.288606237897653, 31.438820925722361 ], [ 74.288870711794004, 31.438720009978582 ] ] ] } },
{ "type": "Feature", "properties": { "OBJECTID": 1148, "SHAPE_Leng": 87.360670658399997, "SHAPE_Area": 432.640808376, "Town": "Allama Iqbal Town", "UC_N0": "UC_120", "Landuse": "R", "Name": null, "Plot_No": null, "Category": null, "__source_file": "Awaisa_Housing_Scheme.shp" }, "geometry": { "type": "Polygon", "coordinates": [ [ [ 74.288606237897653, 31.438820925722361 ], [ 74.288541963034135, 31.438698631654606 ], [ 74.288266050981335, 31.438797647137644 ], [ 74.288331603605087, 31.438925716386624 ], [ 74.288606237897653, 31.438820925722361 ] ] ] } },
{ "type": "Feature", "properties": { "OBJECTID": 1149, "SHAPE_Leng": 84.789778659800007, "SHAPE_Area": 409.198960967, "Town": "Allama Iqbal Town", "UC_N0": "UC_120", "Landuse": "R", "Name": null, "Plot_No": null, "Category": null, "__source_file": "Awaisa_Housing_Scheme.shp" }, "geometry": { "type": "Polygon", "coordinates": [ [ [ 74.288936939383163, 31.43884589386554 ], [ 74.288870711794004, 31.438720009978582 ], [ 74.288606237897653, 31.438820925722361 ], [ 74.28866866428811, 31.43893970162766 ], [ 74.288936939383163, 31.43884589386554 ] ] ] } },
{ "type": "Feature", "properties": { "OBJECTID": 1150, "SHAPE_Leng": 85.2609612153, "SHAPE_Area": 400.54798144300003, "Town": "Allama Iqbal Town", "UC_N0": "UC_120", "Landuse": "R", "Name": null, "Plot_No": null, "Category": null, "__source_file": "Awaisa_Housing_Scheme.shp" }, "geometry": { "type": "Polygon", "coordinates": [ [ [ 74.28866866428811, 31.43893970162766 ], [ 74.288606237897653, 31.438820925722361 ], [ 74.288331603605087, 31.438925716386624 ], [ 74.288388843812015, 31.439037546225578 ], [ 74.28866866428811, 31.43893970162766 ] ] ] } },
{ "type": "Feature", "properties": { "OBJECTID": 1151, "SHAPE_Leng": 85.88020797, "SHAPE_Area": 423.87433554500001, "Town": "Allama Iqbal Town", "UC_N0": "UC_120", "Landuse": "R", "Name": null, "Plot_No": null, "Category": null, "__source_file": "Awaisa_Housing_Scheme.shp" }, "geometry": { "type": "Polygon", "coordinates": [ [ [ 74.289003637092293, 31.438972671728756 ], [ 74.288936939383163, 31.43884589386554 ], [ 74.28866866428811, 31.43893970162766 ], [ 74.28873520515215, 31.439066307331686 ], [ 74.289003637092293, 31.438972671728756 ] ] ] } },
{ "type": "Feature", "properties": { "OBJECTID": 1152, "SHAPE_Leng": 88.342446772800002, "SHAPE_Area": 442.54381066799999, "Town": "Allama Iqbal Town", "UC_N0": "UC_120", "Landuse": "R", "Name": null, "Plot_No": null, "Category": null, "__source_file": "Awaisa_Housing_Scheme.shp" }, "geometry": { "type": "Polygon", "coordinates": [ [ [ 74.28873520515215, 31.439066307331686 ], [ 74.28866866428811, 31.43893970162766 ], [ 74.288388843812015, 31.439037546225578 ], [ 74.288453807748496, 31.439164464505367 ], [ 74.28873520515215, 31.439066307331686 ] ] ] } },
{ "type": "Feature", "properties": { "OBJECTID": 1155, "SHAPE_Leng": 95.119071242499999, "SHAPE_Area": 544.18579942199995, "Town": "Allama Iqbal Town", "UC_N0": "UC_120", "Landuse": "R", "Name": null, "Plot_No": "89", "Category": null, "__source_file": "Awaisa_Housing_Scheme.shp" }, "geometry": { "type": "Polygon", "coordinates": [ [ [ 74.289129507571189, 31.439211921204461 ], [ 74.288864093008073, 31.439311538421059 ], [ 74.288864628500889, 31.439312554924555 ], [ 74.288864501611229, 31.439312602679788 ], [ 74.288887327335559, 31.439372177145398 ], [ 74.288967052025953, 31.439527458402868 ], [ 74.289244450271113, 31.439430400644579 ], [ 74.289159825534398, 31.439269550904889 ], [ 74.289129507571189, 31.439211921204461 ] ] ] } },
{ "type": "Feature", "properties": { "OBJECTID": 1156, "SHAPE_Leng": 93.875996731699999, "SHAPE_Area": 522.878094508, "Town": "Allama Iqbal Town", "UC_N0": "UC_120", "Landuse": "R", "Name": null, "Plot_No": "90", "Category": null, "__source_file": "Awaisa_Housing_Scheme.shp" }, "geometry": { "type": "Polygon", "coordinates": [ [ [ 74.288864093009309, 31.439311538423432 ], [ 74.288583074663677, 31.439417010807475 ], [ 74.28858411522188, 31.439419127880559 ], [ 74.288611978998787, 31.439475875660786 ], [ 74.28868384050547, 31.439622228255406 ], [ 74.288967052025953, 31.439527458402868 ], [ 74.288887327335559, 31.439372177145398 ], [ 74.288864501611229, 31.439312602679788 ], [ 74.288864628500889, 31.439312554924555 ], [ 74.288864093009309, 31.439311538423432 ] ] ] } },
{ "type": "Feature", "properties": { "OBJECTID": 1192, "SHAPE_Leng": 93.083519805600005, "SHAPE_Area": 482.277889066, "Town": "Allama Iqbal Town", "UC_N0": "UC_120", "Landuse": "R", "Name": null, "Plot_No": null, "Category": null, "__source_file": "Awaisa_Housing_Scheme.shp" }, "geometry": { "type": "Polygon", "coordinates": [ [ [ 74.287983905422436, 31.439196207959974 ], [ 74.287920227053718, 31.43907039189947 ], [ 74.287618241725895, 31.439173797448579 ], [ 74.287683762060098, 31.439306330162218 ], [ 74.287983905422436, 31.439196207959974 ] ] ] } },
{ "type": "Feature", "properties": { "OBJECTID": 1196, "SHAPE_Leng": 91.815062023099998, "SHAPE_Area": 488.70405892700001, "Town": "Allama Iqbal Town", "UC_N0": "UC_120", "Landuse": "R", "Name": null, "Plot_No": "133", "Category": null, "__source_file": "Awaisa_Housing_Scheme.shp" }, "geometry": { "type": "Polygon", "coordinates": [ [ [ 74.288520696107767, 31.439596205143552 ], [ 74.288448690458765, 31.439454843708688 ], [ 74.288169863157322, 31.43956362021331 ], [ 74.288238811366014, 31.439699846469061 ], [ 74.288520696107767, 31.439596205143552 ] ] ] } },
{ "type": "Feature", "properties": { "OBJECTID": 1197, "SHAPE_Leng": 95.187267431600006, "SHAPE_Area": 507.22214131200002, "Town": "Allama Iqbal Town", "UC_N0": "UC_120", "Landuse": "R", "Name": null, "Plot_No": "134", "Category": null, "__source_file": "Awaisa_Housing_Scheme.shp" }, "geometry": { "type": "Polygon", "coordinates": [ [ [ 74.288238811366014, 31.439699846469061 ], [ 74.288169863157322, 31.43956362021331 ], [ 74.287868986276962, 31.439680997189207 ], [ 74.287933753784117, 31.439812007135533 ], [ 74.288238811366014, 31.439699846469061 ] ] ] } },
{ "type": "Feature", "properties": { "OBJECTID": 1198, "SHAPE_Leng": 87.890376299300002, "SHAPE_Area": 432.06651571600003, "Town": "Allama Iqbal Town", "UC_N0": "UC_120", "Landuse": "R", "Name": null, "Plot_No": null, "Category": null, "__source_file": "Awaisa_Housing_Scheme.shp" }, "geometry": { "type": "Polygon", "coordinates": [ [ [ 74.288448690458765, 31.439454843708688 ], [ 74.288387643276508, 31.439334996300158 ], [ 74.288106148002399, 31.43943773366945 ], [ 74.288169863157322, 31.43956362021331 ], [ 74.288448690458765, 31.439454843708688 ] ] ] } },
{ "type": "Feature", "properties": { "OBJECTID": 1199, "SHAPE_Leng": 93.8782701433, "SHAPE_Area": 488.76274157699999, "Town": "Allama Iqbal Town", "UC_N0": "UC_120", "Landuse": "R", "Name": null, "Plot_No": null, "Category": null, "__source_file": "Awaisa_Housing_Scheme.shp" }, "geometry": { "type": "Polygon", "coordinates": [ [ [ 74.288169863157322, 31.43956362021331 ], [ 74.288106148002399, 31.43943773366945 ], [ 74.287803355568101, 31.439548242011185 ], [ 74.287868986276962, 31.439680997189207 ], [ 74.288169863157322, 31.43956362021331 ] ] ] } },
{ "type": "Feature", "properties": { "OBJECTID": 1200, "SHAPE_Leng": 87.983349603799994, "SHAPE_Area": 434.38188491900002, "Town": "Allama Iqbal Town", "UC_N0": "UC_120", "Landuse": "R", "Name": null, "Plot_No": null, "Category": null, "__source_file": "Awaisa_Housing_Scheme.shp" }, "geometry": { "type": "Polygon", "coordinates": [ [ [ 74.288328204530615, 31.439218304771007 ], [ 74.28826450726821, 31.439093254765012 ], [ 74.287983905422436, 31.439196207959974 ], [ 74.288045944749129, 31.439318783998001 ], [ 74.288328204530615, 31.439218304771007 ] ] ] } },
{ "type": "Feature", "properties": { "OBJECTID": 2021, "SHAPE_Leng": 107.845770442, "SHAPE_Area": 608.14515404899998, "Town": "Allama Iqbal Town", "UC_N0": "UC_120", "Landuse": "R", "Name": null, "Plot_No": "72", "Category": null, "__source_file": "Awaisa_Housing_Scheme.shp" }, "geometry": { "type": "Polygon", "coordinates": [ [ [ 74.289679466113455, 31.438264862615316 ], [ 74.289682666176418, 31.438097365870938 ], [ 74.289444003989473, 31.438173118958247 ], [ 74.289507688604559, 31.438317343050063 ], [ 74.289679466113455, 31.438264862615316 ] ] ] } },
{ "type": "Feature", "properties": { "OBJECTID": 2022, "SHAPE_Leng": 56.803837713599997, "SHAPE_Area": 190.99743269499999, "Town": "Allama Iqbal Town", "UC_N0": "UC_120", "Landuse": "R", "Name": null, "Plot_No": null, "Category": null, "__source_file": "Awaisa_Housing_Scheme.shp" }, "geometry": { "type": "Polygon", "coordinates": [ [ [ 74.289576762763801, 31.438473770588434 ], [ 74.289511709654633, 31.438326449351507 ], [ 74.289405149497156, 31.438364534212216 ], [ 74.289470588504798, 31.438511596897094 ], [ 74.289576762763801, 31.438473770588434 ] ] ] } },
{ "type": "Feature", "properties": { "OBJECTID": 2023, "SHAPE_Leng": 62.925771544900002, "SHAPE_Area": 223.415722886, "Town": "Allama Iqbal Town", "UC_N0": "UC_120", "Landuse": "R", "Name": null, "Plot_No": "66", "Category": null, "__source_file": "Awaisa_Housing_Scheme.shp" }, "geometry": { "type": "Polygon", "coordinates": [ [ [ 74.288984355736631, 31.438514928008249 ], [ 74.288899559814467, 31.438345926407379 ], [ 74.288791228957024, 31.438380310809762 ], [ 74.288880263156216, 31.438552130208389 ], [ 74.288984355736631, 31.438514928008249 ] ] ] } },
{ "type": "Feature", "properties": { "OBJECTID": 2024, "SHAPE_Leng": 56.002067859500002, "SHAPE_Area": 184.515329694, "Town": "Allama Iqbal Town", "UC_N0": "UC_120", "Landuse": "R", "Name": null, "Plot_No": "65", "Category": null, "__source_file": "Awaisa_Housing_Scheme.shp" }, "geometry": { "type": "Polygon", "coordinates": [ [ [ 74.289056673118125, 31.438659059833974 ], [ 74.288984355736631, 31.438514928008249 ], [ 74.288880263156216, 31.438552130208389 ], [ 74.288954530147265, 31.438695449176272 ], [ 74.289056673118125, 31.438659059833974 ] ] ] } },
{ "type": "Feature", "properties": { "OBJECTID": 2025, "SHAPE_Leng": 62.9661911468, "SHAPE_Area": 228.185364816, "Town": "Allama Iqbal Town", "UC_N0": "UC_120", "Landuse": "R", "Name": null, "Plot_No": null, "Category": null, "__source_file": "Awaisa_Housing_Scheme.shp" }, "geometry": { "type": "Polygon", "coordinates": [ [ [ 74.289091469130071, 31.438476645374475 ], [ 74.289014250143993, 31.438309523731604 ], [ 74.288899559814467, 31.438345926407379 ], [ 74.288984355736631, 31.438514928008249 ], [ 74.289091469130071, 31.438476645374475 ] ] ] } },
{ "type": "Feature", "properties": { "OBJECTID": 2026, "SHAPE_Leng": 56.346122466700002, "SHAPE_Area": 187.445809293, "Town": "Allama Iqbal Town", "UC_N0": "UC_120", "Landuse": "R", "Name": null, "Plot_No": null, "Category": null, "__source_file": "Awaisa_Housing_Scheme.shp" }, "geometry": { "type": "Polygon", "coordinates": [ [ [ 74.289158923634616, 31.438622632210176 ], [ 74.289091469130071, 31.438476645374475 ], [ 74.288984355736631, 31.438514928008249 ], [ 74.289056673118125, 31.438659059833974 ], [ 74.289158923634616, 31.438622632210176 ] ] ] } },
{ "type": "Feature", "properties": { "OBJECTID": 2027, "SHAPE_Leng": 60.640479923599997, "SHAPE_Area": 209.07881664499999, "Town": "Allama Iqbal Town", "UC_N0": "UC_120", "Landuse": "R", "Name": null, "Plot_No": null, "Category": null, "__source_file": "Awaisa_Housing_Scheme.shp" }, "geometry": { "type": "Polygon", "coordinates": [ [ [ 74.289195103614105, 31.438439606469249 ], [ 74.289118360479677, 31.438276478988278 ], [ 74.289014250143993, 31.438309523731604 ], [ 74.289091469130071, 31.438476645374475 ], [ 74.289195103614105, 31.438439606469249 ] ] ] } },
{ "type": "Feature", "properties": { "OBJECTID": 2028, "SHAPE_Leng": 56.267431235899998, "SHAPE_Area": 186.68154744899999, "Town": "Allama Iqbal Town", "UC_N0": "UC_120", "Landuse": "R", "Name": null, "Plot_No": null, "Category": null, "__source_file": "Awaisa_Housing_Scheme.shp" }, "geometry": { "type": "Polygon", "coordinates": [ [ [ 74.289263654707796, 31.438585320547158 ], [ 74.289195103614105, 31.438439606469249 ], [ 74.289091469130071, 31.438476645374475 ], [ 74.289158923634616, 31.438622632210176 ], [ 74.289263654707796, 31.438585320547158 ] ] ] } },
{ "type": "Feature", "properties": { "OBJECTID": 2029, "SHAPE_Leng": 60.848180625300003, "SHAPE_Area": 214.88417671799999, "Town": "Allama Iqbal Town", "UC_N0": "UC_120", "Landuse": "R", "Name": null, "Plot_No": null, "Category": null, "__source_file": "Awaisa_Housing_Scheme.shp" }, "geometry": { "type": "Polygon", "coordinates": [ [ [ 74.289303003980706, 31.438401042016181 ], [ 74.289228859822387, 31.438241406207208 ], [ 74.289118360479677, 31.438276478988278 ], [ 74.289195103614105, 31.438439606469249 ], [ 74.289303003980706, 31.438401042016181 ] ] ] } },
{ "type": "Feature", "properties": { "OBJECTID": 2030, "SHAPE_Leng": 56.985083428400003, "SHAPE_Area": 192.85409407899999, "Town": "Allama Iqbal Town", "UC_N0": "UC_120", "Landuse": "R", "Name": null, "Plot_No": null, "Category": null, "__source_file": "Awaisa_Housing_Scheme.shp" }, "geometry": { "type": "Polygon", "coordinates": [ [ [ 74.28937085578201, 31.438547128389217 ], [ 74.289303003980706, 31.438401042016181 ], [ 74.289195103614105, 31.438439606469249 ], [ 74.289263654707796, 31.438585320547158 ], [ 74.28937085578201, 31.438547128389217 ] ] ] } },
{ "type": "Feature", "properties": { "OBJECTID": 2031, "SHAPE_Leng": 58.966208677799997, "SHAPE_Area": 200.54737109000001, "Town": "Allama Iqbal Town", "UC_N0": "UC_120", "Landuse": "R", "Name": null, "Plot_No": null, "Category": null, "__source_file": "Awaisa_Housing_Scheme.shp" }, "geometry": { "type": "Polygon", "coordinates": [ [ [ 74.289405149497156, 31.438364534212216 ], [ 74.289335324381199, 31.43820761376757 ], [ 74.289228859822387, 31.438241406207208 ], [ 74.289303003980706, 31.438401042016181 ], [ 74.289405149497156, 31.438364534212216 ] ] ] } },
{ "type": "Feature", "properties": { "OBJECTID": 2032, "SHAPE_Leng": 55.655148941599997, "SHAPE_Area": 181.125604079, "Town": "Allama Iqbal Town", "UC_N0": "UC_120", "Landuse": "R", "Name": null, "Plot_No": null, "Category": null, "__source_file": "Awaisa_Housing_Scheme.shp" }, "geometry": { "type": "Polygon", "coordinates": [ [ [ 74.289470588504798, 31.438511596897094 ], [ 74.289405149497156, 31.438364534212216 ], [ 74.289303003980706, 31.438401042016181 ], [ 74.28937085578201, 31.438547128389217 ], [ 74.289470588504798, 31.438511596897094 ] ] ] } },
{ "type": "Feature", "properties": { "OBJECTID": 2033, "SHAPE_Leng": 116.10050676100001, "SHAPE_Area": 787.74337202900006, "Town": "Allama Iqbal Town", "UC_N0": "UC_120", "Landuse": "R", "Name": null, "Plot_No": null, "Category": null, "__source_file": "Awaisa_Housing_Scheme.shp" }, "geometry": { "type": "Polygon", "coordinates": [ [ [ 74.288438383701063, 31.436599011371516 ], [ 74.28828606148862, 31.436298307286531 ], [ 74.288075657556107, 31.436375795878075 ], [ 74.288231235213729, 31.436676917662588 ], [ 74.288438383701063, 31.436599011371516 ] ] ] } },
{ "type": "Feature", "properties": { "OBJECTID": 2034, "SHAPE_Leng": 114.454067923, "SHAPE_Area": 773.14259279299995, "Town": "Allama Iqbal Town", "UC_N0": "UC_120", "Landuse": "R", "Name": null, "Plot_No": null, "Category": null, "__source_file": "Awaisa_Housing_Scheme.shp" }, "geometry": { "type": "Polygon", "coordinates": [ [ [ 74.289946852009692, 31.436380650126956 ], [ 74.289802397928298, 31.436086677234016 ], [ 74.289587128569053, 31.436168046786211 ], [ 74.289741060134219, 31.436458509550061 ], [ 74.289946852009692, 31.436380650126956 ] ] ] } },
{ "type": "Feature", "properties": { "OBJECTID": 2035, "SHAPE_Leng": 120.112907076, "SHAPE_Area": 873.12234203699995, "Town": "Allama Iqbal Town", "UC_N0": "UC_120", "Landuse": "H", "Name": "Allah Yar Khan Hospital", "Plot_No": "34", "Category": null, "__source_file": "Awaisa_Housing_Scheme.shp" }, "geometry": { "type": "Polygon", "coordinates": [ [ [ 74.290256674036243, 31.435914965033849 ], [ 74.290025089762452, 31.436002501913084 ], [ 74.290173953990617, 31.436294728823501 ], [ 74.290418092071974, 31.436202361204895 ], [ 74.290256674036243, 31.435914965033849 ] ] ] } },
{ "type": "Feature", "properties": { "OBJECTID": 2578, "SHAPE_Leng": 120.944590445, "SHAPE_Area": 860.00461792099998, "Town": "Allama Iqbal Town", "UC_N0": "UC_120", "Landuse": "H", "Name": "Aziz Jahan Beghum Trust Institute", "Plot_No": null, "Category": null, "__source_file": "Awaisa_Housing_Scheme.shp" }, "geometry": { "type": "Polygon", "coordinates": [ [ [ 74.289802397928298, 31.436086677234016 ], [ 74.289648470293301, 31.435773421529866 ], [ 74.289423856254956, 31.435859957501378 ], [ 74.289587128569053, 31.436168046786211 ], [ 74.289802397928298, 31.436086677234016 ] ] ] } },
{ "type": "Feature", "properties": { "OBJECTID": 2588, "SHAPE_Leng": 88.8634058305, "SHAPE_Area": 447.88346088399999, "Town": "Allama Iqbal Town", "UC_N0": "UC_120", "Landuse": "R", "Name": null, "Plot_No": null, "Category": null, "__source_file": "Awaisa_Housing_Scheme.shp" }, "geometry": { "type": "Polygon", "coordinates": [ [ [ 74.288203460547194, 31.438973407268996 ], [ 74.288137725034247, 31.438844354413224 ], [ 74.287856004512605, 31.438943501835944 ], [ 74.287920227053718, 31.43907039189947 ], [ 74.288203460547194, 31.438973407268996 ] ] ] } },
{ "type": "Feature", "properties": { "OBJECTID": 2589, "SHAPE_Leng": 287.20995074400003, "SHAPE_Area": 5129.3629758400002, "Town": "Allama Iqbal Town", "UC_N0": "UC_120", "Landuse": "E", "Name": "Siqarah Girls High school", "Plot_No": "73", "Category": null, "__source_file": "Awaisa_Housing_Scheme.shp" }, "geometry": { "type": "Polygon", "coordinates": [ [ [ 74.288641204867645, 31.437712297655526 ], [ 74.288696839570122, 31.43780746081071 ], [ 74.288767863839681, 31.437928947508968 ], [ 74.288816573684656, 31.438012265281547 ], [ 74.288868481864483, 31.438101053598182 ], [ 74.288902141674669, 31.438162160729757 ], [ 74.288948291437748, 31.43824594239328 ], [ 74.289499952248846, 31.438072172973175 ], [ 74.289222123844766, 31.437491281692434 ], [ 74.288641204867645, 31.437712297655526 ] ] ] } },
{ "type": "Feature", "properties": { "OBJECTID": 2590, "SHAPE_Leng": 97.880282566800005, "SHAPE_Area": 544.53272426199999, "Town": "Allama Iqbal Town", "UC_N0": "UC_120", "Landuse": "R", "Name": null, "Plot_No": "100", "Category": null, "__source_file": "Awaisa_Housing_Scheme.shp" }, "geometry": { "type": "Polygon", "coordinates": [ [ [ 74.287988342855925, 31.437868919420616 ], [ 74.287851368100192, 31.437605576975333 ], [ 74.287688011467054, 31.437668320196789 ], [ 74.287822096127641, 31.437930287086125 ], [ 74.287988342855925, 31.437868919420616 ] ] ] } },
{ "type": "Feature", "properties": { "OBJECTID": 2591, "SHAPE_Leng": 233.66218501099999, "SHAPE_Area": 3425.90396276, "Town": "Allama Iqbal Town", "UC_N0": "UC_120", "Landuse": "P.B", "Name": "Awasia Society Office", "Plot_No": "158", "Category": null, "__source_file": "Awaisa_Housing_Scheme.shp" }, "geometry": { "type": "Polygon", "coordinates": [ [ [ 74.289697777551169, 31.437184398966089 ], [ 74.289677425808335, 31.437060870593147 ], [ 74.289648652429833, 31.43693857804864 ], [ 74.2896115576619, 31.43681794425245 ], [ 74.289566271983759, 31.436699385682488 ], [ 74.289546378916398, 31.43665370188695 ], [ 74.288995383377326, 31.436859188342616 ], [ 74.289267038864907, 31.437396894258093 ], [ 74.289697777551169, 31.437184398966089 ] ] ] } },
{ "type": "Feature", "properties": { "OBJECTID": 2592, "SHAPE_Leng": 88.963958512100007, "SHAPE_Area": 449.54423006799999, "Town": "Allama Iqbal Town", "UC_N0": "UC_120", "Landuse": "R", "Name": null, "Plot_No": null, "Category": null, "__source_file": "Awaisa_Housing_Scheme.shp" }, "geometry": { "type": "Polygon", "coordinates": [ [ [ 74.288801973388573, 31.439193344625778 ], [ 74.28873520515215, 31.439066307331686 ], [ 74.288453807748496, 31.439164464505367 ], [ 74.288519913594527, 31.439293613989449 ], [ 74.288801973388573, 31.439193344625778 ] ] ] } },
{ "type": "Feature", "properties": { "OBJECTID": 2593, "SHAPE_Leng": 388.85736171100001, "SHAPE_Area": 5326.3321264599999, "Town": "Allama Iqbal Town", "UC_N0": "UC_120", "Landuse": "P.B", "Name": "Grareyard", "Plot_No": null, "Category": null, "__source_file": "Awaisa_Housing_Scheme.shp" }, "geometry": { "type": "Polygon", "coordinates": [ [ [ 74.289659770192813, 31.439295730197681 ], [ 74.289674423043834, 31.43852882838738 ], [ 74.288995933843211, 31.43877535029516 ], [ 74.289313720140882, 31.439388608155593 ], [ 74.289659770192813, 31.439295730197681 ] ] ] } },
{ "type": "Feature", "properties": { "OBJECTID": 2594, "SHAPE_Leng": 58.772120127699999, "SHAPE_Area": 202.13363282500001, "Town": "Allama Iqbal Town", "UC_N0": "UC_120", "Landuse": "R", "Name": null, "Plot_No": null, "Category": null, "__source_file": "Awaisa_Housing_Scheme.shp" }, "geometry": { "type": "Polygon", "coordinates": [ [ [ 74.289511709654633, 31.438326449351507 ], [ 74.289444003989473, 31.438173118958247 ], [ 74.289335324381199, 31.43820761376757 ], [ 74.289405149497156, 31.438364534212216 ], [ 74.289511709654633, 31.438326449351507 ] ] ] } },
{ "type": "Feature", "properties": { "OBJECTID": 10906, "SHAPE_Leng": 120.602683004, "SHAPE_Area": 908.056820808, "Town": "Allama Iqbal Town", "UC_N0": "UC_120", "Landuse": "R", "Name": null, "Plot_No": null, "Category": null, "__source_file": "Awaisa_Housing_Scheme.shp" }, "geometry": { "type": "Polygon", "coordinates": [ [ [ 74.288045944749129, 31.439318783998001 ], [ 74.287983905422436, 31.439196207960002 ], [ 74.287683762060112, 31.439306330162218 ], [ 74.287745371920252, 31.439430953775567 ], [ 74.288045944749129, 31.439318783998001 ] ] ] } },
{ "type": "Feature", "properties": { "OBJECTID": 10907, "SHAPE_Leng": 86.602820086700007, "SHAPE_Area": 413.839250021, "Town": "Allama Iqbal Town", "UC_N0": "UC_120", "Landuse": "R", "Name": null, "Plot_No": null, "Category": null, "__source_file": "Awaisa_Housing_Scheme.shp" }, "geometry": { "type": "Polygon", "coordinates": [ [ [ 74.288387643276508, 31.439334996300158 ], [ 74.288328204530615, 31.439218304771007 ], [ 74.288045944749129, 31.439318783998001 ], [ 74.288106148002399, 31.43943773366945 ], [ 74.288387643276508, 31.439334996300158 ] ] ] } },
{ "type": "Feature", "properties": { "OBJECTID": 10908, "SHAPE_Leng": 103.287472323, "SHAPE_Area": 657.27886822300002, "Town": "Allama Iqbal Town", "UC_N0": "UC_120", "Landuse": "R", "Name": null, "Plot_No": "126", "Category": null, "__source_file": "Awaisa_Housing_Scheme.shp" }, "geometry": { "type": "Polygon", "coordinates": [ [ [ 74.288005281927013, 31.438584337687992 ], [ 74.287912321872227, 31.438401834236668 ], [ 74.287629017543026, 31.438495018565387 ], [ 74.287727524696479, 31.438689651042729 ], [ 74.288005281927013, 31.438584337687992 ] ] ] } },
{ "type": "Feature", "properties": { "OBJECTID": 10909, "SHAPE_Leng": 109.381179382, "SHAPE_Area": 738.03956975400001, "Town": "Allama Iqbal Town", "UC_N0": "UC_120", "Landuse": "R", "Name": null, "Plot_No": "141", "Category": null, "__source_file": "Awaisa_Housing_Scheme.shp" }, "geometry": { "type": "Polygon", "coordinates": [ [ [ 74.287727524696479, 31.438689651042729 ], [ 74.287629017543026, 31.438495018565387 ], [ 74.287331118790391, 31.438593002135029 ], [ 74.287433929477771, 31.438800969352094 ], [ 74.287727524696479, 31.438689651042729 ] ] ] } },
{ "type": "Feature", "properties": { "OBJECTID": 10910, "SHAPE_Leng": 89.509473007300002, "SHAPE_Area": 458.45128087299997, "Town": "Allama Iqbal Town", "UC_N0": "UC_120", "Landuse": "R", "Name": null, "Plot_No": null, "Category": null, "__source_file": "Awaisa_Housing_Scheme.shp" }, "geometry": { "type": "Polygon", "coordinates": [ [ [ 74.288072888715561, 31.438717064963772 ], [ 74.288005281927013, 31.438584337687992 ], [ 74.287727524696479, 31.438689651042729 ], [ 74.287793274123445, 31.438819558593902 ], [ 74.288072888715561, 31.438717064963772 ] ] ] } },
{ "type": "Feature", "properties": { "OBJECTID": 10911, "SHAPE_Leng": 92.159409198700004, "SHAPE_Area": 474.07770560900002, "Town": "Allama Iqbal Town", "UC_N0": "UC_120", "Landuse": "R", "Name": null, "Plot_No": null, "Category": null, "__source_file": "Awaisa_Housing_Scheme.shp" }, "geometry": { "type": "Polygon", "coordinates": [ [ [ 74.287793274123445, 31.438819558593902 ], [ 74.287727524696479, 31.438689651042729 ], [ 74.287433929477771, 31.438800969352094 ], [ 74.287496836417546, 31.438928217709798 ], [ 74.287793274123445, 31.438819558593902 ] ] ] } },
{ "type": "Feature", "properties": { "OBJECTID": 10912, "SHAPE_Leng": 88.209526190399998, "SHAPE_Area": 439.098060928, "Town": "Allama Iqbal Town", "UC_N0": "UC_120", "Landuse": "R", "Name": null, "Plot_No": null, "Category": null, "__source_file": "Awaisa_Housing_Scheme.shp" }, "geometry": { "type": "Polygon", "coordinates": [ [ [ 74.288137725034247, 31.438844354413224 ], [ 74.288072888715561, 31.438717064963772 ], [ 74.287793274123445, 31.438819558593902 ], [ 74.287856004512605, 31.438943501835944 ], [ 74.288137725034247, 31.438844354413224 ] ] ] } },
{ "type": "Feature", "properties": { "OBJECTID": 10913, "SHAPE_Leng": 90.908617501099997, "SHAPE_Area": 452.89210370699999, "Town": "Allama Iqbal Town", "UC_N0": "UC_120", "Landuse": "R", "Name": null, "Plot_No": null, "Category": null, "__source_file": "Awaisa_Housing_Scheme.shp" }, "geometry": { "type": "Polygon", "coordinates": [ [ [ 74.287856004512605, 31.438943501835944 ], [ 74.287793274123445, 31.438819558593902 ], [ 74.287496836417546, 31.438928217709798 ], [ 74.287556500473755, 31.439048906842981 ], [ 74.287856004512605, 31.438943501835944 ] ] ] } },
{ "type": "Feature", "properties": { "OBJECTID": 10914, "SHAPE_Leng": 87.685211471000002, "SHAPE_Area": 430.41398665000003, "Town": "Allama Iqbal Town", "UC_N0": "UC_120", "Landuse": "R", "Name": null, "Plot_No": null, "Category": null, "__source_file": "Awaisa_Housing_Scheme.shp" }, "geometry": { "type": "Polygon", "coordinates": [ [ [ 74.28826450726821, 31.439093254765012 ], [ 74.288203460547194, 31.438973407268996 ], [ 74.287920227053718, 31.43907039189947 ], [ 74.287983905422436, 31.439196207959974 ], [ 74.28826450726821, 31.439093254765012 ] ] ] } },
{ "type": "Feature", "properties": { "OBJECTID": 10915, "SHAPE_Leng": 92.035190568800004, "SHAPE_Area": 468.05678809800003, "Town": "Allama Iqbal Town", "UC_N0": "UC_120", "Landuse": "R", "Name": null, "Plot_No": null, "Category": null, "__source_file": "Awaisa_Housing_Scheme.shp" }, "geometry": { "type": "Polygon", "coordinates": [ [ [ 74.287920227053718, 31.43907039189947 ], [ 74.287856004512605, 31.438943501835944 ], [ 74.287556500473755, 31.439048906842981 ], [ 74.287618241725895, 31.439173797448579 ], [ 74.287920227053718, 31.43907039189947 ] ] ] } },
{ "type": "Feature", "properties": { "OBJECTID": 10989, "SHAPE_Leng": 118.45826670700001, "SHAPE_Area": 873.88196123, "Town": "Allama Iqbal Town", "UC_N0": "UC_120", "Landuse": "R", "Name": null, "Plot_No": "153", "Category": null, "__source_file": "Awaisa_Housing_Scheme.shp" }, "geometry": { "type": "Polygon", "coordinates": [ [ [ 74.28691807210177, 31.437108812618348 ], [ 74.286859126510748, 31.436993840084504 ], [ 74.286785804560054, 31.436850824707687 ], [ 74.286518529326514, 31.4369492548118 ], [ 74.286647952459361, 31.437211063429228 ], [ 74.28691807210177, 31.437108812618348 ] ] ] } },
{ "type": "Feature", "properties": { "OBJECTID": 10990, "SHAPE_Leng": 102.482906848, "SHAPE_Area": 645.42257243999995, "Town": "Allama Iqbal Town", "UC_N0": "UC_120", "Landuse": "R", "Name": null, "Plot_No": "125", "Category": null, "__source_file": "Awaisa_Housing_Scheme.shp" }, "geometry": { "type": "Polygon", "coordinates": [ [ [ 74.287786674799221, 31.438155159321081 ], [ 74.287504672693288, 31.43825294657757 ], [ 74.287598878896645, 31.438436687889745 ], [ 74.287881292400414, 31.438340916494614 ], [ 74.287786674799221, 31.438155159321081 ] ] ] } },
{ "type": "Feature", "properties": { "OBJECTID": 10991, "SHAPE_Leng": 104.351321699, "SHAPE_Area": 664.62397943300004, "Town": "Allama Iqbal Town", "UC_N0": "UC_120", "Landuse": "R", "Name": null, "Plot_No": "142", "Category": null, "__source_file": "Awaisa_Housing_Scheme.shp" }, "geometry": { "type": "Polygon", "coordinates": [ [ [ 74.287598878896645, 31.438436687889745 ], [ 74.287504672693288, 31.43825294657757 ], [ 74.287213006635042, 31.438354084451756 ], [ 74.287303381653871, 31.438536896114083 ], [ 74.287598878896645, 31.438436687889745 ] ] ] } },
{ "type": "Feature", "properties": { "OBJECTID": 10992, "SHAPE_Leng": 90.037800964599995, "SHAPE_Area": 465.37421051299998, "Town": "Allama Iqbal Town", "UC_N0": "UC_120", "Landuse": "R", "Name": null, "Plot_No": null, "Category": null, "__source_file": "Awaisa_Housing_Scheme.shp" }, "geometry": { "type": "Polygon", "coordinates": [ [ [ 74.287786674799221, 31.438155159321081 ], [ 74.287718421779019, 31.438021161568006 ], [ 74.28743699626969, 31.438120948518968 ], [ 74.287504672693288, 31.43825294657757 ], [ 74.287786674799221, 31.438155159321081 ] ] ] } },
{ "type": "Feature", "properties": { "OBJECTID": 10993, "SHAPE_Leng": 91.3091401537, "SHAPE_Area": 472.48552307300002, "Town": "Allama Iqbal Town", "UC_N0": "UC_120", "Landuse": "R", "Name": null, "Plot_No": null, "Category": null, "__source_file": "Awaisa_Housing_Scheme.shp" }, "geometry": { "type": "Polygon", "coordinates": [ [ [ 74.287504672693288, 31.43825294657757 ], [ 74.28743699626969, 31.438120948518968 ], [ 74.287148349913068, 31.438223295792927 ], [ 74.287213006635042, 31.438354084451756 ], [ 74.287504672693288, 31.43825294657757 ] ] ] } },
{ "type": "Feature", "properties": { "OBJECTID": 10994, "SHAPE_Leng": 88.953742808200005, "SHAPE_Area": 449.32543046900003, "Town": "Allama Iqbal Town", "UC_N0": "UC_120", "Landuse": "R", "Name": null, "Plot_No": null, "Category": null, "__source_file": "Awaisa_Housing_Scheme.shp" }, "geometry": { "type": "Polygon", "coordinates": [ [ [ 74.287718421779019, 31.438021161568006 ], [ 74.28765260047463, 31.437891937458573 ], [ 74.287371748661997, 31.437993688004529 ], [ 74.28743699626969, 31.438120948518968 ], [ 74.287718421779019, 31.438021161568006 ] ] ] } },
{ "type": "Feature", "properties": { "OBJECTID": 10995, "SHAPE_Leng": 89.749521395900004, "SHAPE_Area": 452.359481824, "Town": "Allama Iqbal Town", "UC_N0": "UC_120", "Landuse": "R", "Name": null, "Plot_No": null, "Category": null, "__source_file": "Awaisa_Housing_Scheme.shp" }, "geometry": { "type": "Polygon", "coordinates": [ [ [ 74.28743699626969, 31.438120948518968 ], [ 74.287371748661997, 31.437993688004529 ], [ 74.287086017046533, 31.438097206208855 ], [ 74.287148349913068, 31.438223295792927 ], [ 74.28743699626969, 31.438120948518968 ] ] ] } },
{ "type": "Feature", "properties": { "OBJECTID": 10996, "SHAPE_Leng": 89.939000125999996, "SHAPE_Area": 463.185792128, "Town": "Allama Iqbal Town", "UC_N0": "UC_120", "Landuse": "R", "Name": null, "Plot_No": null, "Category": null, "__source_file": "Awaisa_Housing_Scheme.shp" }, "geometry": { "type": "Polygon", "coordinates": [ [ [ 74.28765260047463, 31.437891937458573 ], [ 74.287584609140737, 31.437758450846768 ], [ 74.287304807829329, 31.437863123998849 ], [ 74.287371748661997, 31.437993688004529 ], [ 74.28765260047463, 31.437891937458573 ] ] ] } },
{ "type": "Feature", "properties": { "OBJECTID": 10997, "SHAPE_Leng": 90.023009145499998, "SHAPE_Area": 459.31279650300002, "Town": "Allama Iqbal Town", "UC_N0": "UC_120", "Landuse": "R", "Name": null, "Plot_No": null, "Category": null, "__source_file": "Awaisa_Housing_Scheme.shp" }, "geometry": { "type": "Polygon", "coordinates": [ [ [ 74.287371748661997, 31.437993688004529 ], [ 74.287304807829329, 31.437863123998849 ], [ 74.287022505938012, 31.437968731761135 ], [ 74.287086017046533, 31.438097206208855 ], [ 74.287371748661997, 31.437993688004529 ] ] ] } },
{ "type": "Feature", "properties": { "OBJECTID": 10998, "SHAPE_Leng": 86.5263815741, "SHAPE_Area": 413.167121743, "Town": "Allama Iqbal Town", "UC_N0": "UC_120", "Landuse": "R", "Name": null, "Plot_No": null, "Category": null, "__source_file": "Awaisa_Housing_Scheme.shp" }, "geometry": { "type": "Polygon", "coordinates": [ [ [ 74.287584609140737, 31.437758450846768 ], [ 74.287523651221164, 31.437638774033491 ], [ 74.287245557465567, 31.437747559894142 ], [ 74.287304807829329, 31.437863123998849 ], [ 74.287584609140737, 31.437758450846768 ] ] ] } },
{ "type": "Feature", "properties": { "OBJECTID": 10999, "SHAPE_Leng": 85.865387027300002, "SHAPE_Area": 401.21965231199999, "Town": "Allama Iqbal Town", "UC_N0": "UC_120", "Landuse": "R", "Name": null, "Plot_No": null, "Category": null, "__source_file": "Awaisa_Housing_Scheme.shp" }, "geometry": { "type": "Polygon", "coordinates": [ [ [ 74.287304807829329, 31.437863123998849 ], [ 74.287245557465567, 31.437747559894142 ], [ 74.286967030357005, 31.437856514154856 ], [ 74.287022505938012, 31.437968731761135 ], [ 74.287304807829329, 31.437863123998849 ] ] ] } },
{ "type": "Feature", "properties": { "OBJECTID": 11000, "SHAPE_Leng": 88.939530558000001, "SHAPE_Area": 447.61352301800002, "Town": "Allama Iqbal Town", "UC_N0": "UC_120", "Landuse": "R", "Name": null, "Plot_No": null, "Category": null, "__source_file": "Awaisa_Housing_Scheme.shp" }, "geometry": { "type": "Polygon", "coordinates": [ [ [ 74.287523651221164, 31.437638774033491 ], [ 74.287458438062799, 31.437510742341544 ], [ 74.287180697167287, 31.437621052991393 ], [ 74.287245557465567, 31.437747559894142 ], [ 74.287523651221164, 31.437638774033491 ] ] ] } },
{ "type": "Feature", "properties": { "OBJECTID": 11001, "SHAPE_Leng": 88.460801559800004, "SHAPE_Area": 441.62095861, "Town": "Allama Iqbal Town", "UC_N0": "UC_120", "Landuse": "R", "Name": null, "Plot_No": null, "Category": null, "__source_file": "Awaisa_Housing_Scheme.shp" }, "geometry": { "type": "Polygon", "coordinates": [ [ [ 74.287245557465567, 31.437747559894142 ], [ 74.287180697167287, 31.437621052991393 ], [ 74.286904799523867, 31.437730631658368 ], [ 74.286967030357005, 31.437856514154856 ], [ 74.287245557465567, 31.437747559894142 ] ] ] } },
{ "type": "Feature", "properties": { "OBJECTID": 11002, "SHAPE_Leng": 87.202488012100005, "SHAPE_Area": 421.87645008200002, "Town": "Allama Iqbal Town", "UC_N0": "UC_120", "Landuse": "R", "Name": null, "Plot_No": null, "Category": null, "__source_file": "Awaisa_Housing_Scheme.shp" }, "geometry": { "type": "Polygon", "coordinates": [ [ [ 74.287458438062799, 31.437510742341544 ], [ 74.287399217247966, 31.437394474727657 ], [ 74.287117464065545, 31.437497719226322 ], [ 74.287180697167287, 31.437621052991393 ], [ 74.287458438062799, 31.437510742341544 ] ] ] } },
{ "type": "Feature", "properties": { "OBJECTID": 11003, "SHAPE_Leng": 88.306997537399994, "SHAPE_Area": 442.23957490800001, "Town": "Allama Iqbal Town", "UC_N0": "UC_120", "Landuse": "R", "Name": null, "Plot_No": null, "Category": null, "__source_file": "Awaisa_Housing_Scheme.shp" }, "geometry": { "type": "Polygon", "coordinates": [ [ [ 74.287180697167287, 31.437621052991393 ], [ 74.287117464065545, 31.437497719226322 ], [ 74.286839933261831, 31.437599415820987 ], [ 74.286904799523867, 31.437730631658368 ], [ 74.287180697167287, 31.437621052991393 ] ] ] } },
{ "type": "Feature", "properties": { "OBJECTID": 11004, "SHAPE_Leng": 88.591591744499993, "SHAPE_Area": 441.66346183100001, "Town": "Allama Iqbal Town", "UC_N0": "UC_120", "Landuse": "R", "Name": null, "Plot_No": null, "Category": null, "__source_file": "Awaisa_Housing_Scheme.shp" }, "geometry": { "type": "Polygon", "coordinates": [ [ [ 74.287399217247966, 31.437394474727657 ], [ 74.287334265723885, 31.437266955087736 ], [ 74.287054392893452, 31.43737470120826 ], [ 74.287117464065545, 31.437497719226322 ], [ 74.287399217247966, 31.437394474727657 ] ] ] } },
{ "type": "Feature", "properties": { "OBJECTID": 11005, "SHAPE_Leng": 86.444522742900006, "SHAPE_Area": 418.35116651099997, "Town": "Allama Iqbal Town", "UC_N0": "UC_120", "Landuse": "R", "Name": null, "Plot_No": null, "Category": null, "__source_file": "Awaisa_Housing_Scheme.shp" }, "geometry": { "type": "Polygon", "coordinates": [ [ [ 74.287117464065545, 31.437497719226322 ], [ 74.287054392893452, 31.43737470120826 ], [ 74.286780895964156, 31.437479991149598 ], [ 74.286839933261831, 31.437599415820987 ], [ 74.287117464065545, 31.437497719226322 ] ] ] } },
{ "type": "Feature", "properties": { "OBJECTID": 11006, "SHAPE_Leng": 89.943491125099996, "SHAPE_Area": 460.87617017500003, "Town": "Allama Iqbal Town", "UC_N0": "UC_120", "Landuse": "R", "Name": null, "Plot_No": null, "Category": null, "__source_file": "Awaisa_Housing_Scheme.shp" }, "geometry": { "type": "Polygon", "coordinates": [ [ [ 74.287334265723885, 31.437266955087736 ], [ 74.287268185201398, 31.437137219574343 ], [ 74.28698704331471, 31.437243338991792 ], [ 74.287054392893452, 31.43737470120826 ], [ 74.287334265723885, 31.437266955087736 ] ] ] } },
{ "type": "Feature", "properties": { "OBJECTID": 11007, "SHAPE_Leng": 88.787125356000004, "SHAPE_Area": 454.37911900799998, "Town": "Allama Iqbal Town", "UC_N0": "UC_120", "Landuse": "R", "Name": null, "Plot_No": null, "Category": null, "__source_file": "Awaisa_Housing_Scheme.shp" }, "geometry": { "type": "Polygon", "coordinates": [ [ [ 74.287054392893452, 31.43737470120826 ], [ 74.28698704331471, 31.437243338991792 ], [ 74.28671472104952, 31.437346128039824 ], [ 74.286780895964156, 31.437479991149598 ], [ 74.287054392893452, 31.43737470120826 ] ] ] } },
{ "type": "Feature", "properties": { "OBJECTID": 11008, "SHAPE_Leng": 88.884686720199994, "SHAPE_Area": 458.38455550100002, "Town": "Allama Iqbal Town", "UC_N0": "UC_120", "Landuse": "R", "Name": null, "Plot_No": null, "Category": null, "__source_file": "Awaisa_Housing_Scheme.shp" }, "geometry": { "type": "Polygon", "coordinates": [ [ [ 74.28698704331471, 31.437243338991792 ], [ 74.28691807210177, 31.437108812618348 ], [ 74.286647952459361, 31.437211063429228 ], [ 74.28671472104952, 31.437346128039824 ], [ 74.28698704331471, 31.437243338991792 ] ] ] } },
{ "type": "Feature", "properties": { "OBJECTID": 11009, "SHAPE_Leng": 91.030543253100006, "SHAPE_Area": 476.24988928800002, "Town": "Allama Iqbal Town", "UC_N0": "UC_120", "Landuse": "R", "Name": null, "Plot_No": null, "Category": null, "__source_file": "Awaisa_Housing_Scheme.shp" }, "geometry": { "type": "Polygon", "coordinates": [ [ [ 74.287268185201398, 31.437137219574343 ], [ 74.287199461855209, 31.437002295038582 ], [ 74.28691807210177, 31.437108812618348 ], [ 74.28698704331471, 31.437243338991792 ], [ 74.287268185201398, 31.437137219574343 ] ] ] } },
{ "type": "Feature", "properties": { "OBJECTID": 11010, "SHAPE_Leng": 86.429913841300007, "SHAPE_Area": 408.48970673700001, "Town": "Allama Iqbal Town", "UC_N0": "UC_120", "Landuse": "R", "Name": null, "Plot_No": null, "Category": null, "__source_file": "Awaisa_Housing_Scheme.shp" }, "geometry": { "type": "Polygon", "coordinates": [ [ [ 74.287199461855209, 31.437002295038582 ], [ 74.287140453198845, 31.436886441703251 ], [ 74.286859126510748, 31.436993840084504 ], [ 74.28691807210177, 31.437108812618348 ], [ 74.287199461855209, 31.437002295038582 ] ] ] } },
{ "type": "Feature", "properties": { "OBJECTID": 11011, "SHAPE_Leng": 99.015456967999995, "SHAPE_Area": 551.27703438200001, "Town": "Allama Iqbal Town", "UC_N0": "UC_120", "Landuse": "R", "Name": null, "Plot_No": "113", "Category": null, "__source_file": "Awaisa_Housing_Scheme.shp" }, "geometry": { "type": "Polygon", "coordinates": [ [ [ 74.287851368100192, 31.437605576975333 ], [ 74.287712070756839, 31.437337767162404 ], [ 74.287549796272401, 31.437398282310888 ], [ 74.287688011467054, 31.437668320196789 ], [ 74.287851368100192, 31.437605576975333 ] ] ] } },
{ "type": "Feature", "properties": { "OBJECTID": 11012, "SHAPE_Leng": 98.854425307699998, "SHAPE_Area": 568.03295557800004, "Town": "Allama Iqbal Town", "UC_N0": "UC_120", "Landuse": "R", "Name": null, "Plot_No": "108", "Category": null, "__source_file": "Awaisa_Housing_Scheme.shp" }, "geometry": { "type": "Polygon", "coordinates": [ [ [ 74.289047854840177, 31.437146016871051 ], [ 74.288916344763507, 31.436888663261406 ], [ 74.288737349157458, 31.436955416264361 ], [ 74.288876779914304, 31.437211725927263 ], [ 74.289047854840177, 31.437146016871051 ] ] ] } },
{ "type": "Feature", "properties": { "OBJECTID": 11013, "SHAPE_Leng": 195.58708102, "SHAPE_Area": 2147.7180692799998, "Town": "Allama Iqbal Town", "UC_N0": "UC_120", "Landuse": "R", "Name": null, "Plot_No": null, "Category": null, "__source_file": "Awaisa_Housing_Scheme.shp" }, "geometry": { "type": "Polygon", "coordinates": [ [ [ 74.288734219684699, 31.437593583131779 ], [ 74.288584132676505, 31.437324130379881 ], [ 74.288425812090722, 31.437384940170009 ], [ 74.288570068618824, 31.437654178826886 ], [ 74.288734219684699, 31.437593583131779 ] ] ] } },
{ "type": "Feature", "properties": { "OBJECTID": 11014, "SHAPE_Leng": 94.427710291699995, "SHAPE_Area": 487.86511476599998, "Town": "Allama Iqbal Town", "UC_N0": "UC_120", "Landuse": "R", "Name": null, "Plot_No": null, "Category": null, "__source_file": "Awaisa_Housing_Scheme.shp" }, "geometry": { "type": "Polygon", "coordinates": [ [ [ 74.288425812090722, 31.437384940170009 ], [ 74.288285884415984, 31.437123779594423 ], [ 74.288140065347747, 31.437178158823006 ], [ 74.288277515046175, 31.437441899695628 ], [ 74.288425812090722, 31.437384940170009 ] ] ] } },
{ "type": "Feature", "properties": { "OBJECTID": 11015, "SHAPE_Leng": 96.677156100999994, "SHAPE_Area": 510.91025481700001, "Town": "Allama Iqbal Town", "UC_N0": "UC_120", "Landuse": "R", "Name": null, "Plot_No": null, "Category": null, "__source_file": "Awaisa_Housing_Scheme.shp" }, "geometry": { "type": "Polygon", "coordinates": [ [ [ 74.288570068618824, 31.437654178826886 ], [ 74.288425812090722, 31.437384940170009 ], [ 74.288277515046175, 31.437441899695628 ], [ 74.288417498489125, 31.437710499460408 ], [ 74.288570068618824, 31.437654178826886 ] ] ] } },
{ "type": "Feature", "properties": { "OBJECTID": 11618, "SHAPE_Leng": 93.823555189399997, "SHAPE_Area": 475.46458097099998, "Town": "Allama Iqbal Town", "UC_N0": "UC_120", "Landuse": "R", "Name": null, "Plot_No": null, "Category": null, "__source_file": "Awaisa_Housing_Scheme.shp" }, "geometry": { "type": "Polygon", "coordinates": [ [ [ 74.288277515046175, 31.437441899695628 ], [ 74.288140065347747, 31.437178158823006 ], [ 74.287997390794459, 31.437231365318709 ], [ 74.288135007495171, 31.43749663564326 ], [ 74.288277515046175, 31.437441899695628 ] ] ] } },
{ "type": "Feature", "properties": { "OBJECTID": 11619, "SHAPE_Leng": 94.734907042299994, "SHAPE_Area": 483.18037848500001, "Town": "Allama Iqbal Town", "UC_N0": "UC_120", "Landuse": "R", "Name": null, "Plot_No": null, "Category": null, "__source_file": "Awaisa_Housing_Scheme.shp" }, "geometry": { "type": "Polygon", "coordinates": [ [ [ 74.288417498489125, 31.437710499460408 ], [ 74.288277515046175, 31.437441899695628 ], [ 74.288135007495171, 31.43749663564326 ], [ 74.288273527305009, 31.437763645819988 ], [ 74.288417498489125, 31.437710499460408 ] ] ] } },
{ "type": "Feature", "properties": { "OBJECTID": 11620, "SHAPE_Leng": 93.237056070700007, "SHAPE_Area": 463.21136784100003, "Town": "Allama Iqbal Town", "UC_N0": "UC_120", "Landuse": "R", "Name": null, "Plot_No": null, "Category": null, "__source_file": "Awaisa_Housing_Scheme.shp" }, "geometry": { "type": "Polygon", "coordinates": [ [ [ 74.288135007495171, 31.43749663564326 ], [ 74.287997390794459, 31.437231365318709 ], [ 74.287857713029553, 31.437283454209251 ], [ 74.287998214536614, 31.437549175585314 ], [ 74.288135007495171, 31.43749663564326 ] ] ] } },
{ "type": "Feature", "properties": { "OBJECTID": 11621, "SHAPE_Leng": 92.8378431764, "SHAPE_Area": 456.22076858700001, "Town": "Allama Iqbal Town", "UC_N0": "UC_120", "Landuse": "R", "Name": null, "Plot_No": null, "Category": null, "__source_file": "Awaisa_Housing_Scheme.shp" }, "geometry": { "type": "Polygon", "coordinates": [ [ [ 74.288273527305009, 31.437763645819988 ], [ 74.288135007495171, 31.43749663564326 ], [ 74.287998214536614, 31.437549175585314 ], [ 74.288138059074441, 31.437813652588559 ], [ 74.288273527305009, 31.437763645819988 ] ] ] } },
{ "type": "Feature", "properties": { "OBJECTID": 11622, "SHAPE_Leng": 95.224149518399997, "SHAPE_Area": 492.511587303, "Town": "Allama Iqbal Town", "UC_N0": "UC_120", "Landuse": "R", "Name": null, "Plot_No": null, "Category": null, "__source_file": "Awaisa_Housing_Scheme.shp" }, "geometry": { "type": "Polygon", "coordinates": [ [ [ 74.287998214536614, 31.437549175585314 ], [ 74.287857713029553, 31.437283454209251 ], [ 74.287712070756839, 31.437337767162404 ], [ 74.287851368100192, 31.437605576975333 ], [ 74.287998214536614, 31.437549175585314 ] ] ] } },
{ "type": "Feature", "properties": { "OBJECTID": 11623, "SHAPE_Leng": 94.927829795099996, "SHAPE_Area": 493.60002187600003, "Town": "Allama Iqbal Town", "UC_N0": "UC_120", "Landuse": "R", "Name": null, "Plot_No": null, "Category": null, "__source_file": "Awaisa_Housing_Scheme.shp" }, "geometry": { "type": "Polygon", "coordinates": [ [ [ 74.288138059074441, 31.437813652588559 ], [ 74.287998214536614, 31.437549175585314 ], [ 74.287851368100192, 31.437605576975333 ], [ 74.287988342855925, 31.437868919420616 ], [ 74.288138059074441, 31.437813652588559 ] ] ] } },
{ "type": "Feature", "properties": { "OBJECTID": 11624, "SHAPE_Leng": 96.432908630900002, "SHAPE_Area": 522.48942373600005, "Town": "Allama Iqbal Town", "UC_N0": "UC_120", "Landuse": "R", "Name": null, "Plot_No": null, "Category": null, "__source_file": "Awaisa_Housing_Scheme.shp" }, "geometry": { "type": "Polygon", "coordinates": [ [ [ 74.288584132676505, 31.437324130379888 ], [ 74.288444274618328, 31.437064711660508 ], [ 74.288285884415984, 31.437123779594423 ], [ 74.288425812090722, 31.437384940170009 ], [ 74.288584132676505, 31.437324130379888 ] ] ] } },
{ "type": "Feature", "properties": { "OBJECTID": 11625, "SHAPE_Leng": 94.293059253300001, "SHAPE_Area": 491.24350864299998, "Town": "Allama Iqbal Town", "UC_N0": "UC_120", "Landuse": "R", "Name": null, "Plot_No": null, "Category": null, "__source_file": "Awaisa_Housing_Scheme.shp" }, "geometry": { "type": "Polygon", "coordinates": [ [ [ 74.288734524225703, 31.437266365605321 ], [ 74.288593293939272, 31.437009138157737 ], [ 74.288444274618328, 31.437064711660508 ], [ 74.288584132676505, 31.437324130379888 ], [ 74.288734524225703, 31.437266365605321 ] ] ] } },
{ "type": "Feature", "properties": { "OBJECTID": 11626, "SHAPE_Leng": 92.601739157300003, "SHAPE_Area": 467.27139621600003, "Town": "Allama Iqbal Town", "UC_N0": "UC_120", "Landuse": "R", "Name": null, "Plot_No": null, "Category": null, "__source_file": "Awaisa_Housing_Scheme.shp" }, "geometry": { "type": "Polygon", "coordinates": [ [ [ 74.288876779914304, 31.437211725927263 ], [ 74.288737349157458, 31.436955416264361 ], [ 74.288593293939272, 31.437009138157737 ], [ 74.288734524225703, 31.437266365605321 ], [ 74.288876779914304, 31.437211725927263 ] ] ] } },
{ "type": "Feature", "properties": { "OBJECTID": 11627, "SHAPE_Leng": 114.892516602, "SHAPE_Area": 776.23296679600003, "Town": "Allama Iqbal Town", "UC_N0": "UC_120", "Landuse": "R", "Name": null, "Plot_No": null, "Category": null, "__source_file": "Awaisa_Housing_Scheme.shp" }, "geometry": { "type": "Polygon", "coordinates": [ [ [ 74.288799562003788, 31.436814708914991 ], [ 74.288645757161817, 31.436521019499732 ], [ 74.288438383701063, 31.436599011371516 ], [ 74.288588159349032, 31.436894688035729 ], [ 74.288799562003788, 31.436814708914991 ] ] ] } },
{ "type": "Feature", "properties": { "OBJECTID": 11628, "SHAPE_Leng": 118.37476051199999, "SHAPE_Area": 819.23216429599995, "Town": "Allama Iqbal Town", "UC_N0": "UC_120", "Landuse": "R", "Name": null, "Plot_No": "21", "Category": null, "__source_file": "Awaisa_Housing_Scheme.shp" }, "geometry": { "type": "Polygon", "coordinates": [ [ [ 74.287571575600907, 31.436925005622019 ], [ 74.287415386586517, 31.436618963416816 ], [ 74.287204273698578, 31.436696712452676 ], [ 74.287356536647934, 31.437005877336563 ], [ 74.287571575600907, 31.436925005622019 ] ] ] } },
{ "type": "Feature", "properties": { "OBJECTID": 11629, "SHAPE_Leng": 117.000349505, "SHAPE_Area": 810.60018009199996, "Town": "Allama Iqbal Town", "UC_N0": "UC_120", "Landuse": "R", "Name": null, "Plot_No": "22", "Category": null, "__source_file": "Awaisa_Housing_Scheme.shp" }, "geometry": { "type": "Polygon", "coordinates": [ [ [ 74.287723121235814, 31.437221948098873 ], [ 74.287571575600907, 31.436925005622019 ], [ 74.287356536647934, 31.437005877336563 ], [ 74.287503812522942, 31.437304915649893 ], [ 74.287723121235814, 31.437221948098873 ] ] ] } },
{ "type": "Feature", "properties": { "OBJECTID": 11630, "SHAPE_Leng": 120.916628571, "SHAPE_Area": 868.75719172699996, "Town": "Allama Iqbal Town", "UC_N0": "UC_120", "Landuse": "R", "Name": null, "Plot_No": null, "Category": null, "__source_file": "Awaisa_Housing_Scheme.shp" }, "geometry": { "type": "Polygon", "coordinates": [ [ [ 74.287799765141457, 31.436839187544752 ], [ 74.287641247923844, 31.436535782510195 ], [ 74.287415386586517, 31.436618963416816 ], [ 74.287571575600907, 31.436925005622019 ], [ 74.287799765141457, 31.436839187544752 ] ] ] } },
{ "type": "Feature", "properties": { "OBJECTID": 11631, "SHAPE_Leng": 119.47206396, "SHAPE_Area": 855.69986615200003, "Town": "Allama Iqbal Town", "UC_N0": "UC_120", "Landuse": "R", "Name": null, "Plot_No": null, "Category": null, "__source_file": "Awaisa_Housing_Scheme.shp" }, "geometry": { "type": "Polygon", "coordinates": [ [ [ 74.287954091733397, 31.437134569022582 ], [ 74.287799765141457, 31.436839187544752 ], [ 74.287571575600907, 31.436925005622019 ], [ 74.287723121235814, 31.437221948098873 ], [ 74.287954091733397, 31.437134569022582 ] ] ] } },
{ "type": "Feature", "properties": { "OBJECTID": 11632, "SHAPE_Leng": 122.00944554500001, "SHAPE_Area": 891.26132845799998, "Town": "Allama Iqbal Town", "UC_N0": "UC_120", "Landuse": "R", "Name": null, "Plot_No": null, "Category": null, "__source_file": "Awaisa_Housing_Scheme.shp" }, "geometry": { "type": "Polygon", "coordinates": [ [ [ 74.288031476804221, 31.436752044307255 ], [ 74.287877676866756, 31.436448709076682 ], [ 74.287641247923844, 31.436535782510195 ], [ 74.287799765141457, 31.436839187544752 ], [ 74.288031476804221, 31.436752044307255 ] ] ] } },
{ "type": "Feature", "properties": { "OBJECTID": 11633, "SHAPE_Leng": 119.39071187899999, "SHAPE_Area": 854.86138435299995, "Town": "Allama Iqbal Town", "UC_N0": "UC_120", "Landuse": "R", "Name": null, "Plot_No": null, "Category": null, "__source_file": "Awaisa_Housing_Scheme.shp" }, "geometry": { "type": "Polygon", "coordinates": [ [ [ 74.288181757662244, 31.437048438796637 ], [ 74.288031476804221, 31.436752044307255 ], [ 74.287799765141457, 31.436839187544752 ], [ 74.287954091733397, 31.437134569022582 ], [ 74.288181757662244, 31.437048438796637 ] ] ] } },
{ "type": "Feature", "properties": { "OBJECTID": 11634, "SHAPE_Leng": 114.372036079, "SHAPE_Area": 753.71057270100005, "Town": "Allama Iqbal Town", "UC_N0": "UC_120", "Landuse": "R", "Name": null, "Plot_No": null, "Category": null, "__source_file": "Awaisa_Housing_Scheme.shp" }, "geometry": { "type": "Polygon", "coordinates": [ [ [ 74.288231235213729, 31.436676917662588 ], [ 74.288075657556107, 31.436375795878075 ], [ 74.287877676866756, 31.436448709076682 ], [ 74.288031476804221, 31.436752044307255 ], [ 74.288231235213729, 31.436676917662588 ] ] ] } },
{ "type": "Feature", "properties": { "OBJECTID": 11635, "SHAPE_Leng": 113.305760259, "SHAPE_Area": 746.53915140799995, "Town": "Allama Iqbal Town", "UC_N0": "UC_120", "Landuse": "R", "Name": null, "Plot_No": null, "Category": null, "__source_file": "Awaisa_Housing_Scheme.shp" }, "geometry": { "type": "Polygon", "coordinates": [ [ [ 74.288383710775079, 31.43697203573274 ], [ 74.288231235213729, 31.436676917662588 ], [ 74.288031476804221, 31.436752044307255 ], [ 74.288181757662244, 31.437048438796637 ], [ 74.288383710775079, 31.43697203573274 ] ] ] } },
{ "type": "Feature", "properties": { "OBJECTID": 11637, "SHAPE_Leng": 114.23982304800001, "SHAPE_Area": 763.92235477300005, "Town": "Allama Iqbal Town", "UC_N0": "UC_120", "Landuse": "R", "Name": null, "Plot_No": null, "Category": null, "__source_file": "Awaisa_Housing_Scheme.shp" }, "geometry": { "type": "Polygon", "coordinates": [ [ [ 74.288588159349032, 31.436894688035729 ], [ 74.288438383701063, 31.436599011371516 ], [ 74.288231235213729, 31.436676917662588 ], [ 74.288383710775094, 31.43697203573274 ], [ 74.288588159349032, 31.436894688035729 ] ] ] } },
{ "type": "Feature", "properties": { "OBJECTID": 58541, "SHAPE_Leng": 175.85433403900001, "SHAPE_Area": 1679.51891892, "Town": "Allama Iqbal Town", "UC_N0": "UC_120", "Landuse": "E", "Name": "Siqara high school for boys", "Plot_No": "38", "Category": null, "__source_file": "Awaisa_Housing_Scheme.shp" }, "geometry": { "type": "Polygon", "coordinates": [ [ [ 74.290043524691299, 31.436709768327777 ], [ 74.290048426438531, 31.436512922266868 ], [ 74.28994228760007, 31.436508177512469 ], [ 74.289660369784116, 31.436613316025309 ], [ 74.28969712032746, 31.436690245362492 ], [ 74.289742358223435, 31.436801417134848 ], [ 74.289779447614166, 31.436914784857326 ], [ 74.289808244451393, 31.437029911059149 ], [ 74.289817155623439, 31.437074931173314 ], [ 74.290034396664041, 31.437076354437242 ], [ 74.29003570802935, 31.437023697676018 ], [ 74.290038640448628, 31.436905917058745 ], [ 74.290041984767399, 31.43677160175962 ], [ 74.290043524691299, 31.436709768327777 ] ] ] } },
{ "type": "Feature", "properties": { "OBJECTID": 58542, "SHAPE_Leng": 60.179900940899998, "SHAPE_Area": 190.25638545499999, "Town": "Allama Iqbal Town", "UC_N0": "UC_120", "Landuse": "R", "Name": null, "Plot_No": "58", "Category": null, "__source_file": "Awaisa_Housing_Scheme.shp" }, "geometry": { "type": "Polygon", "coordinates": [ [ [ 74.289983912611973, 31.439103872645187 ], [ 74.28998587762517, 31.439024963756449 ], [ 74.289765422404486, 31.439020211369389 ], [ 74.289761478134935, 31.439104380102368 ], [ 74.289983912611973, 31.439103872645187 ] ] ] } },
{ "type": "Feature", "properties": { "OBJECTID": 58543, "SHAPE_Leng": 56.301114097599999, "SHAPE_Area": 169.516500167, "Town": "Allama Iqbal Town", "UC_N0": "UC_120", "Landuse": "R", "Name": null, "Plot_No": null, "Category": null, "__source_file": "Awaisa_Housing_Scheme.shp" }, "geometry": { "type": "Polygon", "coordinates": [ [ [ 74.290005214400537, 31.438248373461587 ], [ 74.289801730972627, 31.438245494402942 ], [ 74.289798081651711, 31.438323353689952 ], [ 74.29000323285905, 31.438327945407174 ], [ 74.290005214400537, 31.438248373461587 ] ] ] } },
{ "type": "Feature", "properties": { "OBJECTID": 58544, "SHAPE_Leng": 58.874598272100002, "SHAPE_Area": 186.429545819, "Town": "Allama Iqbal Town", "UC_N0": "UC_120", "Landuse": "R", "Name": null, "Plot_No": null, "Category": null, "__source_file": "Awaisa_Housing_Scheme.shp" }, "geometry": { "type": "Polygon", "coordinates": [ [ [ 74.289995828204411, 31.438625346758855 ], [ 74.289784055762411, 31.438622641871113 ], [ 74.289780200735592, 31.438704889356934 ], [ 74.289993733488657, 31.438709458991362 ], [ 74.289995828204411, 31.438625346758855 ] ] ] } },
{ "type": "Feature", "properties": { "OBJECTID": 64405, "SHAPE_Leng": 59.436409573200002, "SHAPE_Area": 198.14635998399999, "Town": "Allama Iqbal Town", "UC_N0": "UC_120", "Landuse": "R", "Name": null, "Plot_No": null, "Category": null, "__source_file": "Awaisa_Housing_Scheme.shp" }, "geometry": { "type": "Polygon", "coordinates": [ [ [ 74.290001047575842, 31.438415698538648 ], [ 74.29000323285905, 31.438327945407174 ], [ 74.289798081651711, 31.438323353689952 ], [ 74.289793648377653, 31.438417955806951 ], [ 74.290001047575842, 31.438415698538648 ] ] ] } },
{ "type": "Feature", "properties": { "OBJECTID": 64406, "SHAPE_Leng": 60.973971951199999, "SHAPE_Area": 209.39175698599999, "Town": "Allama Iqbal Town", "UC_N0": "UC_120", "Landuse": "R", "Name": null, "Plot_No": null, "Category": null, "__source_file": "Awaisa_Housing_Scheme.shp" }, "geometry": { "type": "Polygon", "coordinates": [ [ [ 74.289998196311274, 31.43853023425843 ], [ 74.289788436285818, 31.438529177176093 ], [ 74.289784055762411, 31.438622641871113 ], [ 74.289995828204411, 31.438625346758855 ], [ 74.289998196311274, 31.43853023425843 ] ] ] } },
{ "type": "Feature", "properties": { "OBJECTID": 64407, "SHAPE_Leng": 63.252851444100003, "SHAPE_Area": 226.77513382699999, "Town": "Allama Iqbal Town", "UC_N0": "UC_120", "Landuse": "R", "Name": null, "Plot_No": null, "Category": null, "__source_file": "Awaisa_Housing_Scheme.shp" }, "geometry": { "type": "Polygon", "coordinates": [ [ [ 74.289991214299874, 31.438810651675713 ], [ 74.289775161671628, 31.438812417953766 ], [ 74.289770705890092, 31.438907485487832 ], [ 74.289988642453494, 31.43891394265134 ], [ 74.289991214299874, 31.438810651675713 ] ] ] } },
{ "type": "Feature", "properties": { "OBJECTID": 64408, "SHAPE_Leng": 63.978008618399997, "SHAPE_Area": 236.166725445, "Town": "Allama Iqbal Town", "UC_N0": "UC_120", "Landuse": "R", "Name": null, "Plot_No": null, "Category": null, "__source_file": "Awaisa_Housing_Scheme.shp" }, "geometry": { "type": "Polygon", "coordinates": [ [ [ 74.289991214299874, 31.438810651675713 ], [ 74.289993733488657, 31.438709458991362 ], [ 74.289780200735592, 31.438704889356934 ], [ 74.289775161671628, 31.438812417953766 ], [ 74.289991214299874, 31.438810651675713 ] ] ] } },
{ "type": "Feature", "properties": { "OBJECTID": 64409, "SHAPE_Leng": 64.6808275729, "SHAPE_Area": 247.970364545, "Town": "Allama Iqbal Town", "UC_N0": "UC_120", "Landuse": "R", "Name": null, "Plot_No": null, "Category": null, "__source_file": "Awaisa_Housing_Scheme.shp" }, "geometry": { "type": "Polygon", "coordinates": [ [ [ 74.289998196311274, 31.43853023425843 ], [ 74.290001047575842, 31.438415698538648 ], [ 74.289793648377653, 31.438417955806951 ], [ 74.289788436285818, 31.438529177176093 ], [ 74.289998196311274, 31.43853023425843 ] ] ] } },
{ "type": "Feature", "properties": { "OBJECTID": 64410, "SHAPE_Leng": 66.492684725100005, "SHAPE_Area": 258.53407293700002, "Town": "Allama Iqbal Town", "UC_N0": "UC_120", "Landuse": "R/C", "Name": "Siqara Dental Care", "Plot_No": "57", "Category": null, "__source_file": "Awaisa_Housing_Scheme.shp" }, "geometry": { "type": "Polygon", "coordinates": [ [ [ 74.289988642453494, 31.43891394265134 ], [ 74.289770705890092, 31.438907485487832 ], [ 74.289765422404486, 31.439020211369389 ], [ 74.28998587762517, 31.439024963756449 ], [ 74.289988642453494, 31.43891394265134 ] ] ] } },
{ "type": "Feature", "properties": { "OBJECTID": 64413, "SHAPE_Leng": 62.5982604342, "SHAPE_Area": 232.09651269099999, "Town": "Allama Iqbal Town", "UC_N0": "UC_120", "Landuse": "R", "Name": null, "Plot_No": null, "Category": null, "__source_file": "Awaisa_Housing_Scheme.shp" }, "geometry": { "type": "Polygon", "coordinates": [ [ [ 74.290007906742687, 31.438140258923063 ], [ 74.289806868928792, 31.438135865953836 ], [ 74.289801730972627, 31.438245494402942 ], [ 74.290005214400537, 31.438248373461587 ], [ 74.290007906742687, 31.438140258923063 ] ] ] } },
{ "type": "Feature", "properties": { "OBJECTID": 64414, "SHAPE_Leng": 58.103970744900003, "SHAPE_Area": 190.82546526199999, "Town": "Allama Iqbal Town", "UC_N0": "UC_120", "Landuse": "R", "Name": null, "Plot_No": null, "Category": null, "__source_file": "Awaisa_Housing_Scheme.shp" }, "geometry": { "type": "Polygon", "coordinates": [ [ [ 74.290008830561561, 31.438103141823174 ], [ 74.290010138883218, 31.438050614974919 ], [ 74.289811149175065, 31.438044528151135 ], [ 74.289806868928792, 31.438135865953836 ], [ 74.290007906742687, 31.438140258923063 ], [ 74.290008830561561, 31.438103141823174 ] ] ] } },
{ "type": "Feature", "properties": { "OBJECTID": 64415, "SHAPE_Leng": 58.823723209000001, "SHAPE_Area": 199.25525793400001, "Town": "Allama Iqbal Town", "UC_N0": "UC_120", "Landuse": "R", "Name": null, "Plot_No": null, "Category": null, "__source_file": "Awaisa_Housing_Scheme.shp" }, "geometry": { "type": "Polygon", "coordinates": [ [ [ 74.290012577774675, 31.437952668053676 ], [ 74.289815507025679, 31.437951549622227 ], [ 74.289811149175065, 31.438044528151135 ], [ 74.290010138883218, 31.438050614974919 ], [ 74.290012577774675, 31.437952668053676 ] ] ] } },
{ "type": "Feature", "properties": { "OBJECTID": 64416, "SHAPE_Leng": 59.305182936800001, "SHAPE_Area": 205.34870007800001, "Town": "Allama Iqbal Town", "UC_N0": "UC_120", "Landuse": "R", "Name": null, "Plot_No": null, "Category": null, "__source_file": "Awaisa_Housing_Scheme.shp" }, "geometry": { "type": "Polygon", "coordinates": [ [ [ 74.290015037974058, 31.43785384789107 ], [ 74.289820197360982, 31.43785145795534 ], [ 74.289815507025679, 31.437951549622227 ], [ 74.290012577774675, 31.437952668053676 ], [ 74.290015037974058, 31.43785384789107 ] ] ] } },
{ "type": "Feature", "properties": { "OBJECTID": 64417, "SHAPE_Leng": 58.913251745300002, "SHAPE_Area": 203.32166525400001, "Town": "Allama Iqbal Town", "UC_N0": "UC_120", "Landuse": "R", "Name": null, "Plot_No": null, "Category": null, "__source_file": "Awaisa_Housing_Scheme.shp" }, "geometry": { "type": "Polygon", "coordinates": [ [ [ 74.290016563604198, 31.437792594079429 ], [ 74.290017494912291, 31.43775518018553 ], [ 74.28982490760869, 31.437750956784981 ], [ 74.289820197360982, 31.43785145795534 ], [ 74.290015037974058, 31.43785384789107 ], [ 74.290016563604198, 31.437792594079429 ] ] ] } },
{ "type": "Feature", "properties": { "OBJECTID": 64418, "SHAPE_Leng": 53.449136703500002, "SHAPE_Area": 154.863934336, "Town": "Allama Iqbal Town", "UC_N0": "UC_120", "Landuse": "R", "Name": null, "Plot_No": null, "Category": null, "__source_file": "Awaisa_Housing_Scheme.shp" }, "geometry": { "type": "Polygon", "coordinates": [ [ [ 74.290018947003404, 31.437696841068025 ], [ 74.290019405506754, 31.437678454372556 ], [ 74.289828492999831, 31.437674451381604 ], [ 74.28982490760869, 31.437750956784981 ], [ 74.290017494912291, 31.43775518018553 ], [ 74.290018947003404, 31.437696841068025 ] ] ] } },
{ "type": "Feature", "properties": { "OBJECTID": 64419, "SHAPE_Leng": 59.459111605399997, "SHAPE_Area": 210.878651064, "Town": "Allama Iqbal Town", "UC_N0": "UC_120", "Landuse": "R", "Name": null, "Plot_No": null, "Category": null, "__source_file": "Awaisa_Housing_Scheme.shp" }, "geometry": { "type": "Polygon", "coordinates": [ [ [ 74.290021496015072, 31.437594472925802 ], [ 74.29002202403079, 31.437573286095631 ], [ 74.289833445392063, 31.437568768243302 ], [ 74.289828492999831, 31.437674451381604 ], [ 74.290019405506754, 31.437678454372556 ], [ 74.290021496015072, 31.437594472925802 ] ] ] } },
{ "type": "Feature", "properties": { "OBJECTID": 64420, "SHAPE_Leng": 60.378556376399999, "SHAPE_Area": 220.41375246199999, "Town": "Allama Iqbal Town", "UC_N0": "UC_120", "Landuse": "R", "Name": null, "Plot_No": null, "Category": null, "__source_file": "Awaisa_Housing_Scheme.shp" }, "geometry": { "type": "Polygon", "coordinates": [ [ [ 74.290024843432079, 31.437460034955819 ], [ 74.289838598205122, 31.437458832202974 ], [ 74.289833445392063, 31.437568768243302 ], [ 74.29002202403079, 31.437573286095631 ], [ 74.290024843432079, 31.437460034955819 ] ] ] } },
{ "type": "Feature", "properties": { "OBJECTID": 64421, "SHAPE_Leng": 55.0590578268, "SHAPE_Area": 174.655438987, "Town": "Allama Iqbal Town", "UC_N0": "UC_120", "Landuse": "R", "Name": null, "Plot_No": null, "Category": null, "__source_file": "Awaisa_Housing_Scheme.shp" }, "geometry": { "type": "Polygon", "coordinates": [ [ [ 74.290027071017107, 31.437370570516073 ], [ 74.28984279188056, 31.437369336261415 ], [ 74.289838598205122, 31.437458832202974 ], [ 74.290024843432079, 31.437460034955819 ], [ 74.290027071017107, 31.437370570516073 ] ] ] } },
{ "type": "Feature", "properties": { "OBJECTID": 64422, "SHAPE_Leng": 56.045948820600003, "SHAPE_Area": 181.98376744199999, "Town": "Allama Iqbal Town", "UC_N0": "UC_120", "Landuse": "R", "Name": null, "Plot_No": null, "Category": null, "__source_file": "Awaisa_Housing_Scheme.shp" }, "geometry": { "type": "Polygon", "coordinates": [ [ [ 74.290027496430454, 31.437353501793226 ], [ 74.290029374093365, 31.4372780704918 ], [ 74.289841285042669, 31.437275548393881 ], [ 74.289843836440483, 31.437347055184045 ], [ 74.28984279188056, 31.437369336261415 ], [ 74.290027071017107, 31.437370570516073 ], [ 74.290027496430454, 31.437353501793226 ] ] ] } },
{ "type": "Feature", "properties": { "OBJECTID": 64423, "SHAPE_Leng": 57.556568088500001, "SHAPE_Area": 190.8019627, "Town": "Allama Iqbal Town", "UC_N0": "UC_120", "Landuse": "R", "Name": null, "Plot_No": null, "Category": null, "__source_file": "Awaisa_Housing_Scheme.shp" }, "geometry": { "type": "Polygon", "coordinates": [ [ [ 74.290031770571375, 31.437181833949893 ], [ 74.28983341701975, 31.437184147750333 ], [ 74.289840554935935, 31.43726366198727 ], [ 74.289841285042669, 31.437275548393881 ], [ 74.290029374093365, 31.4372780704918 ], [ 74.290031770571375, 31.437181833949893 ] ] ] } },
{ "type": "Feature", "properties": { "OBJECTID": 64424, "SHAPE_Leng": 63.396359581600002, "SHAPE_Area": 234.50601361400001, "Town": "Allama Iqbal Town", "UC_N0": "UC_120", "Landuse": "R", "Name": null, "Plot_No": null, "Category": null, "__source_file": "Awaisa_Housing_Scheme.shp" }, "geometry": { "type": "Polygon", "coordinates": [ [ [ 74.290031770571375, 31.437181833949893 ], [ 74.29003438603398, 31.437076787448408 ], [ 74.290034396664041, 31.437076354437242 ], [ 74.289817155623425, 31.437074931173303 ], [ 74.289828644560956, 31.437146372924772 ], [ 74.28983341701975, 31.437184147750333 ], [ 74.290031770571375, 31.437181833949893 ] ] ] } },
{ "type": "Feature", "properties": { "OBJECTID": 65083, "SHAPE_Leng": 75.438057811199997, "SHAPE_Area": 339.29274639599998, "Town": "Allama Iqbal Town", "UC_N0": "UC_120", "Landuse": "R", "Name": null, "Plot_No": null, "Category": null, "__source_file": "Awaisa_Housing_Scheme.shp" }, "geometry": { "type": "Polygon", "coordinates": [ [ [ 74.290857759753379, 31.436234731483154 ], [ 74.290792967335051, 31.436112250663673 ], [ 74.290501357757663, 31.436200701341082 ], [ 74.290577077915742, 31.436342933263898 ], [ 74.290857759753379, 31.436234731483154 ] ] ] } },
{ "type": "Feature", "properties": { "OBJECTID": 65096, "SHAPE_Leng": 59.7448079666, "SHAPE_Area": 191.103184027, "Town": "Allama Iqbal Town", "UC_N0": "UC_120", "Landuse": "R", "Name": null, "Plot_No": "36", "Category": null, "__source_file": "Awaisa_Housing_Scheme.shp" }, "geometry": { "type": "Polygon", "coordinates": [ [ [ 74.290583467004751, 31.436534708116245 ], [ 74.290491835707897, 31.436530611944629 ], [ 74.290265168986608, 31.436521569540783 ], [ 74.290361626544723, 31.436712999237336 ], [ 74.29048543110008, 31.43671425593849 ], [ 74.290572966431142, 31.43671474397707 ], [ 74.290663707143068, 31.436715251905305 ], [ 74.290583467004751, 31.436534708116245 ] ] ] } },
{ "type": "Feature", "properties": { "OBJECTID": 65097, "SHAPE_Leng": 83.152893313299998, "SHAPE_Area": 401.864781773, "Town": "Allama Iqbal Town", "UC_N0": "UC_120", "Landuse": "R", "Name": null, "Plot_No": null, "Category": null, "__source_file": "Awaisa_Housing_Scheme.shp" }, "geometry": { "type": "Polygon", "coordinates": [ [ [ 74.290922263898651, 31.436356668433739 ], [ 74.290635344883242, 31.43644961535292 ], [ 74.290681874640526, 31.436546102960914 ], [ 74.290873872166955, 31.436546760071156 ], [ 74.290975037160322, 31.436550340806988 ], [ 74.291025665288529, 31.436552133125737 ], [ 74.290981466501819, 31.436468583820673 ], [ 74.290922263898651, 31.436356668433739 ] ] ] } },
{ "type": "Feature", "properties": { "OBJECTID": 65099, "SHAPE_Leng": 88.329136375499999, "SHAPE_Area": 471.06714656600002, "Town": "Allama Iqbal Town", "UC_N0": "UC_120", "Landuse": "C", "Name": "Faisal Bank", "Plot_No": "8", "Category": null, "__source_file": "Awaisa_Housing_Scheme.shp" }, "geometry": { "type": "Polygon", "coordinates": [ [ [ 74.290529500995362, 31.435614198529933 ], [ 74.290450309013778, 31.435464494218522 ], [ 74.290196123881088, 31.435562426254101 ], [ 74.290239177865942, 31.435718099198311 ], [ 74.290529500995362, 31.435614198529933 ] ] ] } },
{ "type": "Feature", "properties": { "OBJECTID": 65101, "SHAPE_Leng": 80.435744554500005, "SHAPE_Area": 375.588075995, "Town": "Allama Iqbal Town", "UC_N0": "UC_120", "Landuse": "R", "Name": null, "Plot_No": null, "Category": null, "__source_file": "Awaisa_Housing_Scheme.shp" }, "geometry": { "type": "Polygon", "coordinates": [ [ [ 74.290594347718667, 31.435736784444945 ], [ 74.290529500995362, 31.435614198529933 ], [ 74.290239177865942, 31.435718099198311 ], [ 74.290303274519516, 31.435834943210086 ], [ 74.290594347718667, 31.435736784444945 ] ] ] } },
{ "type": "Feature", "properties": { "OBJECTID": 65103, "SHAPE_Leng": 79.122848074299995, "SHAPE_Area": 365.26046545200001, "Town": "Allama Iqbal Town", "UC_N0": "UC_120", "Landuse": "R", "Name": null, "Plot_No": null, "Category": null, "__source_file": "Awaisa_Housing_Scheme.shp" }, "geometry": { "type": "Polygon", "coordinates": [ [ [ 74.290658705945759, 31.435858446445454 ], [ 74.290594347718667, 31.435736784444945 ], [ 74.290303274519516, 31.435834943210086 ], [ 74.290373316259561, 31.435946755380698 ], [ 74.290658705945759, 31.435858446445454 ] ] ] } },
{ "type": "Feature", "properties": { "OBJECTID": 65105, "SHAPE_Leng": 78.433445075600005, "SHAPE_Area": 362.85278130199998, "Town": "Allama Iqbal Town", "UC_N0": "UC_120", "Landuse": "R", "Name": null, "Plot_No": null, "Category": null, "__source_file": "Awaisa_Housing_Scheme.shp" }, "geometry": { "type": "Polygon", "coordinates": [ [ [ 74.29072347622909, 31.43598088661151 ], [ 74.290658705945759, 31.435858446445454 ], [ 74.290373316259561, 31.435946755380698 ], [ 74.29043150645073, 31.436063566612727 ], [ 74.29072347622909, 31.43598088661151 ] ] ] } },
{ "type": "Feature", "properties": { "OBJECTID": 65107, "SHAPE_Leng": 79.428078997, "SHAPE_Area": 380.41284420800002, "Town": "Allama Iqbal Town", "UC_N0": "UC_120", "Landuse": "R", "Name": null, "Plot_No": null, "Category": null, "__source_file": "Awaisa_Housing_Scheme.shp" }, "geometry": { "type": "Polygon", "coordinates": [ [ [ 74.290792967335051, 31.436112250663673 ], [ 74.29072347622909, 31.43598088661151 ], [ 74.29043150645073, 31.436063566612727 ], [ 74.290501357757663, 31.436200701341082 ], [ 74.290792967335051, 31.436112250663673 ] ] ] } },
{ "type": "Feature", "properties": { "OBJECTID": 65139, "SHAPE_Leng": 74.137680215399996, "SHAPE_Area": 329.35631386199998, "Town": "Allama Iqbal Town", "UC_N0": "UC_120", "Landuse": "R", "Name": null, "Plot_No": null, "Category": null, "__source_file": "Awaisa_Housing_Scheme.shp" }, "geometry": { "type": "Polygon", "coordinates": [ [ [ 74.290922263898651, 31.436356668433739 ], [ 74.290857759753379, 31.436234731483154 ], [ 74.290577077915742, 31.436342933263898 ], [ 74.290635344883242, 31.43644961535292 ], [ 74.290922263898651, 31.436356668433739 ] ] ] } },
{ "type": "Feature", "properties": { "OBJECTID": 0, "SHAPE_Leng": 0.0, "SHAPE_Area": 0.0, "Town": null, "UC_N0": null, "Landuse": "R", "Name": null, "Plot_No": "114", "Category": null, "__source_file": "Awaisa_Housing_Scheme.shp" }, "geometry": { "type": "Polygon", "coordinates": [ [ [ 74.287140453198845, 31.436886441703273 ], [ 74.287083203567732, 31.43673271458804 ], [ 74.286785804560054, 31.436850824707687 ], [ 74.286859126510748, 31.436993840084504 ], [ 74.287140453198845, 31.436886441703273 ] ] ] } },
{ "type": "Feature", "properties": { "OBJECTID": 10906, "SHAPE_Leng": 120.602683004, "SHAPE_Area": 908.056820808, "Town": "Allama Iqbal Town", "UC_N0": "UC_120", "Landuse": "R", "Name": null, "Plot_No": null, "Category": null, "__source_file": "Awaisa_Housing_Scheme.shp" }, "geometry": { "type": "Polygon", "coordinates": [ [ [ 74.288045944749129, 31.439318783998001 ], [ 74.287745371920252, 31.439430953775567 ], [ 74.287803355568101, 31.439548242011195 ], [ 74.288106148002413, 31.439437733669482 ], [ 74.288045944749129, 31.439318783998001 ] ] ] } },
{ "type": "Feature", "properties": { "OBJECTID": 2589, "SHAPE_Leng": 287.20995074400003, "SHAPE_Area": 5129.3629758400002, "Town": "Allama Iqbal Town", "UC_N0": "UC_120", "Landuse": "R", "Name": null, "Plot_No": "70", "Category": null, "__source_file": "Awaisa_Housing_Scheme.shp" }, "geometry": { "type": "Polygon", "coordinates": [ [ [ 74.288902141674669, 31.438162160729757 ], [ 74.288716725103839, 31.438236532718946 ], [ 74.288753410102075, 31.438307327968051 ], [ 74.288948291437748, 31.43824594239328 ], [ 74.288902141674669, 31.438162160729757 ] ] ] } },
{ "type": "Feature", "properties": { "OBJECTID": 2589, "SHAPE_Leng": 287.20995074400003, "SHAPE_Area": 5129.3629758400002, "Town": "Allama Iqbal Town", "UC_N0": "UC_120", "Landuse": "R", "Name": null, "Plot_No": null, "Category": null, "__source_file": "Awaisa_Housing_Scheme.shp" }, "geometry": { "type": "Polygon", "coordinates": [ [ [ 74.288868481864483, 31.438101053598182 ], [ 74.288685686241635, 31.438176633376205 ], [ 74.288716725103839, 31.438236532718946 ], [ 74.288902141674669, 31.438162160729757 ], [ 74.288868481864483, 31.438101053598182 ] ] ] } },
{ "type": "Feature", "properties": { "OBJECTID": 2589, "SHAPE_Leng": 287.20995074400003, "SHAPE_Area": 5129.3629758400002, "Town": "Allama Iqbal Town", "UC_N0": "UC_120", "Landuse": "R", "Name": null, "Plot_No": null, "Category": null, "__source_file": "Awaisa_Housing_Scheme.shp" }, "geometry": { "type": "Polygon", "coordinates": [ [ [ 74.288868481864483, 31.438101053598182 ], [ 74.288816573684656, 31.438012265281547 ], [ 74.288636469250036, 31.438081653390221 ], [ 74.288685686241635, 31.438176633376205 ], [ 74.288868481864483, 31.438101053598182 ] ] ] } },
{ "type": "Feature", "properties": { "OBJECTID": 2589, "SHAPE_Leng": 287.20995074400003, "SHAPE_Area": 5129.3629758400002, "Town": "Allama Iqbal Town", "UC_N0": "UC_120", "Landuse": "R", "Name": null, "Plot_No": null, "Category": null, "__source_file": "Awaisa_Housing_Scheme.shp" }, "geometry": { "type": "Polygon", "coordinates": [ [ [ 74.288816573684656, 31.438012265281547 ], [ 74.288767863839681, 31.437928947508968 ], [ 74.288586623757666, 31.437985460298822 ], [ 74.288636469250036, 31.438081653390221 ], [ 74.288816573684656, 31.438012265281547 ] ] ] } },
{ "type": "Feature", "properties": { "OBJECTID": 2589, "SHAPE_Leng": 287.20995074400003, "SHAPE_Area": 5129.3629758400002, "Town": "Allama Iqbal Town", "UC_N0": "UC_120", "Landuse": "R", "Name": null, "Plot_No": "78", "Category": null, "__source_file": "Awaisa_Housing_Scheme.shp" }, "geometry": { "type": "Polygon", "coordinates": [ [ [ 74.288696839570122, 31.43780746081071 ], [ 74.288641204867645, 31.437712297655526 ], [ 74.288477374577724, 31.437774627725283 ], [ 74.288524504044233, 31.437865579807564 ], [ 74.288696839570122, 31.43780746081071 ] ] ] } },
{ "type": "Feature", "properties": { "OBJECTID": 2589, "SHAPE_Leng": 287.20995074400003, "SHAPE_Area": 5129.3629758400002, "Town": "Allama Iqbal Town", "UC_N0": "UC_120", "Landuse": "R", "Name": null, "Plot_No": null, "Category": null, "__source_file": "Awaisa_Housing_Scheme.shp" }, "geometry": { "type": "Polygon", "coordinates": [ [ [ 74.288767863839681, 31.437928947508968 ], [ 74.288696839570122, 31.43780746081071 ], [ 74.288524504044233, 31.437865579807564 ], [ 74.288586623757666, 31.437985460298822 ], [ 74.288767863839681, 31.437928947508968 ] ] ] } },
{ "type": "Feature", "properties": { "OBJECTID": 2591, "SHAPE_Leng": 233.66218501099999, "SHAPE_Area": 3425.90396276, "Town": "Allama Iqbal Town", "UC_N0": "UC_120", "Landuse": "O.P", "Name": "Park", "Plot_No": "158", "Category": null, "__source_file": "Awaisa_Housing_Scheme.shp" }, "geometry": { "type": "Polygon", "coordinates": [ [ [ 74.289697777551169, 31.437184398966089 ], [ 74.289267038864907, 31.437396894258093 ], [ 74.289297231022587, 31.437462706299772 ], [ 74.289567125395649, 31.438051014512375 ], [ 74.289684257164467, 31.438014117172912 ], [ 74.289690104914015, 31.43770807010571 ], [ 74.289693997511804, 31.437682547432846 ], [ 74.289697595116991, 31.437656453724138 ], [ 74.289709465951134, 31.437305866029057 ], [ 74.289703710597081, 31.437235693284592 ], [ 74.289697777551169, 31.437184398966089 ] ] ] } },
{ "type": "Feature", "properties": { "OBJECTID": 65096, "SHAPE_Leng": 59.7448079666, "SHAPE_Area": 191.103184027, "Town": "Allama Iqbal Town", "UC_N0": "UC_120", "Landuse": "R", "Name": null, "Plot_No": "01", "Category": null, "__source_file": "Awaisa_Housing_Scheme.shp" }, "geometry": { "type": "Polygon", "coordinates": [ [ [ 74.291025665288529, 31.436552133125737 ], [ 74.290975037160322, 31.436550340806988 ], [ 74.290873872166955, 31.436546760071156 ], [ 74.290681874640526, 31.436546102960914 ], [ 74.290786938760448, 31.436713820895605 ], [ 74.290977819080041, 31.436717007132998 ], [ 74.291046105350574, 31.436717388320929 ], [ 74.291074564058718, 31.436717547998228 ], [ 74.291074560950776, 31.436717704923986 ], [ 74.291113481342435, 31.436718136693628 ], [ 74.291054674437248, 31.436606972100737 ], [ 74.291025665288529, 31.436552133125737 ] ] ] } },
{ "type": "Feature", "properties": { "OBJECTID": 0, "SHAPE_Leng": 0.0, "SHAPE_Area": 0.0, "Town": null, "UC_N0": null, "Landuse": "R", "Name": null, "Plot_No": null, "Category": null, "__source_file": "Awaisa_Housing_Scheme.shp" }, "geometry": { "type": "Polygon", "coordinates": [ [ [ 74.290227822636396, 31.436457165543949 ], [ 74.290265168986608, 31.436521569540783 ], [ 74.290491835707897, 31.436530611944629 ], [ 74.290583467004751, 31.436534708116245 ], [ 74.290517475843458, 31.436413509534027 ], [ 74.290434933231793, 31.436392793469604 ], [ 74.290227822636396, 31.436457165543949 ] ] ] } },
{ "type": "Feature", "properties": { "OBJECTID": 65096, "SHAPE_Leng": 59.7448079666, "SHAPE_Area": 191.103184027, "Town": "Allama Iqbal Town", "UC_N0": "UC_120", "Landuse": "R", "Name": null, "Plot_No": null, "Category": null, "__source_file": "Awaisa_Housing_Scheme.shp" }, "geometry": { "type": "Polygon", "coordinates": [ [ [ 74.290265168986608, 31.436521569540783 ], [ 74.290227822636396, 31.436457165543949 ], [ 74.290048426438531, 31.436512922266868 ], [ 74.290043524691299, 31.436709768327777 ], [ 74.290361626544723, 31.436712999237336 ], [ 74.290265168986608, 31.436521569540783 ] ] ] } },
{ "type": "Feature", "properties": { "OBJECTID": 1126, "SHAPE_Leng": 117.585182295, "SHAPE_Area": 807.00230259199998, "Town": "Allama Iqbal Town", "UC_N0": "UC_120", "Landuse": "H", "Name": "Colgate Clinic", "Plot_No": null, "Category": null, "__source_file": "Awaisa_Housing_Scheme.shp" }, "geometry": { "type": "Polygon", "coordinates": [ [ [ 74.28864575717553, 31.436521019555087 ], [ 74.288488317358613, 31.436220386513963 ], [ 74.288286062000594, 31.436298307870004 ], [ 74.288438384525065, 31.4365990113569 ], [ 74.28864575717553, 31.436521019555087 ] ] ] } },
{ "type": "Feature", "properties": { "OBJECTID": 1155, "SHAPE_Leng": 95.119071242499999, "SHAPE_Area": 544.18579942199995, "Town": "Allama Iqbal Town", "UC_N0": "UC_120", "Landuse": "R", "Name": null, "Plot_No": null, "Category": null, "__source_file": "Awaisa_Housing_Scheme.shp" }, "geometry": { "type": "Polygon", "coordinates": [ [ [ 74.289129507571189, 31.439211921204461 ], [ 74.289069668913044, 31.439098181117807 ], [ 74.288801973264128, 31.439193345729969 ], [ 74.288864093008073, 31.439311538421059 ], [ 74.289129507571189, 31.439211921204461 ] ] ] } },
{ "type": "Feature", "properties": { "OBJECTID": 1156, "SHAPE_Leng": 93.875996731699999, "SHAPE_Area": 522.878094508, "Town": "Allama Iqbal Town", "UC_N0": "UC_120", "Landuse": "R", "Name": null, "Plot_No": null, "Category": null, "__source_file": "Awaisa_Housing_Scheme.shp" }, "geometry": { "type": "Polygon", "coordinates": [ [ [ 74.288864093009309, 31.439311538423432 ], [ 74.288801973264128, 31.439193345729969 ], [ 74.288519914408781, 31.439293614082086 ], [ 74.288583074663677, 31.439417010807475 ], [ 74.288864093009309, 31.439311538423432 ] ] ] } },
{ "type": "Feature", "properties": { "OBJECTID": 11013, "SHAPE_Leng": 195.58708102, "SHAPE_Area": 2147.7180692799998, "Town": "Allama Iqbal Town", "UC_N0": "UC_120", "Landuse": "R", "Name": null, "Plot_No": "107", "Category": null, "__source_file": "Awaisa_Housing_Scheme.shp" }, "geometry": { "type": "Polygon", "coordinates": [ [ [ 74.288876779914304, 31.437211725927302 ], [ 74.289020109655283, 31.437488047323278 ], [ 74.289190494422769, 31.437425149649545 ], [ 74.289047854840192, 31.437146016871065 ], [ 74.288876779914304, 31.437211725927302 ] ] ] } },
{ "type": "Feature", "properties": { "OBJECTID": 11013, "SHAPE_Leng": 195.58708102, "SHAPE_Area": 2147.7180692799998, "Town": "Allama Iqbal Town", "UC_N0": "UC_120", "Landuse": "R", "Name": null, "Plot_No": null, "Category": null, "__source_file": "Awaisa_Housing_Scheme.shp" }, "geometry": { "type": "Polygon", "coordinates": [ [ [ 74.288734524225703, 31.437266365605321 ], [ 74.288867008634526, 31.437544564420858 ], [ 74.289020109655283, 31.437488047323278 ], [ 74.288876779914304, 31.437211725927302 ], [ 74.288734524225703, 31.437266365605321 ] ] ] } },
{ "type": "Feature", "properties": { "OBJECTID": 11013, "SHAPE_Leng": 195.58708102, "SHAPE_Area": 2147.7180692799998, "Town": "Allama Iqbal Town", "UC_N0": "UC_120", "Landuse": "R", "Name": null, "Plot_No": null, "Category": null, "__source_file": "Awaisa_Housing_Scheme.shp" }, "geometry": { "type": "Polygon", "coordinates": [ [ [ 74.288584132676505, 31.437324130379881 ], [ 74.288734219684699, 31.437593583131779 ], [ 74.288867008634526, 31.437544564420858 ], [ 74.288734524225703, 31.437266365605321 ], [ 74.288584132676505, 31.437324130379881 ] ] ] } },
{ "type": "Feature", "properties": { "OBJECTID": 2021, "SHAPE_Leng": 107.845770442, "SHAPE_Area": 608.14515404899998, "Town": "Allama Iqbal Town", "UC_N0": "UC_120", "Landuse": "R", "Name": null, "Plot_No": "60", "Category": null, "__source_file": "Awaisa_Housing_Scheme.shp" }, "geometry": { "type": "Polygon", "coordinates": [ [ [ 74.289679466113455, 31.438264862615316 ], [ 74.289507688604559, 31.438317343050063 ], [ 74.289511709654633, 31.438326449351525 ], [ 74.289576762763801, 31.438473770588434 ], [ 74.289676151359103, 31.438438361533795 ], [ 74.289679466113455, 31.438264862615316 ] ] ] } }
]
}
