{
"type": "FeatureCollection",
"name": "bahria_town",
"crs": { "type": "name", "properties": { "name": "urn:ogc:def:crs:OGC:1.3:CRS84" } },
"features": [
{ "type": "Feature", "properties": { "bbox_west": 74.1480924, "bbox_south": 31.3471501, "bbox_east": 74.2028703, "bbox_north": 31.3996014, "place_id": 225429764, "osm_type": "way", "osm_id": 643411217, "lat": 31.3813592, "lon": 74.1863471, "class": "place", "type": "suburb", "place_rank": 19, "importance": 0.14671666819256882, "addresstype": "suburb", "name": "Bahria Town", "display_name": "Bahria Town, Bhatti Wal, Raiwind Tehsil, Lahore District, Lahore Division, Punjab, 53720, Pakistan" }, "geometry": { "type": "Polygon", "coordinates": [ [ [ 74.1480924, 31.3850173 ], [ 74.148583, 31.3841723 ], [ 74.1488502, 31.38366 ], [ 74.1489653, 31.3831923 ], [ 74.1490009, 31.3827924 ], [ 74.149739, 31.3827905 ], [ 74.150716, 31.3828127 ], [ 74.1508202, 31.3832687 ], [ 74.1511329, 31.3832576 ], [ 74.1511068, 31.3837914 ], [ 74.1524486, 31.383758 ], [ 74.1524095, 31.3832687 ], [ 74.1533214, 31.3832576 ], [ 74.153647, 31.3830129 ], [ 74.1535689, 31.3816227 ], [ 74.1530999, 31.3815671 ], [ 74.1530608, 31.3808331 ], [ 74.1534386, 31.3807998 ], [ 74.1534455, 31.379785 ], [ 74.1534516, 31.3788757 ], [ 74.1550018, 31.3788869 ], [ 74.1550279, 31.380733 ], [ 74.156539, 31.3807219 ], [ 74.1565781, 31.379721 ], [ 74.1573206, 31.3796876 ], [ 74.1573076, 31.3783975 ], [ 74.1579589, 31.3783308 ], [ 74.1579199, 31.3749052 ], [ 74.1592356, 31.3748496 ], [ 74.1593152, 31.3735257 ], [ 74.1615941, 31.3734938 ], [ 74.1621265, 31.3732227 ], [ 74.1602772, 31.3715082 ], [ 74.1575731, 31.368845 ], [ 74.1584529, 31.3682587 ], [ 74.1583885, 31.3655288 ], [ 74.1602983, 31.3654189 ], [ 74.1603412, 31.3649242 ], [ 74.1610922, 31.3648509 ], [ 74.1610493, 31.3609116 ], [ 74.16474, 31.3604718 ], [ 74.1647829, 31.3596839 ], [ 74.1668429, 31.359519 ], [ 74.1669287, 31.3590426 ], [ 74.1685681, 31.3589386 ], [ 74.1685693, 31.3585858 ], [ 74.1688991, 31.3585803 ], [ 74.1688621, 31.3578096 ], [ 74.1683011, 31.3577124 ], [ 74.1682279, 31.3576549 ], [ 74.1680978, 31.3575527 ], [ 74.168049, 31.3574173 ], [ 74.1681089, 31.3567888 ], [ 74.1687311, 31.3567155 ], [ 74.1686668, 31.3554695 ], [ 74.1694392, 31.3552863 ], [ 74.1693749, 31.3538753 ], [ 74.1663922, 31.3538753 ], [ 74.1663922, 31.3516947 ], [ 74.1671218, 31.3513282 ], [ 74.1683664, 31.3512549 ], [ 74.1666283, 31.3501371 ], [ 74.1669072, 31.3494958 ], [ 74.1706409, 31.3471501 ], [ 74.171349, 31.3471684 ], [ 74.1762842, 31.3474067 ], [ 74.1761555, 31.3497523 ], [ 74.1773357, 31.3514748 ], [ 74.1795243, 31.3535089 ], [ 74.1898884, 31.3533623 ], [ 74.1908111, 31.353289 ], [ 74.1907252, 31.3551947 ], [ 74.189073, 31.355213 ], [ 74.1876783, 31.3558727 ], [ 74.1875924, 31.3614246 ], [ 74.1897382, 31.3615712 ], [ 74.189824, 31.3606367 ], [ 74.1905965, 31.3596473 ], [ 74.1920342, 31.3592259 ], [ 74.1937508, 31.3594641 ], [ 74.1952642, 31.3598275 ], [ 74.1960008, 31.3600283 ], [ 74.195973, 31.3602171 ], [ 74.195954, 31.3619096 ], [ 74.1959847, 31.3648956 ], [ 74.1959967, 31.3661321 ], [ 74.1971304, 31.3661243 ], [ 74.196948, 31.3684236 ], [ 74.1950812, 31.3684786 ], [ 74.1949739, 31.3673793 ], [ 74.1945233, 31.3670312 ], [ 74.1934075, 31.3669396 ], [ 74.1934718, 31.3674343 ], [ 74.1928281, 31.3675625 ], [ 74.1927208, 31.3685152 ], [ 74.1922487, 31.3685702 ], [ 74.1922487, 31.3693763 ], [ 74.1932573, 31.370439 ], [ 74.1939868, 31.370897 ], [ 74.1957463, 31.3715932 ], [ 74.1979565, 31.3721978 ], [ 74.1987933, 31.3721611 ], [ 74.1989006, 31.3701458 ], [ 74.2019476, 31.3702741 ], [ 74.2019047, 31.3740298 ], [ 74.2028274, 31.3750008 ], [ 74.2028703, 31.3758069 ], [ 74.2026343, 31.3765763 ], [ 74.200231, 31.3831345 ], [ 74.1990294, 31.3831162 ], [ 74.198965, 31.3837024 ], [ 74.1997375, 31.3837391 ], [ 74.19948, 31.3846916 ], [ 74.2000379, 31.3861937 ], [ 74.200467, 31.3860838 ], [ 74.2007245, 31.3865234 ], [ 74.2004241, 31.3868348 ], [ 74.2015399, 31.3876957 ], [ 74.2010678, 31.3887215 ], [ 74.2002954, 31.3893809 ], [ 74.2008104, 31.3898938 ], [ 74.2007674, 31.3911943 ], [ 74.1994371, 31.3912493 ], [ 74.1993298, 31.3916889 ], [ 74.1957034, 31.3920186 ], [ 74.1956176, 31.3939602 ], [ 74.1936006, 31.3940151 ], [ 74.1933431, 31.394473 ], [ 74.1899742, 31.3943265 ], [ 74.1896309, 31.3930993 ], [ 74.1877855, 31.393026 ], [ 74.1876783, 31.3921285 ], [ 74.1871247, 31.3920615 ], [ 74.1870671, 31.3913794 ], [ 74.1857739, 31.3913482 ], [ 74.1857771, 31.3908683 ], [ 74.1846421, 31.3908506 ], [ 74.1845836, 31.3923577 ], [ 74.1808663, 31.3922463 ], [ 74.1807753, 31.3942312 ], [ 74.1828932, 31.3941433 ], [ 74.1827859, 31.3958101 ], [ 74.1802754, 31.3958834 ], [ 74.1804041, 31.3990886 ], [ 74.1717352, 31.3994549 ], [ 74.1650404, 31.3996014 ], [ 74.1648902, 31.397953 ], [ 74.1642894, 31.397953 ], [ 74.1641821, 31.3965427 ], [ 74.1656412, 31.396268 ], [ 74.1656198, 31.3954071 ], [ 74.1626372, 31.3954071 ], [ 74.1615643, 31.3958834 ], [ 74.1615214, 31.3967808 ], [ 74.1608133, 31.3967076 ], [ 74.1610064, 31.3994732 ], [ 74.1561569, 31.398704 ], [ 74.1554918, 31.3974402 ], [ 74.1543116, 31.396268 ], [ 74.1517581, 31.3927696 ], [ 74.1523375, 31.3926414 ], [ 74.1523375, 31.3923081 ], [ 74.1523375, 31.3889047 ], [ 74.1563715, 31.3888131 ], [ 74.1563071, 31.3884468 ], [ 74.1556205, 31.3884284 ], [ 74.1555132, 31.3875126 ], [ 74.1552343, 31.3875675 ], [ 74.1549151, 31.3878268 ], [ 74.1536921, 31.3878451 ], [ 74.1536921, 31.3880649 ], [ 74.1531342, 31.3880649 ], [ 74.1531342, 31.3884679 ], [ 74.1522973, 31.3883763 ], [ 74.1523188, 31.3868377 ], [ 74.1508596, 31.3867461 ], [ 74.1508596, 31.385995 ], [ 74.1495293, 31.3860317 ], [ 74.1495293, 31.3850975 ], [ 74.1480924, 31.3850173 ] ] ] } }
]
}
