{
"type": "FeatureCollection",
"name": "dha_phase2",
"crs": { "type": "name", "properties": { "name": "urn:ogc:def:crs:OGC:1.3:CRS84" } },
"features": [
{ "type": "Feature", "properties": { "bbox_west": 74.3891358, "bbox_south": 31.4683545, "bbox_east": 74.4132724, "bbox_north": 31.4850912, "place_id": 226143917, "osm_type": "way", "osm_id": 628077008, "lat": 31.476647, "lon": 74.4052017, "class": "landuse", "type": "residential", "place_rank": 22, "importance": 0.10673702830548559, "addresstype": "residential", "name": "DHA Phase 2", "display_name": "DHA Phase 2, Rehman Villas, Chung Khurad, Lahore Cantonment Tehsil, Lahore District, Lahore Division, Punjab, 54792, Pakistan" }, "geometry": { "type": "Polygon", "coordinates": [ [ [ 74.3891358, 31.470227 ], [ 74.3905382, 31.4699012 ], [ 74.3924966, 31.4694714 ], [ 74.3933684, 31.4683545 ], [ 74.3968873, 31.4694748 ], [ 74.4014224, 31.4702223 ], [ 74.4057606, 31.470667 ], [ 74.4072585, 31.4713151 ], [ 74.4108948, 31.473772 ], [ 74.4118541, 31.4755479 ], [ 74.4132724, 31.4783028 ], [ 74.4132167, 31.4783523 ], [ 74.4127141, 31.4787607 ], [ 74.4125814, 31.4788872 ], [ 74.4123405, 31.4796574 ], [ 74.4118909, 31.4803246 ], [ 74.4124363, 31.4813924 ], [ 74.4116252, 31.4828939 ], [ 74.4107759, 31.4834468 ], [ 74.4102017, 31.4837386 ], [ 74.4090855, 31.4850912 ], [ 74.4064328, 31.4830668 ], [ 74.4009383, 31.4788984 ], [ 74.399426, 31.4777462 ], [ 74.3944643, 31.4739658 ], [ 74.3940893, 31.4736697 ], [ 74.3892854, 31.4702797 ], [ 74.3891358, 31.470227 ] ] ] } }
]
}
