{
"type": "FeatureCollection",
"name": "dha_phase7",
"crs": { "type": "name", "properties": { "name": "urn:ogc:def:crs:OGC:1.3:CRS84" } },
"features": [
{ "type": "Feature", "properties": { "bbox_west": 74.4642043, "bbox_south": 31.4364659, "bbox_east": 74.5061068, "bbox_north": 31.4918885, "place_id": 226114849, "osm_type": "way", "osm_id": 628500912, "lat": 31.4634638, "lon": 74.4900654, "class": "landuse", "type": "residential", "place_rank": 22, "importance": 0.10671666819256884, "addresstype": "residential", "name": "DHA Phase 7", "display_name": "DHA Phase 7, Dhira, Lahore Cantonment Tehsil, Lahore District, Lahore Division, Punjab, Pakistan" }, "geometry": { "type": "Polygon", "coordinates": [ [ [ 74.4642043, 31.458605 ], [ 74.475569, 31.4602037 ], [ 74.4755133, 31.4595875 ], [ 74.477039, 31.4584841 ], [ 74.4774717, 31.4579402 ], [ 74.4778358, 31.4574792 ], [ 74.478072, 31.4571349 ], [ 74.47839, 31.456698 ], [ 74.4784509, 31.4566143 ], [ 74.4785386, 31.4564938 ], [ 74.4790247, 31.4559467 ], [ 74.480783, 31.4553188 ], [ 74.4819956, 31.4543631 ], [ 74.4837198, 31.4525935 ], [ 74.4836442, 31.4520653 ], [ 74.4834837, 31.447522 ], [ 74.4833491, 31.4459461 ], [ 74.4715813, 31.4415274 ], [ 74.4683106, 31.4402992 ], [ 74.4714413, 31.4364659 ], [ 74.4862238, 31.4418563 ], [ 74.4915718, 31.4432537 ], [ 74.502275, 31.4449053 ], [ 74.503869, 31.4451484 ], [ 74.504852, 31.4674345 ], [ 74.5061068, 31.4749359 ], [ 74.505778, 31.4810778 ], [ 74.5047818, 31.4818901 ], [ 74.5040224, 31.4824455 ], [ 74.5008177, 31.4849077 ], [ 74.499997, 31.4826204 ], [ 74.4983787, 31.4826656 ], [ 74.4976726, 31.4827136 ], [ 74.4922262, 31.4843658 ], [ 74.4906212, 31.4871578 ], [ 74.4915409, 31.4898896 ], [ 74.4915597, 31.4918885 ], [ 74.4875633, 31.4909906 ], [ 74.4874215, 31.491006 ], [ 74.4787092, 31.4905117 ], [ 74.4782455, 31.4899632 ], [ 74.4794761, 31.4873644 ], [ 74.4793548, 31.486745 ], [ 74.4782038, 31.4861575 ], [ 74.4756208, 31.4862748 ], [ 74.4696777, 31.4867479 ], [ 74.4692276, 31.4820276 ], [ 74.4692145, 31.4818677 ], [ 74.4694609, 31.4818481 ], [ 74.4751949, 31.4814543 ], [ 74.4751288, 31.4805416 ], [ 74.4779512, 31.477386 ], [ 74.477674, 31.4769714 ], [ 74.4774696, 31.4754084 ], [ 74.476211, 31.4741108 ], [ 74.476094, 31.4728721 ], [ 74.476038, 31.4724271 ], [ 74.4753959, 31.4673215 ], [ 74.475116, 31.4654666 ], [ 74.4755204, 31.4649441 ], [ 74.4753497, 31.4611409 ], [ 74.4654273, 31.4619834 ], [ 74.4642043, 31.458605 ] ] ] } }
]
}
