{
"type": "FeatureCollection",
"name": "dha_phase1",
"crs": { "type": "name", "properties": { "name": "urn:ogc:def:crs:OGC:1.3:CRS84" } },
"features": [
{ "type": "Feature", "properties": { "bbox_west": 74.3793232, "bbox_south": 31.4701705, "bbox_east": 74.409191, "bbox_north": 31.4905051, "place_id": 226107775, "osm_type": "way", "osm_id": 628075065, "lat": 31.4800151, "lon": 74.3938664, "class": "landuse", "type": "residential", "place_rank": 22, "importance": 0.10673702830548559, "addresstype": "residential", "name": "DHA Phase 1", "display_name": "DHA Phase 1, Iqbal Park, Charr, Lahore Cantonment Tehsil, Lahore District, Lahore Division, Punjab, 54791, Pakistan" }, "geometry": { "type": "Polygon", "coordinates": [ [ [ 74.3793232, 31.4846431 ], [ 74.3817781, 31.4834215 ], [ 74.3826771, 31.4816511 ], [ 74.3827524, 31.4815027 ], [ 74.3830363, 31.4807964 ], [ 74.3830568, 31.4807036 ], [ 74.3838938, 31.4815255 ], [ 74.3845121, 31.4810845 ], [ 74.3860293, 31.4793266 ], [ 74.3874251, 31.4779311 ], [ 74.3884033, 31.4776463 ], [ 74.3908514, 31.4775707 ], [ 74.3917657, 31.4762008 ], [ 74.3929177, 31.4745654 ], [ 74.3918582, 31.473005 ], [ 74.3888326, 31.4718067 ], [ 74.3887895, 31.4706715 ], [ 74.3887817, 31.4701705 ], [ 74.3906175, 31.4711803 ], [ 74.3926758, 31.4727131 ], [ 74.393512, 31.4733292 ], [ 74.3939804, 31.4736959 ], [ 74.3953895, 31.4747635 ], [ 74.3961524, 31.475342 ], [ 74.398949, 31.4774678 ], [ 74.4009479, 31.4789856 ], [ 74.4010079, 31.4790228 ], [ 74.4043174, 31.481569 ], [ 74.4046449, 31.4818239 ], [ 74.4060203, 31.4828942 ], [ 74.4078893, 31.4843126 ], [ 74.4079654, 31.4843702 ], [ 74.4088412, 31.4850374 ], [ 74.409019, 31.4851678 ], [ 74.409191, 31.485298 ], [ 74.4084715, 31.4862853 ], [ 74.4083985, 31.4863911 ], [ 74.4079606, 31.4870106 ], [ 74.4078219, 31.4870735 ], [ 74.40752, 31.4876985 ], [ 74.4073896, 31.4879479 ], [ 74.4056433, 31.4874063 ], [ 74.4046735, 31.4885871 ], [ 74.403105, 31.4893707 ], [ 74.4006231, 31.4897209 ], [ 74.4004767, 31.4898065 ], [ 74.4003596, 31.489861 ], [ 74.4001575, 31.4896341 ], [ 74.3998915, 31.4897521 ], [ 74.4001362, 31.4901694 ], [ 74.3989445, 31.4905051 ], [ 74.3986785, 31.4899971 ], [ 74.3975415, 31.4898243 ], [ 74.3968455, 31.4899812 ], [ 74.3967633, 31.4900061 ], [ 74.3965931, 31.4896251 ], [ 74.396105, 31.4889611 ], [ 74.3928885, 31.4891046 ], [ 74.3924832, 31.4885098 ], [ 74.3923072, 31.4862341 ], [ 74.3934552, 31.4858188 ], [ 74.3931719, 31.484945 ], [ 74.3930001, 31.4850053 ], [ 74.3910826, 31.485548 ], [ 74.3909871, 31.4862645 ], [ 74.3908675, 31.4873026 ], [ 74.3906358, 31.4876905 ], [ 74.3899889, 31.4884436 ], [ 74.388888, 31.4893333 ], [ 74.3887829, 31.4894046 ], [ 74.3885308, 31.4894645 ], [ 74.3867137, 31.4893334 ], [ 74.3822587, 31.4890299 ], [ 74.3821986, 31.4881297 ], [ 74.3814331, 31.4873922 ], [ 74.3817587, 31.4876994 ], [ 74.3793232, 31.4846431 ] ] ] } }
]
}
