{
"type": "FeatureCollection",
"name": "dha_phase8",
"crs": { "type": "name", "properties": { "name": "urn:ogc:def:crs:OGC:1.3:CRS84" } },
"features": [
{ "type": "Feature", "properties": { "bbox_west": 74.4250992, "bbox_south": 31.4691148, "bbox_east": 74.4735243, "bbox_north": 31.512697, "place_id": 227406856, "osm_type": "way", "osm_id": 628502289, "lat": 31.4904661, "lon": 74.4485044, "class": "place", "type": "neighbourhood", "place_rank": 20, "importance": 0.13340369497215226, "addresstype": "neighbourhood", "name": "DHA Phase 8", "display_name": "DHA Phase 8, Jindra Kalan, Lahore Cantonment Tehsil, Lahore District, Lahore Division, Punjab, Pakistan" }, "geometry": { "type": "Polygon", "coordinates": [ [ [ 74.4250992, 31.476519 ], [ 74.4273116, 31.4749011 ], [ 74.4282579, 31.4747461 ], [ 74.4284419, 31.4751094 ], [ 74.4285313, 31.4753459 ], [ 74.4286462, 31.4755762 ], [ 74.4287962, 31.4760423 ], [ 74.4294817, 31.4760017 ], [ 74.4300102, 31.4756744 ], [ 74.4298305, 31.4752415 ], [ 74.430004, 31.4747415 ], [ 74.4356999, 31.4691148 ], [ 74.4377487, 31.4701555 ], [ 74.4455585, 31.4760647 ], [ 74.4458382, 31.476297 ], [ 74.4463677, 31.4766522 ], [ 74.4466177, 31.4768015 ], [ 74.4468779, 31.4769629 ], [ 74.4473899, 31.4772866 ], [ 74.4474549, 31.4773348 ], [ 74.4493802, 31.4787333 ], [ 74.450476, 31.4795556 ], [ 74.4580777, 31.4852181 ], [ 74.4588266, 31.4857836 ], [ 74.4609894, 31.4874124 ], [ 74.4669058, 31.4917506 ], [ 74.4714689, 31.5007923 ], [ 74.4735243, 31.5056022 ], [ 74.4681557, 31.5055776 ], [ 74.4675905, 31.5055807 ], [ 74.466346, 31.5076846 ], [ 74.4686002, 31.5093821 ], [ 74.4683182, 31.5095964 ], [ 74.4669161, 31.5106616 ], [ 74.4663639, 31.5110811 ], [ 74.4642762, 31.5126671 ], [ 74.4626767, 31.512697 ], [ 74.4615395, 31.5102457 ], [ 74.4615609, 31.4965062 ], [ 74.455243, 31.4947154 ], [ 74.4537503, 31.4942923 ], [ 74.4431931, 31.4962317 ], [ 74.4400022, 31.498801 ], [ 74.4359365, 31.5004126 ], [ 74.4336773, 31.496742 ], [ 74.4336033, 31.4964012 ], [ 74.4334675, 31.4959926 ], [ 74.4332469, 31.495676 ], [ 74.4329154, 31.4952002 ], [ 74.4326454, 31.4948274 ], [ 74.4323902, 31.4946775 ], [ 74.4319763, 31.4938894 ], [ 74.4309951, 31.4931325 ], [ 74.4322689, 31.4891816 ], [ 74.432662, 31.4881612 ], [ 74.4299964, 31.4882402 ], [ 74.4293202, 31.4869395 ], [ 74.4287194, 31.4832212 ], [ 74.4309166, 31.4823384 ], [ 74.4314628, 31.4807858 ], [ 74.4298128, 31.4812278 ], [ 74.4282326, 31.4795499 ], [ 74.426425, 31.4776441 ], [ 74.4250992, 31.476519 ] ] ] } }
]
}
