{
"type": "FeatureCollection",
"name": "dha_phase3",
"crs": { "type": "name", "properties": { "name": "urn:ogc:def:crs:OGC:1.3:CRS84" } },
"features": [
{ "type": "Feature", "properties": { "bbox_west": 74.355993, "bbox_south": 31.4634063, "bbox_east": 74.3885362, "bbox_north": 31.4845914, "place_id": 226309750, "osm_type": "way", "osm_id": 1267596208, "lat": 31.4739986, "lon": 74.3773856, "class": "landuse", "type": "residential", "place_rank": 22, "importance": 0.10673702830548559, "addresstype": "residential", "name": "DHA Phase 3", "display_name": "DHA Phase 3, Eden Cottages, Charr, Lahore Cantonment Tehsil, Lahore District, Lahore Division, Punjab, Pakistan" }, "geometry": { "type": "Polygon", "coordinates": [ [ [ 74.355993, 31.4753859 ], [ 74.3567018, 31.4749014 ], [ 74.3562834, 31.4740779 ], [ 74.3563156, 31.4730347 ], [ 74.3574887, 31.4716192 ], [ 74.357762, 31.4705419 ], [ 74.3577134, 31.4693831 ], [ 74.3578706, 31.4688997 ], [ 74.3585417, 31.4688175 ], [ 74.3587173, 31.4680074 ], [ 74.3595059, 31.4674456 ], [ 74.3606608, 31.4670776 ], [ 74.3604033, 31.4659795 ], [ 74.3612623, 31.4655703 ], [ 74.3621635, 31.4648268 ], [ 74.3629782, 31.4646068 ], [ 74.3628742, 31.4641169 ], [ 74.3635586, 31.4639573 ], [ 74.3640725, 31.463893 ], [ 74.3646755, 31.4639357 ], [ 74.364803, 31.463544 ], [ 74.3663204, 31.4634743 ], [ 74.367312, 31.4634063 ], [ 74.3878583, 31.4702013 ], [ 74.3885362, 31.4703869 ], [ 74.3881906, 31.472001 ], [ 74.3868492, 31.4724929 ], [ 74.38654, 31.4737075 ], [ 74.385959, 31.474856 ], [ 74.3851901, 31.4746862 ], [ 74.3835129, 31.4750024 ], [ 74.3838991, 31.475954 ], [ 74.3850578, 31.4770154 ], [ 74.387485, 31.4776945 ], [ 74.3856194, 31.4794188 ], [ 74.3844141, 31.47998 ], [ 74.383938, 31.4812106 ], [ 74.3833412, 31.4805656 ], [ 74.3830363, 31.4807964 ], [ 74.3826771, 31.4816511 ], [ 74.3816858, 31.483485 ], [ 74.3791784, 31.4845914 ], [ 74.3781055, 31.4827981 ], [ 74.3774189, 31.4821027 ], [ 74.375831, 31.4800532 ], [ 74.3744148, 31.4807486 ], [ 74.3726552, 31.4803027 ], [ 74.3720445, 31.4797356 ], [ 74.3712823, 31.4797876 ], [ 74.3705162, 31.4796782 ], [ 74.3680959, 31.4786896 ], [ 74.3683401, 31.4755876 ], [ 74.3684177, 31.4747093 ], [ 74.3682587, 31.4718287 ], [ 74.3676798, 31.4716539 ], [ 74.3635238, 31.4717141 ], [ 74.3597921, 31.4717042 ], [ 74.3582468, 31.471706 ], [ 74.3580366, 31.4719099 ], [ 74.3580211, 31.4725445 ], [ 74.357446, 31.4725799 ], [ 74.357429, 31.4729811 ], [ 74.3573125, 31.4733963 ], [ 74.3573851, 31.4739193 ], [ 74.3575411, 31.474953 ], [ 74.3575191, 31.4764959 ], [ 74.3574973, 31.4769612 ], [ 74.3571138, 31.4767171 ], [ 74.3565588, 31.476124 ], [ 74.355993, 31.4753859 ] ] ] } }
]
}
