{
"type": "FeatureCollection",
"name": "gulberg_i_lahore",
"crs": { "type": "name", "properties": { "name": "urn:ogc:def:crs:OGC:1.3:CRS84" } },
"features": [
{ "type": "Feature", "properties": { "bbox_west": 74.3413113, "bbox_south": 31.5075115, "bbox_east": 74.3519419, "bbox_north": 31.5189508, "place_id": 226292426, "osm_type": "way", "osm_id": 626975669, "lat": 31.5132848, "lon": 74.3467734, "class": "place", "type": "neighbourhood", "place_rank": 20, "importance": 0.13340369497215226, "addresstype": "neighbourhood", "name": "Gulberg", "display_name": "Gulberg, Lahore Cantonment Tehsil, Lahore District, Lahore Division, Punjab, Pakistan" }, "geometry": { "type": "Polygon", "coordinates": [ [ [ 74.3413113, 31.5105411 ], [ 74.3419953, 31.5102541 ], [ 74.3472622, 31.5080717 ], [ 74.3486258, 31.5076008 ], [ 74.3495461, 31.5075115 ], [ 74.3496036, 31.5077256 ], [ 74.3500674, 31.5092886 ], [ 74.3507028, 31.5115148 ], [ 74.3507303, 31.511654 ], [ 74.3507636, 31.5117906 ], [ 74.3506273, 31.5118011 ], [ 74.350936, 31.5131866 ], [ 74.3509761, 31.5133831 ], [ 74.3511016, 31.5139398 ], [ 74.3511161, 31.5139946 ], [ 74.3519419, 31.5167219 ], [ 74.3518808, 31.518664 ], [ 74.3508109, 31.5184621 ], [ 74.3499829, 31.5183923 ], [ 74.3487533, 31.5184309 ], [ 74.3475146, 31.5187792 ], [ 74.3472823, 31.5183832 ], [ 74.3468785, 31.5185245 ], [ 74.3464871, 31.5186843 ], [ 74.3458144, 31.5189508 ], [ 74.3457792, 31.5186924 ], [ 74.3413605, 31.5111985 ], [ 74.3413113, 31.5105411 ] ] ] } }
]
}
