{
"type": "FeatureCollection",
"name": "model_town_boundary",
"crs": { "type": "name", "properties": { "name": "urn:ogc:def:crs:OGC:1.3:CRS84" } },
"features": [
{ "type": "Feature", "properties": { "name": "Model Town", "source_files": 30 }, "geometry": { "type": "MultiPolygon", "coordinates": [ [ [ [ 74.312569921182117, 31.480957025934149 ], [ 74.310764947011833, 31.485264693882833 ], [ 74.311294232393109, 31.485450125048978 ], [ 74.313094165330909, 31.481120527866668 ], [ 74.312569921182117, 31.480957025934149 ] ] ], [ [ [ 74.313174022841196, 31.481145433742032 ], [ 74.311332350911897, 31.485443570942646 ], [ 74.311862522486621, 31.485628435675842 ], [ 74.313640216874163, 31.481290744981145 ], [ 74.313174022841196, 31.481145433742032 ] ] ], [ [ [ 74.311969994909461, 31.485644586570828 ], [ 74.313089762290971, 31.486014773419072 ], [ 74.314364563550427, 31.482951426714902 ], [ 74.31435045826376, 31.483474552911559 ], [ 74.313280953635967, 31.486035678500098 ], [ 74.31429151032458, 31.485660854108126 ], [ 74.314288592635066, 31.485769033684846 ], [ 74.313202889554177, 31.486222647285235 ], [ 74.313026034459426, 31.486646225314388 ], [ 74.313011026456309, 31.48703063927476 ], [ 74.31306069099314, 31.487207740705575 ], [ 74.314263089241948, 31.486714869310386 ], [ 74.31426061285012, 31.486806721915549 ], [ 74.313036931444046, 31.487306285890217 ], [ 74.3131936455177, 31.488035055671805 ], [ 74.313312208258779, 31.488231274313097 ], [ 74.314222566515625, 31.487869130132811 ], [ 74.314214104965657, 31.488098661869728 ], [ 74.313384221971972, 31.488427472774074 ], [ 74.314069222265189, 31.489192166873622 ], [ 74.314497782303576, 31.489144667501417 ], [ 74.31417933428169, 31.489283163972292 ], [ 74.314364735567054, 31.489418401276243 ], [ 74.314338950563524, 31.489722790853307 ], [ 74.312557045324823, 31.489186095561351 ], [ 74.312889337126748, 31.489902432301943 ], [ 74.314926633933922, 31.490524071634638 ], [ 74.315148707820583, 31.489993589567636 ], [ 74.315253062796629, 31.490015031208145 ], [ 74.315030633886877, 31.490543817596329 ], [ 74.315082291865181, 31.490570848617281 ], [ 74.320120310766342, 31.492130705552949 ], [ 74.320361070984603, 31.49158852664694 ], [ 74.319125885831511, 31.491200808421979 ], [ 74.31987879141991, 31.491220331720996 ], [ 74.320334606581028, 31.491361080603607 ], [ 74.320276146037529, 31.491228738361851 ], [ 74.320428887647026, 31.491284506294004 ], [ 74.320454072452719, 31.491233133726993 ], [ 74.320481860140902, 31.491304475557335 ], [ 74.320509563318595, 31.491234504533107 ], [ 74.320617396464243, 31.491237168364943 ], [ 74.320536326465984, 31.491432769424765 ], [ 74.321755661616962, 31.491818367617753 ], [ 74.321989248375914, 31.49126186421503 ], [ 74.32210077198711, 31.491265717700067 ], [ 74.321862601704566, 31.491831956634485 ], [ 74.323123551897979, 31.492212732588857 ], [ 74.323500788865104, 31.491316218375626 ], [ 74.323604792099999, 31.491320050887815 ], [ 74.323202566708872, 31.492274991434851 ], [ 74.324451256088409, 31.492667109750215 ], [ 74.324985383784579, 31.491341144283197 ], [ 74.325096325436419, 31.491342731297841 ], [ 74.324595270510528, 31.492593581461101 ], [ 74.326150964300552, 31.491964219619941 ], [ 74.32609622433894, 31.491794700202036 ], [ 74.326271236946027, 31.491358498772584 ], [ 74.326348766730433, 31.491359469346236 ], [ 74.326173575760762, 31.491790753258975 ], [ 74.326267422055309, 31.49191424222537 ], [ 74.327368198791248, 31.49144183533744 ], [ 74.327339087290667, 31.491371863414248 ], [ 74.327518979505726, 31.491374113709803 ], [ 74.327425928984823, 31.491447957114978 ], [ 74.327501749244931, 31.491542891536021 ], [ 74.328327510332656, 31.491796837125932 ], [ 74.328684442524164, 31.49149206182976 ], [ 74.328613055123043, 31.491695061436673 ], [ 74.32843003437479, 31.491768240371545 ], [ 74.329786156185932, 31.494255257723577 ], [ 74.330323176442036, 31.494378857395766 ], [ 74.330955198995014, 31.494411716108011 ], [ 74.32929989804741, 31.491410534778755 ], [ 74.329412499772616, 31.491412429900631 ], [ 74.331051188339927, 31.494397047117896 ], [ 74.332122158161013, 31.494230430825656 ], [ 74.332162373254945, 31.494387719062747 ], [ 74.330590412467686, 31.494575231195697 ], [ 74.330475951489248, 31.494768000832416 ], [ 74.329975170912704, 31.494618971304138 ], [ 74.329795640740102, 31.495085159096739 ], [ 74.33258236648048, 31.495969443663412 ], [ 74.332859010786763, 31.495374454904187 ], [ 74.332328945508806, 31.494515612560054 ], [ 74.332634804010013, 31.494489178209733 ], [ 74.332635586916851, 31.494436195771776 ], [ 74.333032788081951, 31.495047985576246 ], [ 74.333338859956868, 31.494397167920525 ], [ 74.333471617644747, 31.49438536123137 ], [ 74.333092565266142, 31.495335514535533 ], [ 74.333865216989068, 31.496712202853399 ], [ 74.333891339148423, 31.496649799994785 ], [ 74.333927844719284, 31.496714591140172 ], [ 74.334953083800357, 31.494253597486079 ], [ 74.335719043383875, 31.49418031946265 ], [ 74.33569257497453, 31.493731086264489 ], [ 74.335174762927124, 31.493721476799021 ], [ 74.335231514286647, 31.493585250295151 ], [ 74.335684477641209, 31.493593656439163 ], [ 74.335711805091151, 31.493058516467077 ], [ 74.33545006684956, 31.493053047358416 ], [ 74.335504560257931, 31.492919837203353 ], [ 74.335686977148981, 31.492924170948221 ], [ 74.335700508925981, 31.492440837022691 ], [ 74.335864177446027, 31.492040746267037 ], [ 74.335864514649884, 31.492244802565061 ], [ 74.338800259135596, 31.492303447759241 ], [ 74.33882642058802, 31.491770129766806 ], [ 74.336010194836405, 31.491686793351228 ], [ 74.336067514822304, 31.491551160600999 ], [ 74.338833145820075, 31.491632999408672 ], [ 74.338877202843776, 31.490993641971809 ], [ 74.337931608503624, 31.490217013245978 ], [ 74.336488725575293, 31.490837251623962 ], [ 74.336449521483203, 31.49106130907505 ], [ 74.336275422392703, 31.491059201729627 ], [ 74.336346616239268, 31.491026794763478 ], [ 74.336439267213848, 31.490671505826406 ], [ 74.336716626658628, 31.490593203288643 ], [ 74.33654058680024, 31.490431759533017 ], [ 74.3365958374211, 31.490301023393712 ], [ 74.336860109099732, 31.49054338128953 ], [ 74.337818533618304, 31.490062988830079 ], [ 74.337008336808339, 31.489317128252743 ], [ 74.33711809531755, 31.48905461696609 ], [ 74.338023551151551, 31.489888172846381 ], [ 74.338646036609276, 31.489116663750156 ], [ 74.337521976017655, 31.488102971815501 ], [ 74.337578038177654, 31.487973730977686 ], [ 74.338709460244814, 31.488994062887681 ], [ 74.338781844792891, 31.488836638163658 ], [ 74.338929512996017, 31.488370475749448 ], [ 74.338932357669222, 31.488001140025979 ], [ 74.337944933135006, 31.487123985816147 ], [ 74.337998476308101, 31.486995114268382 ], [ 74.338946517429164, 31.487839540509047 ], [ 74.339033288764128, 31.484530834904387 ], [ 74.339291512163271, 31.483903884906127 ], [ 74.339142943200684, 31.490880700336426 ], [ 74.340383866708521, 31.49197746328673 ], [ 74.340709111083058, 31.480445563879787 ], [ 74.342260276664064, 31.476798401714234 ], [ 74.340787850920336, 31.477391862891018 ], [ 74.340791117001515, 31.477121230848145 ], [ 74.341879386974384, 31.47667904460479 ], [ 74.341003999655953, 31.476403541284323 ], [ 74.340794889532646, 31.476803209701142 ], [ 74.340979525151141, 31.470826095364725 ], [ 74.338694917703108, 31.472725448196631 ], [ 74.339162147273527, 31.473310855961941 ], [ 74.339462534824762, 31.474008477180767 ], [ 74.339550762860284, 31.47459910934948 ], [ 74.339520402997834, 31.475936056400315 ], [ 74.339281256351839, 31.475865357725084 ], [ 74.339304787568679, 31.474917015506417 ], [ 74.338477541322106, 31.475627752869787 ], [ 74.338308810949698, 31.475577869763217 ], [ 74.339310266087963, 31.474717460358264 ], [ 74.339151502263618, 31.47382258424436 ], [ 74.33731633034138, 31.475279824707286 ], [ 74.33716404759879, 31.475232973045649 ], [ 74.339099054714964, 31.473695570328381 ], [ 74.338521473016613, 31.472869246479309 ], [ 74.336033801658019, 31.474885232979474 ], [ 74.335730027282523, 31.474791768934885 ], [ 74.338318272632435, 31.472693027478218 ], [ 74.337390797315749, 31.472153847491736 ], [ 74.334594399227598, 31.474441404131756 ], [ 74.334442514186193, 31.474394442587151 ], [ 74.337250934036661, 31.472097058589334 ], [ 74.336745729345608, 31.471934962558429 ], [ 74.336111777635523, 31.471924700180185 ], [ 74.333786273451878, 31.473837369614973 ], [ 74.333910333590296, 31.47422989513371 ], [ 74.33363069145048, 31.473795386513309 ], [ 74.33268318641511, 31.473851229558914 ], [ 74.331822574860595, 31.47301700040207 ], [ 74.331736125282802, 31.473100844159195 ], [ 74.331720761266638, 31.473554455889417 ], [ 74.331593585142002, 31.473515238646335 ], [ 74.33160978292706, 31.473067877209257 ], [ 74.331733802120766, 31.472936849193548 ], [ 74.330558437702322, 31.471873616424599 ], [ 74.330548529779179, 31.473192613470857 ], [ 74.33037018913933, 31.473137353485434 ], [ 74.330383536543494, 31.471790299195586 ], [ 74.329184642645359, 31.471763276214453 ], [ 74.329151778596014, 31.4727620624843 ], [ 74.328992754388707, 31.472713393289315 ], [ 74.329024133811174, 31.471759793639183 ], [ 74.327741073189245, 31.471738358918614 ], [ 74.327726350388986, 31.47232580551816 ], [ 74.327566975065778, 31.472277026834796 ], [ 74.32758051608306, 31.471736721612142 ], [ 74.326337847014841, 31.471724038673898 ], [ 74.326332648283, 31.471899238538583 ], [ 74.326001822687587, 31.471797980465521 ], [ 74.326097990419754, 31.471719248691159 ], [ 74.325711647623038, 31.471709163926231 ], [ 74.324974054848667, 31.471483399682015 ], [ 74.326181667039748, 31.471514924901641 ], [ 74.326187530314854, 31.471048928814628 ], [ 74.32421382037974, 31.470998502098297 ], [ 74.324259550891114, 31.470917069107681 ], [ 74.326188569549515, 31.470966353406535 ], [ 74.326194234258182, 31.470516205362991 ], [ 74.32439889970982, 31.470483287950813 ], [ 74.324581288945225, 31.469915525595397 ], [ 74.323455252416323, 31.4694391227263 ], [ 74.322295541233672, 31.469242997257705 ], [ 74.321859574727185, 31.470416834391212 ], [ 74.321924923923959, 31.470437886000287 ], [ 74.321586434878895, 31.470429344925812 ], [ 74.320796242627196, 31.470199443975492 ], [ 74.320744449052015, 31.470337908838136 ], [ 74.320545688260225, 31.470284204315725 ], [ 74.320574642836817, 31.47013432204453 ], [ 74.318881064259543, 31.469628766451613 ], [ 74.319288871210887, 31.470371339145192 ], [ 74.319021505112985, 31.470368716641197 ], [ 74.318677835123069, 31.469768722352821 ], [ 74.318410229037113, 31.470366272117193 ], [ 74.318280036667289, 31.470365298933356 ], [ 74.31859512391938, 31.469624877858838 ], [ 74.318260088618885, 31.469073249241713 ], [ 74.317712277053019, 31.470361056041646 ], [ 74.317652129314411, 31.470360606366548 ], [ 74.318193027972782, 31.469040140783896 ], [ 74.317488772714981, 31.469343971422269 ], [ 74.317049784427851, 31.4703536148333 ], [ 74.316178113694704, 31.470342163937083 ], [ 74.316811246422802, 31.470911357677064 ], [ 74.316718591505349, 31.4711289160517 ], [ 74.316036915233269, 31.470530001589626 ], [ 74.315940024690519, 31.473097018771124 ], [ 74.315781338142997, 31.473348537868208 ], [ 74.315883507654192, 31.47039856650116 ], [ 74.315384105656463, 31.469983355758824 ], [ 74.315242689769363, 31.47430737384208 ], [ 74.315370094588076, 31.47431076420898 ], [ 74.315313659649462, 31.474446790636296 ], [ 74.315238202985356, 31.474444567307202 ], [ 74.315132857912587, 31.474882586081428 ], [ 74.31514703503008, 31.47444214010957 ], [ 74.314619484869311, 31.474428097963266 ], [ 74.31456197164303, 31.476243251242838 ], [ 74.314065882324115, 31.47741220779746 ], [ 74.314526610713202, 31.477571162047379 ], [ 74.31452272317614, 31.477696493760106 ], [ 74.314010896806195, 31.477541118988512 ], [ 74.3135879243153, 31.478532720920818 ], [ 74.314487065650169, 31.478832984469474 ], [ 74.314482799948891, 31.478959654206321 ], [ 74.313532939639941, 31.478661623759702 ], [ 74.313093433200791, 31.479691961967447 ], [ 74.314191309188004, 31.480048336897188 ], [ 74.314467698194221, 31.479408171022019 ], [ 74.314457008118552, 31.479725635484364 ], [ 74.314309108941487, 31.480066598260613 ], [ 74.314443536811353, 31.480125692170116 ], [ 74.314440241256747, 31.480223559479469 ], [ 74.314791443234881, 31.480232389059708 ], [ 74.315279135091401, 31.480381955726639 ], [ 74.314821861959416, 31.480370459151949 ], [ 74.314255207727953, 31.480195837915968 ], [ 74.313844426874326, 31.481208463243565 ], [ 74.314400665592373, 31.48139883305069 ], [ 74.314398696122026, 31.481457319985708 ], [ 74.314944075033594, 31.481567498788689 ], [ 74.314984857584719, 31.481469159002277 ], [ 74.315192117117107, 31.481473345133907 ], [ 74.315143193185094, 31.481609642346438 ], [ 74.314629202244788, 31.481599260614683 ], [ 74.313790676544158, 31.481337752397359 ], [ 74.311969994909461, 31.485644586570828 ] ] ], [ [ [ 74.310702728323633, 31.485398145589219 ], [ 74.310045368007223, 31.486923047357362 ], [ 74.31058986749656, 31.487100746739575 ], [ 74.311241399707995, 31.485573937254525 ], [ 74.310702728323633, 31.485398145589219 ] ] ], [ [ [ 74.311279324134546, 31.485567320424387 ], [ 74.310626166127179, 31.487091569411408 ], [ 74.31118649120144, 31.487272988552707 ], [ 74.311816504521488, 31.485754385133774 ], [ 74.311279324134546, 31.485567320424387 ] ] ], [ [ [ 74.311915647201943, 31.485773693979556 ], [ 74.310953848764683, 31.488099993885424 ], [ 74.312052167649085, 31.488492985084136 ], [ 74.313036035555982, 31.486144075220693 ], [ 74.311915647201943, 31.485773693979556 ] ] ], [ [ [ 74.309924142963311, 31.487648352236523 ], [ 74.310826953392009, 31.488092254108459 ], [ 74.311127533722569, 31.487396396893068 ], [ 74.310191998661608, 31.487096425511584 ], [ 74.309924142963311, 31.487648352236523 ] ] ], [ [ [ 74.312059956699358, 31.48863123324449 ], [ 74.312019201578238, 31.488576003872318 ], [ 74.311135134800139, 31.488285879516116 ], [ 74.311906054467187, 31.488865476882836 ], [ 74.312059956699358, 31.48863123324449 ] ] ], [ [ [ 74.312623508134607, 31.48082768568062 ], [ 74.313728860017903, 31.481190311743077 ], [ 74.314137638001071, 31.480177647742078 ], [ 74.313039228197454, 31.47982110795391 ], [ 74.312623508134607, 31.48082768568062 ] ] ], [ [ [ 74.313144942319198, 31.488335745846694 ], [ 74.31294472976812, 31.487740904940466 ], [ 74.312858129195945, 31.487105330991067 ], [ 74.312815025039228, 31.48717403553842 ], [ 74.312798587407229, 31.487074718111057 ], [ 74.312107965265341, 31.488748878543511 ], [ 74.313144942319198, 31.488335745846694 ] ] ], [ [ [ 74.313759051528592, 31.489124254432546 ], [ 74.313184005346812, 31.488438130209143 ], [ 74.312169694012951, 31.488857697983612 ], [ 74.312517902122593, 31.489027996250265 ], [ 74.31427472502547, 31.489554807643223 ], [ 74.313759051528592, 31.489124254432546 ] ] ], [ [ [ 74.314752161789386, 31.470449156840431 ], [ 74.314624080050024, 31.474290907828387 ], [ 74.315151980562803, 31.474304959454912 ], [ 74.315308272742442, 31.46997011215236 ], [ 74.314752161789386, 31.470449156840431 ] ] ], [ [ [ 74.320217063332549, 31.492155728023288 ], [ 74.322126107763495, 31.492728729363431 ], [ 74.322354277080493, 31.492208426595024 ], [ 74.320458471278855, 31.491614575040014 ], [ 74.320217063332549, 31.492155728023288 ] ] ], [ [ [ 74.322221138972765, 31.492757815221303 ], [ 74.324148561683728, 31.493350145900727 ], [ 74.324394194397087, 31.492816677992845 ], [ 74.322450905907345, 31.492236287280981 ], [ 74.322221138972765, 31.492757815221303 ] ] ], [ [ [ 74.324242639773814, 31.493381663936393 ], [ 74.326791592094338, 31.494165134117928 ], [ 74.327016073168835, 31.493625405724892 ], [ 74.324489278675642, 31.492848394412071 ], [ 74.324242639773814, 31.493381663936393 ] ] ], [ [ [ 74.324313414482958, 31.49365233658758 ], [ 74.324793937873793, 31.493788760896052 ], [ 74.324827925250176, 31.493706685286355 ], [ 74.324351688093756, 31.493572343991445 ], [ 74.324313414482958, 31.49365233658758 ] ] ], [ [ [ 74.324711245215596, 31.492697787095196 ], [ 74.328315808026829, 31.493811564999625 ], [ 74.329632120575354, 31.494199236464109 ], [ 74.328959585395637, 31.492970767794684 ], [ 74.328640973715508, 31.492999594203628 ], [ 74.326678446808501, 31.492383817129944 ], [ 74.326350012287151, 31.492256868262501 ], [ 74.326224790536131, 31.492086440201863 ], [ 74.324711245215596, 31.492697787095196 ] ] ], [ [ [ 74.32564972786713, 31.497008975239005 ], [ 74.326454469243345, 31.495029576270436 ], [ 74.325872449670086, 31.494858713060854 ], [ 74.325204834221367, 31.496537832398133 ], [ 74.325158215817837, 31.496913232859267 ], [ 74.32564972786713, 31.497008975239005 ] ] ], [ [ [ 74.325509308773817, 31.494591373175133 ], [ 74.326002578167632, 31.494741044245185 ], [ 74.326046070444178, 31.4946433007187 ], [ 74.325554368375919, 31.494491590149643 ], [ 74.325509308773817, 31.494591373175133 ] ] ], [ [ [ 74.326155222475307, 31.494179935595245 ], [ 74.325987073100364, 31.494591566297746 ], [ 74.32619077639805, 31.494651346280456 ], [ 74.326360481661922, 31.494236734535651 ], [ 74.326155222475307, 31.494179935595245 ] ] ], [ [ [ 74.325730258211621, 31.496993112828498 ], [ 74.328690776032033, 31.497547538139493 ], [ 74.328830653187353, 31.497113995111754 ], [ 74.326028596414517, 31.496265987423897 ], [ 74.325730258211621, 31.496993112828498 ] ] ], [ [ [ 74.326443389749542, 31.492196629784203 ], [ 74.328635155505268, 31.492888809255398 ], [ 74.328902955994081, 31.492867324919278 ], [ 74.328339951445045, 31.491840884981031 ], [ 74.328233722341764, 31.491868907793535 ], [ 74.327828631092544, 31.491773229249123 ], [ 74.327570183394627, 31.491666868580054 ], [ 74.327494507691981, 31.491675398428672 ], [ 74.327405560530835, 31.491558994319053 ], [ 74.326287602517525, 31.492023882091726 ], [ 74.326443389749542, 31.492196629784203 ] ] ], [ [ [ 74.326601754633188, 31.494486006771435 ], [ 74.326692816114885, 31.494323660482312 ], [ 74.326447188525037, 31.494247641497047 ], [ 74.326373615891754, 31.494425951103139 ], [ 74.326601754633188, 31.494486006771435 ] ] ], [ [ [ 74.326293498959672, 31.495620345984012 ], [ 74.326081722523583, 31.496136507009915 ], [ 74.328810347374727, 31.496972365421197 ], [ 74.328873444136377, 31.496981365167159 ], [ 74.329095936068725, 31.496480787545273 ], [ 74.326354189669914, 31.495632639326487 ], [ 74.326293498959672, 31.495620345984012 ] ] ], [ [ [ 74.32760560359624, 31.470984952876709 ], [ 74.32762096455518, 31.470542345184324 ], [ 74.326354764725536, 31.470519146952974 ], [ 74.326349098121142, 31.470969404841881 ], [ 74.32760560359624, 31.470984952876709 ] ] ], [ [ [ 74.32760273939904, 31.471067490164845 ], [ 74.326348060834363, 31.471051964573089 ], [ 74.326342200454803, 31.4715176565491 ], [ 74.327586675874812, 31.471530358611208 ], [ 74.32760273939904, 31.471067490164845 ] ] ], [ [ [ 74.326618120196699, 31.494836629453673 ], [ 74.329388901159831, 31.495703332363039 ], [ 74.329594821550288, 31.495168625053971 ], [ 74.326830215329593, 31.494329135443799 ], [ 74.326618120196699, 31.494836629453673 ] ] ], [ [ [ 74.326564115565375, 31.494965848121616 ], [ 74.326346625441175, 31.495490858226237 ], [ 74.327183891914885, 31.495744459550316 ], [ 74.327405178753693, 31.495224186539133 ], [ 74.326564115565375, 31.494965848121616 ] ] ], [ [ [ 74.326884215991242, 31.494199923837151 ], [ 74.329645029175339, 31.49503825311584 ], [ 74.329831223170885, 31.494554761473918 ], [ 74.32709131466062, 31.493704380889319 ], [ 74.326884215991242, 31.494199923837151 ] ] ], [ [ [ 74.327838356992785, 31.491748302721394 ], [ 74.327796075359672, 31.491758350700774 ], [ 74.327830568141891, 31.491768399480563 ], [ 74.327838356992785, 31.491748302721394 ] ] ], [ [ [ 74.328142104802595, 31.495456513887241 ], [ 74.327495457900937, 31.495260859260711 ], [ 74.327273503285667, 31.495780239683821 ], [ 74.327910172145167, 31.495970132509466 ], [ 74.328142104802595, 31.495456513887241 ] ] ], [ [ [ 74.327781481372554, 31.470545555371412 ], [ 74.32774724827128, 31.471531996294715 ], [ 74.32903025499472, 31.471553447978287 ], [ 74.329056156831541, 31.47057321259663 ], [ 74.327781481372554, 31.470545555371412 ] ] ], [ [ [ 74.327999414891224, 31.496006870748733 ], [ 74.329121712451112, 31.49634657332015 ], [ 74.329336503094083, 31.495833055732319 ], [ 74.328231988767172, 31.495494155817557 ], [ 74.327999414891224, 31.496006870748733 ] ] ], [ [ [ 74.32855759912627, 31.491656947170473 ], [ 74.328566864977049, 31.491625509926056 ], [ 74.328545393943898, 31.491646772808991 ], [ 74.32855759912627, 31.491656947170473 ] ] ], [ [ [ 74.329190764478454, 31.471556930262409 ], [ 74.330423702027332, 31.471584721102012 ], [ 74.330462906054137, 31.470603720426492 ], [ 74.329216663643535, 31.470576695103954 ], [ 74.329190764478454, 31.471556930262409 ] ] ], [ [ [ 74.32921052498962, 31.496384229225299 ], [ 74.330336842747045, 31.496712950877711 ], [ 74.330573793766078, 31.49620291965611 ], [ 74.329426188597722, 31.495871092805178 ], [ 74.32921052498962, 31.496384229225299 ] ] ], [ [ [ 74.328948622092426, 31.497013832138702 ], [ 74.331764582055015, 31.497867717395369 ], [ 74.331982633409837, 31.497353620556126 ], [ 74.329156252095473, 31.496513360605238 ], [ 74.328948622092426, 31.497013832138702 ] ] ], [ [ [ 74.329478854035798, 31.495741476193899 ], [ 74.332304903112913, 31.496596955374176 ], [ 74.332525616884482, 31.496097792340837 ], [ 74.329685463004097, 31.49520772077711 ], [ 74.329478854035798, 31.495741476193899 ] ] ], [ [ [ 74.329956375464974, 31.494593570779365 ], [ 74.330444728550717, 31.494723494587035 ], [ 74.330516393287695, 31.494542759564709 ], [ 74.330457638879537, 31.494535911653227 ], [ 74.329956375464974, 31.494593570779365 ] ] ], [ [ [ 74.331601740807756, 31.498092836332514 ], [ 74.331709869377875, 31.497996711455144 ], [ 74.328981919833964, 31.497160254090414 ], [ 74.328918504231751, 31.497151396020538 ], [ 74.328783556151024, 31.497567193230456 ], [ 74.331601740807756, 31.498092836332514 ] ] ], [ [ [ 74.330584215189305, 31.471588251879279 ], [ 74.335998049911311, 31.471711031195142 ], [ 74.336040890647183, 31.470724397813189 ], [ 74.330623418334937, 31.470607200636561 ], [ 74.330584215189305, 31.471588251879279 ] ] ], [ [ [ 74.330695041226022, 31.471797107333323 ], [ 74.331848174313166, 31.472840227925843 ], [ 74.332092987821667, 31.472677627339554 ], [ 74.334462315452456, 31.472750197843386 ], [ 74.334697831764089, 31.472908521956555 ], [ 74.335897933725406, 31.471911233720007 ], [ 74.330695041226022, 31.471797107333323 ] ] ], [ [ [ 74.331279835344674, 31.496413223728652 ], [ 74.330663450185597, 31.49624145406457 ], [ 74.330425402595239, 31.496751578911596 ], [ 74.331065141096872, 31.496932093505052 ], [ 74.331279835344674, 31.496413223728652 ] ] ], [ [ [ 74.331368230666101, 31.496454416989902 ], [ 74.331153184333473, 31.496971634325806 ], [ 74.332037347474198, 31.497224620052044 ], [ 74.332249010009548, 31.496725578143408 ], [ 74.331368230666101, 31.496454416989902 ] ] ], [ [ [ 74.331936700316106, 31.472920166001476 ], [ 74.332880829533465, 31.47369017966767 ], [ 74.33309491069727, 31.473699883781368 ], [ 74.333305103922683, 31.473709412834406 ], [ 74.333688990011311, 31.473726812940225 ], [ 74.334604004029913, 31.472984628810764 ], [ 74.334432883657328, 31.472859587995945 ], [ 74.332114610657555, 31.472788731869819 ], [ 74.331936700316106, 31.472920166001476 ] ] ], [ [ [ 74.333804687134176, 31.497010205565658 ], [ 74.332948023209042, 31.495649519735473 ], [ 74.331865198404358, 31.498139734955394 ], [ 74.333239054821746, 31.498367872514308 ], [ 74.333804687134176, 31.497010205565658 ] ] ], [ [ [ 74.333186091680588, 31.473719297218377 ], [ 74.333305103922683, 31.473709412834406 ], [ 74.333184894480254, 31.473703963419453 ], [ 74.333186091680588, 31.473719297218377 ] ] ], [ [ [ 74.336158374142599, 31.471719005476174 ], [ 74.339407122478647, 31.471771561232785 ], [ 74.339481645039569, 31.470785621947865 ], [ 74.336201441983064, 31.470727105225052 ], [ 74.336158374142599, 31.471719005476174 ] ] ], [ [ [ 74.335847110944854, 31.492927278315889 ], [ 74.336974881917712, 31.492944258462813 ], [ 74.33701246253095, 31.492396246025894 ], [ 74.335862375971914, 31.492382038074794 ], [ 74.335847110944854, 31.492927278315889 ] ] ], [ [ [ 74.335830954981134, 31.493595537153038 ], [ 74.338754139041484, 31.493655343494684 ], [ 74.338772283314412, 31.493108569143335 ], [ 74.335843268980824, 31.493064488857296 ], [ 74.335830954981134, 31.493595537153038 ] ] ], [ [ [ 74.33790678427421, 31.492958282240664 ], [ 74.338776835786575, 31.492971369155416 ], [ 74.338794448177907, 31.492440607233096 ], [ 74.338518745161267, 31.492430749135348 ], [ 74.338508068774445, 31.492605404897152 ], [ 74.338501364420509, 31.492430127645797 ], [ 74.337919955973561, 31.492409337926087 ], [ 74.33790678427421, 31.492958282240664 ] ] ], [ [ [ 74.337135168548073, 31.4929466719198 ], [ 74.337746631414632, 31.492955872343948 ], [ 74.337759840097533, 31.492405472348782 ], [ 74.337172778436496, 31.492398225092138 ], [ 74.337135168548073, 31.4929466719198 ] ] ], [ [ [ 74.335878537334935, 31.494165231085166 ], [ 74.338746005526119, 31.493900458844841 ], [ 74.338749586210199, 31.493792536902305 ], [ 74.335853140247238, 31.493734203904854 ], [ 74.335878537334935, 31.494165231085166 ] ] ], [ [ [ 74.339585953768193, 31.471625065837681 ], [ 74.340574186739374, 31.470815511331324 ], [ 74.339642171816791, 31.470790058446767 ], [ 74.339585953768193, 31.471625065837681 ] ] ], [ [ [ 74.337443890523062, 31.471946260452761 ], [ 74.338492091720099, 31.47254920111941 ], [ 74.339168395988494, 31.471974151552619 ], [ 74.337443890523062, 31.471946260452761 ] ] ], [ [ [ 74.338969425019116, 31.488957239043714 ], [ 74.338218554696127, 31.490009477974581 ], [ 74.338922243209552, 31.490636899504121 ], [ 74.338975612204678, 31.490599697595137 ], [ 74.338969425019116, 31.488957239043714 ] ] ], [ [ [ 74.340337322134374, 31.493732477628939 ], [ 74.340375543849959, 31.492291267917167 ], [ 74.339121674864415, 31.491217756500774 ], [ 74.339013242309591, 31.493873580699798 ], [ 74.340337322134374, 31.493732477628939 ] ] ] ] } }
]
}
